"id","title","address ","arv","cardiovascular","dental","department ","diabetes","emergency ","free_obstetric_care_program   ","general_consultation","hypertension","institution_code","intensive_care","laboratory","latitude ","longitude","malaria","number_of_adult_beds","number_of_pediatric_beds","obgyn","operating_room","orl ","palliative_care","pediatrics","pharmacy","physical_therapy","psychology_service","section","status","surgery","telephone","town ","type","vaccination"
"11795","CAL Jules Fleury"," ","0","0","0","NIPPES  ","1","1","0","1","1","102101","1","1","18.5046","-73.3423 ","1","9 ","2","1","1","0","0","0","1","0","0"," ","Publique","1","","ANSE A VEAU","Hopital","1"
"11812","CS Aquin"," ","0","0","1","SUD  ","1","1","1","1","1","73101","1","1","18.2821","-73.39759999 ","1","20 ","0","1","1","0","0","1","1","0","0"," ","Publique","1","","AQUIN","Hopital","1"
"11828","Hopital Reforme de Saintard"," ","0","0","1","OUEST  ","1","1","0","1","1","14110","0","1",""," ","1","0 ","0","0","0","0","0","0","1","0","0"," ","Privée","0","","ARCAHAIE","Hopital","0"
"11847","Bon Samaritain"," ","0","0","1","NORD OUEST  ","1","1","1","1","1","91301","1","1","19.7837","-72.7971 ","1","9 ","0","1","0","1","0","1","1","0","1"," ","Mixte","1","","BASSIN BLEU","Hopital","1"
"11852","Hôpital Notre Dame de la Nativité"," ","1","1","1","CENTRE  ","0","1","1","1","1","63201","0","1","18.868500000","-71.76179999 ","1","5 ","1","1","1","0","1","1","1","1","1"," ","Publique","0","","BELLADERE","Hopital","1"
"11870","Hopital Bon Sauveur de Cange"," ","0","0","1","CENTRE  ","1","1","1","1","1","62303","1","1",""," ","1","10 ","1","1","1","1","0","1","1","0","1"," ","Privée","1","","BOUCAN CARRe","Hopital","1"
"11885","Hôpital Justinien"," ","1","1","1","NORD  ","1","1","1","1","1","31100","0","1","19.7636","-72.20629999 ","1","96 ","10","1","1","0","1","1","1","1","0"," ","Publique","1","","CAP-HAITIEN","Hopital","1"
"11887","CSL Fort St Michel"," ","1","1","1","NORD  ","1","1","1","1","1","31102","0","1","19.7423","-72.19419999 ","1","12 ","0","1","1","0","1","1","1","1","1"," ","Publique","0","","CAP-HAITIEN","Hopital","1"
"11903","Hôpital de carrefour"," ","1","1","1","OUEST  ","1","1","1","1","1","11303","0","1","18.539400000","-72.40749999 ","1","35 ","18","1","0","0","1","1","1","1","1"," ","Publique","1","","CARREFOUR","Hopital","1"
"11906","Hôpital Adventiste d'Haiti (HAH)"," ","0","0","0","OUEST  ","1","1","0","1","1","11306","1","1","18.532399999","-72.387 ","1","15 ","15","1","1","1","0","1","1","0","1"," ","Privée","1","","CARREFOUR","Hopital","1"
"11907","CSL La Barque de Pierre"," ","0","0","0","OUEST  ","0","0","0","0","0","11307","0","0","18.4660","-72.4111 ","0","0 ","0","0","0","0","0","0","0","0","0"," ","Privée","0","","CARREFOUR","Hopital","0"
"11930","Hop Bonne Fin"," ","0","0","0","SUD  ","1","1","0","1","1","73301","0","1","18.3936","-73.6138 ","1","67 ","0","1","1","0","0","1","1","0","1"," ","Mixte","1","","CAVAILLON","Hopital","0"
"11936","HIC"," ","1","1","1","SUD  ","1","1","1","1","1","71100","0","1","18.194700000","-73.75 ","1","77 ","6","1","1","0","1","1","1","1","0"," ","Publique","1","","CAYES","Hopital","1"
"11937","I. O. Brenda"," ","0","0","0","SUD  ","0","0","0","0","0","71101","0","1","18.196200000","-73.7577 ","0","2 ","0","0","1","1","0","0","1","0","1"," ","Mixte","0","","CAYES","Hopital","0"
"11938","Sanatorium"," ","0","0","0","SUD  ","0","0","0","0","0","71102","0","0","18.223500000","-73.7453 ","0","0 ","0","0","0","0","0","0","0","0","0"," ","Publique","0","","CAYES","Hopital","0"
"11939","Citymed"," ","0","0","0","SUD  ","1","1","0","1","1","71103","0","1","18.192799999","-73.75249999 ","1","7 ","0","1","1","0","0","0","1","0","0"," ","Privée","0","","CAYES","Hopital","1"
"11940","Cite Lumiere"," ","0","0","0","SUD  ","1","0","0","0","1","71104","0","0","18.229099999","-73.76080000 ","1","64 ","0","0","0","0","0","0","0","0","0"," ","Mixte","0","","CAYES","Hopital","1"
"11959","Centre de Santé de Cerca La Source"," ","0","0","0","CENTRE  ","1","1","1","1","1","64101","0","1","19.1680","-71.7904 ","1","6 ","0","0","0","0","0","0","1","0","1"," ","Mixte","0","","CERCA LA SOURCE","Hopital","1"
"11971","CHOSCAL"," ","0","0","0","OUEST  ","1","1","1","1","1","11229","1","1","18.5704","-72.2915 ","1","49 ","40","1","1","0","0","1","1","0","1"," ","Publique","1","","CITE SOLEIL","Hopital","1"
"11973","Centre médical & de nutrition Rosalie Rendu"," ","0","0","0","OUEST  ","0","0","0","0","0","11232","0","0","18.570417","-72.291467 ","0","0 ","0","0","0","0","0","0","0","0","0"," ","Publique","0","","CITE SOLEIL","Hopital","0"
"11988","Hôpital Défilé de Beudet"," ","0","0","0","OUEST  ","0","0","0","0","0","13102","0","0","18.6127","-72.21309999 ","0","0 ","0","0","0","0","0","0","0","0","0"," ","Publique","0","","CROIX DES BOUQUETS","Hopital","0"
"111008","CAL de la Communauté Dame-Marienne"," ","1","1","0","GRANDE ANSE  ","1","1","1","1","1","82201","0","1","18.563500000","-74.42199999 ","1","8 ","0","1","1","0","1","0","1","1","1"," ","Publique","0","","DAME-MARIE","Hopital","1"
"111017","Citymed de Delmas"," ","0","0","0","OUEST  ","0","0","0","0","0","11205","0","0","18.5704","-72.2915 ","0","0 ","0","0","0","0","0","0","0","0","0"," ","Privée","0","","DELMAS","Hopital","0"
"111018","Hopital de Delmas 33"," ","0","0","0","OUEST  ","0","0","0","0","0","11206","0","0","18.570417","-72.291467 ","0","0 ","0","0","0","0","0","0","0","0","0"," ","Publique","0","","DELMAS","Hopital","0"
"111020","Hôpital Grace Children"," ","1","1","0","OUEST  ","0","0","0","0","0","11208","0","0","18.5609","-72.30190000 ","0","0 ","0","0","0","0","1","0","0","1","0"," ","Privée","0","","DELMAS","Hopital","0"
"111021","Hôpital Espoir"," ","0","0","0","OUEST  ","0","0","0","0","0","11209","0","0","18.542400000","-72.27899999 ","0","0 ","0","0","0","0","0","0","0","0","0"," ","Privée","0","","DELMAS","Hopital","0"
"111023","Hopital saint Charbel (DASH)"," ","0","0","0","OUEST  ","0","0","0","0","0","11211","0","0","18.5704","-72.2915 ","0","0 ","0","0","0","0","0","0","0","0","0"," ","Privée","0","","DELMAS","Hopital","0"
"111024","Hopital Jude Anne (DASH)"," ","0","0","0","OUEST  ","0","0","0","0","0","11212","0","0","18.5704","-72.2915 ","0","0 ","0","0","0","0","0","0","0","0","0"," ","Privée","0","","DELMAS","Hopital","0"
"111028","Hopital Isaïe Jeanty"," ","1","1","0","OUEST  ","0","0","1","0","0","11217","0","1","18.5645","-72.3354 ","0","0 ","0","0","0","0","1","0","1","1","0"," ","Publique","0","","DELMAS","Hopital","0"
"111040","Nos petits frères et soeurs (Hopital St damien)"," ","0","0","1","OUEST  ","0","1","0","0","1","11234","1","1","18.48086","-72.25457 ","1","0 ","0","1","1","1","0","1","1","0","1"," ","Privée","1","","DELMAS","Hopital","1"
"111043","Hopital Medicaire"," ","0","0","0","OUEST  ","0","0","0","0","0","11243","0","0",""," ","0","0 ","0","0","0","0","0","0","0","0","0"," ","Privée","0","","DELMAS","Hopital","0"
"111051","Claire Heureuse"," ","1","1","1","ARTIBONITE  ","1","1","0","1","1","54101","1","1","19.2624","-72.51680000 ","1","24 ","10","1","1","0","1","1","1","1","0"," ","Mixte","1","","DESSALINES","Hopital","1"
"111069","Toussaint Louverture"," ","0","0","0","ARTIBONITE  ","1","1","0","1","1","51201","0","1","19.4849","-72.48069999 ","1","3 ","0","0","0","0","0","0","1","0","0"," ","Privée","0","","ENNERY","Hopital","1"
"111077","CAL de Béthel de L'Armée Du Salut"," ","0","0","0","NIPPES  ","1","1","0","1","1","101302","0","1","18.3623","-73.2309 ","1","10 ","0","1","0","1","0","1","1","0","1"," ","Mixte","1","","FONDS-DES-NEGRES","Hopital","1"
"111082","Hôpital de Fort Liberté"," ","1","1","0","NORD EST  ","1","1","1","1","1","41100","1","1","19.668099999","-71.83820000 ","1","32 ","8","1","1","0","1","1","1","1","1"," ","Mixte","1","","FORT-LIBERTe","Hopital","1"
"111093","La Providence"," ","1","1","1","ARTIBONITE  ","1","1","1","1","1","51101","0","1","19.4514","-72.68540000 ","1","52 ","0","1","1","0","1","1","1","1","1"," ","Publique","1","","GONAIVES","Hopital","1"
"111094","Bayonnais"," ","0","0","0","ARTIBONITE  ","0","0","0","1","1","51102","0","0","19.4114","-72.47839999 ","0","0 ","0","0","0","0","0","0","1","0","0"," ","Publique","0","","GONAIVES","Hopital","1"
"111101","Trou Sable"," ","0","0","0","ARTIBONITE  ","1","1","0","1","1","51109","1","1","19.4437","-72.68019999 ","1","24 ","3","1","1","0","0","1","1","0","0"," ","Privée","1","","GONAIVES","Hopital","1"
"111130","Hopital St Charles"," ","0","0","0","OUEST  ","0","0","0","0","0","11613","0","0","18.5385","-72.4097 ","0","0 ","0","0","0","0","0","0","0","0","0"," ","Privée","0","","GRESSIER","Hopital","0"
"111131","Alma Mater"," ","1","1","1","ARTIBONITE  ","1","1","0","1","1","52101","0","1","19.672599999","-72.67640000 ","1","8 ","1","1","1","0","1","1","1","1","1"," ","Mixte","1","","GROS-MORNE","Hopital","1"
"111144","Hôpital Sainte Thérèse"," ","1","1","1","CENTRE  ","1","1","1","1","1","61100","1","1","19.146699999","-72.01000000 ","1","5 ","1","1","1","1","1","1","1","1","1"," ","Publique","1","","HINCHE","Hopital","1"
"111171","Hopital St Michel "," ","1","1","1","SUD EST  ","1","1","1","1","1","21100","0","1","18.2394","-72.54189999 ","1","42 ","1","1","1","1","1","1","1","1","1"," ","Publique","1","","JACMEL","Hopital","1"
"111172","N.D la Paix"," ","0","1","1","NORD OUEST  ","1","1","0","1","1","93401","1","1","19.858699999","-73.18609999 ","1","14 ","8","1","1","1","1","1","1","1","0"," ","Publique","1","","JEAN-RABEL","Hopital","1"
"111189","Hôpital Saint Antoine"," ","1","1","1","GRANDE ANSE  ","1","1","1","1","1","81100","1","1","18.646699999","-74.11799999 ","1","114 ","44","1","1","1","1","1","1","1","1"," ","Publique","1","","JEREMIE","Hopital","1"
"111205","Disp de Bongars (mission baptiste) "," ","0","0","0","OUEST  ","0","0","0","0","0","11506","0","0","18.4043","-72.2897 ","0","0 ","0","0","0","0","0","0","0","0","0"," ","Privée","0","","KENSCOFF","Hopital","0"
"111214","CAL L’Estère"," ","0","0","1","ARTIBONITE  ","1","1","0","1","1","51301","1","1","19.306000000","-72.61010000 ","1","0 ","0","1","1","0","0","1","1","0","0"," ","Publique","1","","L'ESTERE","Hopital","1"
"111218","Palmistes"," ","0","1","1","NORD OUEST  ","1","1","1","1","1","91201","0","1","20.020199999","-72.72469999 ","1","0 ","0","0","0","0","1","0","1","1","0"," ","Publique","0","","LA TORTUE","Hopital","1"
"111228","Hopital  de Lascaobas"," ","1","1","1","CENTRE  ","1","1","1","1","1","63101","0","1","18.8309","-71.9338 ","1","7 ","1","1","1","0","1","1","1","1","1"," ","Mixte","0","","LASCAHOBAS","Hopital","1"
"111231","CAL de L'Asile"," ","0","0","0","NIPPES  ","0","1","0","1","1","102301","0","1",""," ","1","28 ","9","1","1","1","0","1","1","0","1"," ","Publique","0","","L'ASILE","Hopital","1"
"111235","Hôpital Cardinal Léger"," ","0","0","0","OUEST  ","1","0","0","0","1","12104","0","1","18.536999999","-72.56019999 ","1","34 ","0","1","1","0","0","0","1","0","0"," ","Privée","1","","LEOGANE","Hopital","0"
"111237","Sanatorium de Léogane"," ","0","0","0","OUEST  ","0","1","0","1","0","12106","0","1","18.513300000","-72.60519999 ","0","0 ","0","0","0","0","0","0","1","0","0"," ","Publique","0","","LEOGANE","Hopital","0"
"111238","Asile de Sigueneau"," ","0","0","0","OUEST  ","0","0","0","0","0","12107","0","0","18.4394","-72.5884 ","0","0 ","0","0","0","0","0","0","0","0","0"," ","Publique","0","","LEOGANE","Hopital","0"
"111239","Hôpital Sainte-Croix"," ","0","0","0","OUEST  ","0","1","0","1","0","12108","0","1","18.5070","-72.6313 ","0","29 ","6","0","1","0","0","1","1","0","0"," ","Mixte","1","","LEOGANE","Hopital","1"
"111249","CAL St Jean de Limbe"," ","1","1","0","NORD  ","0","1","0","1","1","36101","0","1","19.708600000","-72.40200000 ","0","12 ","10","1","0","0","1","1","1","1","1"," ","Mixte","0","","LIMBE","Hopital","1"
"111250","Hop Bon Samaritain"," ","0","0","0","NORD  ","1","1","0","1","1","36102","0","1","19.6998","-72.40340000 ","1","75 ","0","1","1","0","0","1","1","0","0"," ","Privée","1","","LIMBE","Hopital","0"
"111273","CAL Sacre Coeur"," ","1","1","0","NORD  ","0","0","0","0","0","32301","0","0","19.6099","-72.21269999 ","0","0 ","0","0","0","0","1","0","0","1","0"," ","Mixte","0","","MILOT","Hopital","0"
"111278","Hôpital Sainte Thérèse"," ","0","0","1","NIPPES  ","1","1","0","1","1","101100","0","1","18.4441","-73.095 ","1","28 ","6","1","1","0","0","1","1","0","1"," ","Publique","1","","MIRAGOANE","Hopital","1"
"111286","Hôpital Eye Care de Mirbalais"," ","0","0","0","CENTRE  ","1","1","0","1","1","62102","1","1","18.7851","-72.0819 ","1","6 ","1","1","1","0","0","1","1","0","1"," ","Mixte","1","","MIREBALAIS","Hopital","1"
"111319","Hôpital Eliazar Germain"," ","1","1","1","OUEST  ","1","1","0","1","1","11405","0","1","18.48086","-72.25457 ","1","35 ","0","1","1","1","1","1","1","1","1"," ","Publique","1","","PETION VILLE","Hopital","1"
"111321","Hopital Censhop"," ","0","0","0","OUEST  ","0","0","0","0","0","11407","0","0","18.4809","-72.2546 ","0","0 ","0","0","0","0","0","0","0","0","0"," ","Mixte","0","","PETION VILLE","Hopital","0"
"111326","Hopital nos petits frères et soeurs"," ","1","1","0","OUEST  ","0","0","0","0","0","11412","0","0","18.4809","-72.2546 ","0","0 ","0","0","0","0","1","0","0","1","0"," ","Privée","0","","PETION VILLE","Hopital","0"
"111339","Hôpital Notre Dame"," ","1","1","1","OUEST  ","0","1","0","1","0","12201","0","1","18.430700000","-72.86669999 ","1","47 ","3","1","1","0","1","1","1","1","1"," ","Publique","1","","PETIT-GOAVE","Hopital","1"
"111360","HAS"," ","0","0","0","ARTIBONITE  ","0","0","0","0","0","54210","0","0",""," ","0","0 ","0","0","0","0","0","0","0","0","0"," ","Mixte","0","","PETITE-RIVIERE DE L'ARTIBONITE","Hopital","0"
"111364","Hôpital Bienfaisance de Pignon"," ","1","1","1","NORD  ","1","1","0","1","1","34401","1","1","19.331600000","-72.11889999 ","1","17 ","1","1","1","0","1","1","1","1","0"," ","Mixte","1","","PIGNON","Hopital","1"
"111375","CMP Progressio"," ","0","1","0","NORD  ","1","1","0","1","1","37101","0","1","19.5945","-72.4789 ","1","22 ","8","1","0","0","1","0","1","0","0"," ","Mixte","0","","PLAISANCE","Hopital","1"
"111382","Immaculée Conception"," ","1","1","1","NORD OUEST  ","1","1","0","1","0","91100","1","1","19.936399999","-72.83230000 ","1","22 ","0","1","1","1","1","1","1","1","1"," ","Publique","1","","PORT-DE-PAIX","Hopital","1"
"111396","Beraca"," ","1","1","0","NORD OUEST  ","1","1","0","1","1","91114","0","1","19.9465","-72.77469999 ","1","0 ","0","1","1","0","1","1","1","1","1"," ","Privée","1","","PORT-DE-PAIX","Hopital","1"
"111406","Port Salut"," ","1","1","0","SUD  ","0","0","0","0","0","72101","0","0","18.0837","-73.92010000 ","0","0 ","0","0","0","0","1","0","0","1","0"," ","Publique","0","","PORT SALUT","Hopital","0"
"111409","HUEH"," ","0","0","0","OUEST  ","0","0","1","0","0","11100","0","0","18.541399999","-72.34059999 ","0","0 ","0","0","0","0","0","0","0","0","0"," ","Publique","0","","PORT-AU-PRINCE","Hopital","0"
"111412","Hôpital du Canapé Vert"," ","0","0","0","OUEST  ","0","0","0","0","0","11103","0","0","18.5259","-72.3351 ","0","0 ","0","0","0","0","0","0","0","0","0"," ","Privée","0","","PORT-AU-PRINCE","Hopital","0"
"111422","Hôpital Français"," ","0","0","0","OUEST  ","0","0","0","0","0","11113","0","0","18.5387","-72.3444 ","0","0 ","0","0","0","0","0","0","0","0","0"," ","Privée","0","","PORT-AU-PRINCE","Hopital","0"
"111425","Centre de psychiatrie Mars & Kline"," ","0","0","0","OUEST  ","0","1","0","1","1","11116","0","1","18.5259","-72.3351 ","1","0 ","0","0","0","0","0","0","1","0","1"," ","Publique","0","","PORT-AU-PRINCE","Hopital","0"
"111427","Hôpital St. François de Salle"," ","0","0","0","OUEST  ","0","0","0","0","0","11118","0","0","18.5378","-72.3440 ","0","0 ","0","0","0","0","0","0","0","0","0"," ","Privée","0","","PORT-AU-PRINCE","Hopital","0"
"111430","Sanatorium de Port-au-Prince"," ","0","0","0","OUEST  ","0","0","0","0","0","11121","0","0","18.5390","-72.3350 ","0","0 ","0","0","0","0","0","0","0","0","0"," ","Publique","0","","PORT-AU-PRINCE","Hopital","0"
"111450","Hôpital Saint-esprit"," ","0","0","0","OUEST  ","0","1","0","0","1","11141","1","0","18.5259","-72.3351 ","0","14 ","0","0","1","1","0","1","1","0","0"," ","Privée","1","","PORT-AU-PRINCE","Hopital","0"
"111451","Hôpital Sapiens"," ","0","0","0","OUEST  ","0","0","0","0","0","11142","0","0","18.5304","-72.35559999 ","0","0 ","0","0","0","0","0","0","0","0","0"," ","Privée","0","","PORT-AU-PRINCE","Hopital","0"
"111452","Maternité UMO"," ","0","0","0","OUEST  ","0","0","0","0","0","11143","0","0","18.525400000","-72.34399999 ","0","0 ","0","0","0","0","0","0","0","0","0"," ","Privée","0","","PORT-AU-PRINCE","Hopital","0"
"111453","Hôpital la Sainte Famille"," ","0","0","0","OUEST  ","0","0","0","0","0","11144","0","0","18.531700000","-72.36690000 ","0","0 ","0","0","0","0","0","0","0","0","0"," ","Privée","0","","PORT-AU-PRINCE","Hopital","0"
"111455","Maternité de Christ-roi"," ","0","0","0","OUEST  ","0","0","0","0","0","11146","0","0","18.533000000","-72.34029999 ","0","0 ","0","0","0","0","0","0","0","0","0"," ","Privée","0","","PORT-AU-PRINCE","Hopital","0"
"111485","Saint Nicolas "," ","0","0","1","ARTIBONITE  ","1","1","1","1","1","53101","0","1","19.114599999","-72.69910000 ","1","102 ","25","1","1","1","0","1","1","0","0"," ","Publique","1","","SAINT MARC","Hopital","1"
"111503","Saint Michel de l’Attalaye"," ","0","1","0","ARTIBONITE  ","1","1","1","1","1","55101","0","1","19.3719","-72.33410000 ","1","3 ","1","0","0","0","1","0","1","1","0"," ","Publique","0","","SAINT MICHEL","Hopital","1"
"111559","CAL de Trou du Nord"," ","0","0","0","NORD EST  ","1","1","1","1","1","43101","1","1","19.613199999","-72.02670000 ","1","10 ","2","1","1","0","0","1","1","0","0"," ","Publique","1","","TROU DU NORD","Hopital","1"
"111563","Albert Schweitzer"," ","0","0","1","ARTIBONITE  ","1","0","0","1","1","53201","1","1","19.075900000","-72.49150000 ","1","7 ","0","1","1","0","0","1","1","0","1"," ","Privée","1","","VERRETTES","Hopital","1"
"111568","Dumarsais Estimé"," ","1","1","0","ARTIBONITE  ","1","1","0","1","1","53206","0","1","19.0519","-72.46760000 ","1","0 ","0","0","0","0","1","0","1","1","0"," ","Publique","0","","VERRETTES","Hopital","1"
"11778","SSPE des Abricots   ","n/a ","0","0","0","GRANDE ANSE  ","0","0","0","0","0","81201","0","0","18.648601","-74.307221    ","0","0 ","0","0","0","0","0","0","0","0","0","555555 ","Publique","0","555555","ABRICOT","CSL","0"
"11779","Centre de Santé Léon Coicou d’Anse du Clerc"," ","0","0","0","GRANDE ANSE  ","0","1","0","1","1","81202","0","1","18.648700000","-74.27849999 ","1","1 ","0","0","0","0","0","0","1","0","0"," ","Publique","0","","ABRICOT","CSL","1"
"11780","Nativité"," ","0","0","0","NORD  ","1","0","0","1","1","32101","0","1","19.6438","-72.3334 ","1","3 ","0","0","0","0","0","0","1","0","0"," ","Mixte","0","","ACUL-DU-NORD","CSL","1"
"11781","Tovar"," ","0","0","0","NORD  ","1","0","0","1","1","32102","0","1","19.626000000","-72.2881 ","1","2 ","0","0","0","0","0","0","1","0","0"," ","Privée","0","","ACUL-DU-NORD","CSL","1"
"11782","Grison Garde (NF)"," ","0","0","0","NORD  ","0","0","0","1","1","32103","0","1","19.6438","-72.3334 ","1","0 ","0","0","0","0","0","0","1","0","0"," ","Publique","0","","ACUL-DU-NORD","CSL","0"
"11783","Disp de Pilatre"," ","0","0","0","NORD  ","0","0","0","0","0","32104","0","0","19.6438","-72.3334 ","0","0 ","0","0","0","0","0","0","0","0","0"," ","Privée","0","","ACUL-DU-NORD","CAL","0"
"11784","Disp de Camp Louise"," ","0","0","0","NORD  ","1","0","0","1","1","32105","0","0","19.748699999","-72.34789999 ","0","1 ","0","0","0","0","0","0","1","0","0"," ","Publique","0","","ACUL-DU-NORD","CAL","1"
"11785","Disp de Délivrance"," ","0","0","0","NORD  ","0","0","0","0","0","32106","0","0","19.617799999","-72.28969999 ","0","0 ","0","0","0","0","0","0","0","0","0"," ","Privée","0","","ACUL-DU-NORD","CAL","0"
"11786","Disp de Soufrière (NF)"," ","0","0","0","NORD  ","0","0","0","0","0","32107","0","0","19.6438","-72.3334 ","0","0 ","0","0","0","0","0","0","0","0","0"," ","Publique","0","","ACUL-DU-NORD","CAL","0"
"11787","Disp de la Bruyère"," ","0","0","0","NORD  ","1","0","0","1","1","32108","0","1","19.6402","-72.3078 ","1","2 ","0","0","0","0","0","0","1","0","0"," ","Publique","0","","ACUL-DU-NORD","CAL","1"
"11791","Disp. Bill-Rice"," ","0","0","0","OUEST  ","1","1","0","1","1","15102","0","1","18.789999999","-72.84669999 ","1","3 ","0","0","0","0","0","0","1","0","0"," ","Privée","0","","ANSE-A-GALETS","CAL","1"
"11792","Hôpital Wesleyen"," ","0","0","0","OUEST  ","1","1","0","1","1","15103","1","1","18.835100000","-72.86230000 ","1","9 ","0","1","1","1","0","1","1","0","0"," ","Mixte","1","","ANSE-A-GALETS","CAL","1"
"11793","Disp. Marsucrin"," ","0","0","0","OUEST  ","1","1","0","1","1","15104","0","0","18.788900000","-72.94599999 ","1","1 ","0","0","0","0","0","0","1","0","0"," ","Privée","0","","ANSE-A-GALETS","CAL","1"
"11794","Disp. Grande Source"," ","0","0","0","OUEST  ","0","0","0","1","1","15105","0","0","18.822800000","-72.95690000 ","1","0 ","0","0","0","0","0","0","1","0","0"," ","Privée","0","","ANSE-A-GALETS","CAL","1"
"11796","SSPE de Saint Yves de Sault du Baril"," ","0","0","0","NIPPES  ","0","0","0","1","1","102102","0","0","18.4375","-73.2782 ","0","0 ","0","0","0","0","0","0","1","0","0"," ","Mixte","0","","ANSE A VEAU","CSL","1"
"11797","SSPE de Javel"," ","0","0","0","NIPPES  ","0","1","0","1","1","102103","0","0","18.4261","-73.269 ","0","0 ","0","0","0","0","0","0","1","0","0"," ","Publique","0","","ANSE A VEAU","CSL","1"
"11798","CAL Saint Jean-Baptiste de l’Anse d’Hainault"," ","0","0","0","GRANDE ANSE  ","0","0","1","0","0","82101","0","0","18.491","-74.45409999 ","0","0 ","0","0","0","0","0","0","0","0","0"," ","Publique","0","","ANSE D'HAINAULT","CSL","0"
"11799","SSPE de Mandou"," ","0","0","0","GRANDE ANSE  ","1","1","0","1","1","82102","0","0","18.442499999","-74.44920000 ","1","0 ","0","0","0","0","0","0","1","0","0"," ","Publique","0","","ANSE D'HAINAULT","CSL","1"
"11800","Disp de Sicard"," ","0","0","0","GRANDE ANSE  ","0","0","0","0","0","82103","0","0","18.460636","-74.398658 ","0","0 ","0","0","0","0","0","0","0","0","0"," ","Privée","0","","ANSE D'HAINAULT","CSL","0"
"11801","Disp de Sainte Helène"," ","0","0","0","GRANDE ANSE  ","1","0","0","1","1","82104","0","0","18.460636","-74.398658 ","0","0 ","0","0","0","0","0","0","1","0","0"," ","Privée","0","","ANSE D'HAINAULT","CSL","0"
"11802","Cal Anse Rouge"," ","0","0","0","ARTIBONITE  ","1","1","0","1","1","52301","0","0","19.633500000","-73.05469999 ","0","0 ","0","0","0","0","0","0","1","0","0"," ","Publique","0","","ANSE ROUGE","CAL","1"
"11803","Dispens. Coridon"," ","0","0","0","ARTIBONITE  ","0","1","0","1","1","52302","0","0","19.5549","-72.90160000 ","0","0 ","0","0","0","0","0","0","1","0","0"," ","Publique","0","","ANSE ROUGE","CAL","1"
"11804","Dispens. Figuier"," ","0","0","0","ARTIBONITE  ","0","0","0","1","1","52303","0","0","19.591000000","-72.88649999 ","0","0 ","0","0","0","0","0","0","1","0","0"," ","Privée","0","","ANSE ROUGE","CAL","1"
"11805","Disp. Illodep"," ","0","0","0","ARTIBONITE  ","1","0","0","1","1","52304","0","1","19.663900000","-73.02119999 ","1","0 ","0","0","0","0","0","0","1","0","0"," ","Privée","0","","ANSE ROUGE","CAL","1"
"11806","Disp. Plaine de l’Arbre"," ","0","0","0","ARTIBONITE  ","0","1","0","1","1","52305","0","0","19.6434","-72.9592 ","0","0 ","0","0","0","0","0","0","1","0","0"," ","Publique","0","","ANSE ROUGE","CAL","1"
"11807","Disp. Sources Chaudes"," ","0","0","0","ARTIBONITE  ","1","0","0","1","1","52306","0","0","19.6338","-72.9183 ","0","0 ","0","0","0","0","0","0","1","0","0"," ","Publique","0","","ANSE ROUGE","CAL","0"
"11808","Disp. Tanté"," ","0","0","0","ARTIBONITE  ","0","1","0","1","0","52307","0","0","19.672000000","-73.02460000 ","0","0 ","0","0","0","0","0","0","1","0","0"," ","Publique","0","","ANSE ROUGE","CAL","1"
"11809","Disp. Atrel"," ","0","0","0","ARTIBONITE  ","0","0","0","1","1","52308","0","0","19.639099999","-72.91509999 ","0","0 ","0","0","0","0","0","0","1","0","0"," ","Publique","0","","ANSE ROUGE","CAL","1"
"11810","Centre sans lit des Anse-a-Pitres"," ","0","0","1","SUD EST  ","1","1","1","0","0","23401","0","1","18.043299999","-71.75719999 ","1","0 ","0","0","0","0","0","0","0","0","0"," ","Publique","0","","ANSE-A-PITRE","CSL","0"
"11811","Dispde Banane ","n/a ","0","0","0","SUD EST  ","1","1","0","0","1","23402","0","1","18.145199999","-71.7607  ","0","0 ","0","0","0","0","0","0","0","0","0","27842782 ","Publique","0","27842782","ANSE-A-PITRE","CAL","1"
"11813","CS La Colline"," ","0","0","0","SUD  ","0","0","0","0","0","73102","0","0","18.309200000","-73.24559999 ","0","0 ","0","0","0","0","0","0","0","0","0"," ","Mixte","0","","AQUIN","CAL","0"
"11814","Fond des Blancs"," ","0","0","0","SUD  ","0","0","1","0","0","73103","0","0","18.2809","-73.2189 ","0","0 ","0","0","0","0","0","0","0","0","0"," ","Mixte","0","","AQUIN","CAL","0"
"11815","Charles Pasqua"," ","0","0","1","SUD  ","1","1","0","1","1","73104","0","1","18.2809","-73.2189 ","1","0 ","0","0","0","0","0","0","1","0","0"," ","Privée","0","","AQUIN","CAL","1"
"11816","Vx Bourg"," ","0","0","0","SUD  ","0","0","0","0","0","73105","0","0","18.3001","-73.34350000 ","0","0 ","0","0","0","0","0","0","0","0","0"," ","Mixte","0","","AQUIN","CAL","0"
"11817","Ste Hélène"," ","0","0","0","SUD  ","0","0","0","0","0","73106","0","0","18.2809","-73.2189 ","0","0 ","0","0","0","0","0","0","0","0","0"," ","Privée","0","","AQUIN","CAL","0"
"11818","Mouillage Fouquet"," ","0","0","0","SUD  ","0","0","0","0","0","73107","0","0","18.191099999","-73.10410000 ","0","0 ","0","0","0","0","0","0","0","0","0"," ","Publique","0","","AQUIN","CAL","0"
"11819","Clinique Santé Familiale"," ","0","0","0","SUD  ","0","0","0","0","0","73108","0","0","18.2809","-73.2189 ","0","0 ","0","0","0","0","0","0","0","0","0"," ","Privée","0","","AQUIN","CAL","0"
"11820","Nicolas Armand"," ","0","0","1","OUEST  ","1","1","0","1","1","14101","0","1","18.7727","-72.51309999 ","1","14 ","0","1","1","0","0","1","1","0","0"," ","Publique","1","","ARCAHAIE","CAL","1"
"11821","CAL d’Arcahaie"," ","0","0","0","OUEST  ","0","0","0","0","0","14102","0","0","18.8855","-72.5294 ","0","0 ","0","0","0","0","0","0","0","0","0"," ","Publique","0","","ARCAHAIE","CAL","0"
"11822","SADA   Fonds Baptiste"," ","0","1","0","OUEST  ","0","1","0","1","0","14103","0","0","18.821899999","-72.53929999 ","0","0 ","0","0","0","0","1","0","1","1","0"," ","Privée","0","","ARCAHAIE","CSL","1"
"11823","SADA   Matheux"," ","0","0","0","OUEST  ","1","1","0","1","1","14104","0","1","18.8207","-72.5393 ","1","4 ","0","0","0","0","0","0","1","0","0"," ","Privée","0","","ARCAHAIE","CAL","1"
"11824","Disp Notre Dame du Perpétuel Secours"," ","0","0","0","OUEST  ","0","0","0","0","0","14105","0","0","18.780000000","-72.52389999 ","0","0 ","0","0","0","0","0","0","0","0","0"," ","Privée","0","","ARCAHAIE","CAL","0"
"11825","CSL St Paul (montrouis)"," ","0","0","0","OUEST  ","0","0","0","1","1","14107","0","1","18.820900000","-72.56680000 ","1","0 ","0","0","0","0","0","0","1","0","0"," ","Privée","0","","ARCAHAIE","CSL","1"
"11826","CSL de Saintard"," ","0","0","0","OUEST  ","1","0","0","1","1","14108","0","0",""," ","1","0 ","0","0","0","0","0","0","0","0","0"," ","Publique","0","","ARCAHAIE","CSL","1"
"11827","Bon Samaritain de Luly"," ","0","0","0","OUEST  ","1","1","0","1","1","14109","0","0",""," ","1","0 ","0","0","0","0","0","0","1","0","0"," ","Privée","0","","ARCAHAIE","CSL","1"
"11829","SSPE d'Arnaud"," ","0","0","1","NIPPES  ","0","1","0","1","1","102401","0","0","18.4479","-73.38 ","0","1 ","0","0","0","0","0","0","1","0","0"," ","Mixte","0","","ARNAUD","CSL","1"
"11830","Arniquet"," ","0","0","0","SUD  ","1","1","0","1","1","72301","0","1","18.1458","-73.8753 ","1","0 ","0","0","0","0","0","0","1","0","0"," ","Publique","0","","ARNIQUET","CAL","1"
"11831","Chateau"," ","0","0","0","SUD  ","0","1","0","1","1","72302","0","1","18.173911","-73.909397 ","1","0 ","0","0","0","0","0","0","1","0","0"," ","Publique","0","","ARNIQUET","CAL","1"
"11832","Disp de Bahon"," ","0","0","0","NORD  ","0","1","0","1","1","33201","0","0","19.470600000","-72.1143 ","0","2 ","0","0","0","0","0","0","1","0","0"," ","Mixte","0","","BAHON","CSL","1"
"11833","Baie de Henne"," ","0","0","0","NORD OUEST  ","0","1","0","1","1","93201","0","1","19.668199999","-73.21150000 ","1","0 ","0","0","0","0","0","0","1","0","0"," ","Publique","0","","BAIE DE HENNE","CSL","1"
"11834","La Source"," ","0","0","0","NORD OUEST  ","1","1","0","1","1","93202","0","0","19.6927","-73.2004 ","0","0 ","0","0","0","0","0","0","1","0","0"," ","Privée","0","","BAIE DE HENNE","CSL","1"
"11835","Pte Riv. Baie de Henne"," ","0","0","0","NORD OUEST  ","1","1","0","1","0","93203","0","0","19.722300000","-73.17109999 ","1","0 ","0","0","0","0","0","0","1","0","0"," ","Publique","0","","BAIE DE HENNE","CSL","1"
"11836","Dupré"," ","0","0","0","NORD OUEST  ","0","0","0","0","0","93204","0","0","19.7498","-73.20910000 ","0","0 ","0","0","0","0","0","0","0","0","0"," ","Privée","0","","BAIE DE HENNE","CSL","0"
"11837","Citène Rémy"," ","0","0","0","NORD OUEST  ","0","1","0","1","1","93205","0","0","19.6789","-73.2889 ","0","0 ","0","0","0","0","0","0","1","0","0"," ","Privée","0","","BAIE DE HENNE","CSL","1"
"11838","Centre a Lits de Bainet"," ","0","1","1","SUD EST  ","1","1","1","0","0","22101","0","1","18.184100000","-72.75520000 ","1","1 ","0","0","0","0","1","0","0","1","0"," ","Publique","0","","BAINET","CAL","1"
"11839","Disp Saurel"," ","0","0","0","SUD EST  ","1","1","0","0","1","22102","0","0","18.2125","-72.7888 ","1","0 ","0","0","0","0","0","0","0","0","0"," ","Publique","0","","BAINET","CAL","1"
"11840","Disp Bahot "," ","0","0","0","SUD EST  ","1","1","0","0","0","22103","0","1","18.2125","-72.7888 ","0","0 ","0","0","0","0","0","0","0","0","0"," ","Publique","0","","BAINET","CAL","1"
"11841","Disp Choneille"," ","0","0","0","SUD EST  ","1","1","0","0","1","22104","0","1","18.2125","-72.7888 ","0","1 ","0","0","0","0","0","0","0","0","0"," ","Publique","0","","BAINET","CSL","0"
"11842","Disp Brésilienne"," ","0","0","0","SUD EST  ","1","1","0","0","0","22105","0","1","18.2125","-72.7888 ","0","0 ","0","0","0","0","0","0","0","0","0"," ","Publique","0","","BAINET","CAL","1"
"11843","Disp Orangers"," ","0","0","0","SUD EST  ","1","1","0","0","0","22106","0","1","18.2125","-72.7888 ","0","0 ","0","0","0","0","0","0","0","0","0"," ","Publique","0","","BAINET","CAL","1"
"11844","Disp Bras gauche"," ","0","0","0","SUD EST  ","1","1","0","0","0","22107","0","1","18.2125","-72.7888 ","0","0 ","0","0","0","0","0","0","0","0","0"," ","Publique","0","","BAINET","CAL","1"
"11845","Baradères"," ","0","0","0","NIPPES  ","0","1","0","1","0","75401","0","1","18.4836","-73.6386 ","1","4 ","0","0","0","0","0","0","1","0","0"," ","Publique","0","","BARADERES","CAL","1"
"11846","Disp de Bas Limbé"," ","0","1","0","NORD  ","0","1","0","1","1","36201","0","1","19.781400000","-72.37959999 ","1","0 ","0","0","0","0","0","0","1","0","0"," ","Privée","0","","BAS LIMBE","CSL","1"
"11848","La Plate"," ","0","0","0","NORD OUEST  ","0","0","0","1","1","91302","0","0","19.7859","-72.8412 ","1","0 ","0","0","0","0","0","0","1","0","0"," ","Mixte","0","","BASSIN BLEU","CSL","0"
"11849","Haut Moustique"," ","0","0","0","NORD OUEST  ","0","0","0","1","1","91303","0","0","19.7441","-72.87489999 ","0","0 ","0","0","0","0","0","0","1","0","0"," ","Mixte","0","","BASSIN BLEU","CSL","1"
"11850","CAL Sainte Agnès Citimed de Beaumont"," ","0","1","0","GRANDE ANSE  ","1","1","0","1","1","83301","0","1","18.4727","-73.94329999 ","1","1 ","0","0","0","0","1","0","1","0","0"," ","Mixte","0","","BEAUMONT","CSL","1"
"11851","SSPE Communautaire de Beaumont"," ","0","0","0","GRANDE ANSE  ","0","0","0","0","0","83302","0","0","18.477785","-73.955195 ","0","0 ","0","0","0","0","0","0","0","0","0"," ","Publique","0","","BEAUMONT","CSL","0"
"11853","Disp de Croix de fer (NF)"," ","0","0","0","CENTRE  ","0","0","0","0","0","63202","0","0","18.8632","-71.8115 ","0","0 ","0","0","0","0","0","0","0","0","0"," ","Publique","0","","BELLADERE","CAL","0"
"11854","Disp de Roy Sec"," ","0","0","0","CENTRE  ","0","0","0","1","1","63203","0","0","18.895700000","-71.83679999 ","0","0 ","0","0","0","0","0","0","1","0","0"," ","Publique","0","","BELLADERE","CAL","1"
"11855","Centre de Santé de Baptiste"," ","0","0","0","CENTRE  ","0","0","0","1","1","63204","0","0","18.8018","-71.78270000 ","0","1 ","0","0","0","0","0","0","1","0","0"," ","Publique","0","","BELLADERE","CSL","1"
"11856","Centre de Santé sans lit de Belle Anse (F)"," ","0","1","1","SUD EST  ","1","1","0","0","1","23101","0","1","18.238900000","-72.06359999 ","1","0 ","0","0","0","0","1","0","0","0","0"," ","Publique","0","","BELLE-ANSE","CSL","1"
"11857","Disp de Mapou"," ","0","0","0","SUD EST  ","1","1","0","0","1","23102","0","1","18.265799999","-71.97169999 ","0","0 ","0","0","0","0","0","0","0","0","0"," ","Publique","0","","BELLE-ANSE","CAL","1"
"11858","Bombardopolis"," ","0","0","0","NORD OUEST  ","1","1","0","1","1","93301","0","0","19.692913","-73.336307 ","1","0 ","0","0","0","0","0","0","1","0","0"," ","Mixte","0","","BOMBARDOPOLIS","CSL","1"
"11859","Rochefort"," ","0","0","0","NORD OUEST  ","1","0","0","1","1","93302","0","0","19.700500000","-73.38030000 ","1","0 ","0","0","0","0","0","0","1","0","0"," ","Privée","0","","BOMBARDOPOLIS","CSL","1"
"11860","Mont des Oliviers"," ","0","0","0","NORD OUEST  ","0","0","0","0","0","93303","0","0","19.695699999","-73.36879999 ","0","0 ","0","0","0","0","0","0","0","0","0"," ","Privée","0","","BOMBARDOPOLIS","CSL","0"
"11861","Plate Forme"," ","0","0","0","NORD OUEST  ","1","1","0","1","1","93304","0","0","19.6911","-73.3474 ","0","0 ","0","0","0","0","0","0","1","0","0"," ","Privée","0","","BOMBARDOPOLIS","CSL","1"
"11862","Desforges"," ","0","0","0","NORD OUEST  ","0","0","0","0","0","93305","0","0","19.7072","-73.39379999 ","0","0 ","0","0","0","0","0","0","0","0","0"," ","Privée","0","","BOMBARDOPOLIS","CSL","0"
"11863","Chemen La vi de Bonbon"," ","0","0","0","GRANDE ANSE  ","1","1","0","1","1","81301","0","0","18.6307","-74.2375 ","0","0 ","0","0","0","0","0","0","1","0","0"," ","Publique","0","","BONBON","CSL","1"
"11864","HHF de Bonbon"," ","0","0","0","GRANDE ANSE  ","0","0","0","0","0","81302","0","0","18.6307","-74.2375 ","0","0 ","0","0","0","0","0","0","0","0","0"," ","Privée","0","","BONBON","CSL","0"
"11865","CAL de Borgne"," ","0","0","0","NORD  ","0","0","0","0","0","35101","0","0","19.8389","-72.5151 ","0","0 ","0","0","0","0","0","0","0","0","0"," ","Publique","0","","BORGNE","CAL","0"
"11866","Disp de Petit Bourg Borgne"," ","0","0","0","NORD  ","0","0","0","0","0","35102","0","0","19.813300000","-72.57189999 ","0","0 ","0","0","0","0","0","0","0","0","0"," ","Publique","0","","BORGNE","CAL","0"
"11867","Corpus Christi"," ","0","0","0","NORD  ","0","0","0","0","0","35103","0","0","19.8476","-72.52280000 ","0","0 ","0","0","0","0","0","0","0","0","0"," ","Privée","0","","BORGNE","CAL","0"
"11868","Centre de Santé St Michel de Boucan Carré"," ","0","0","0","CENTRE  ","0","0","1","0","0","62301","0","0","18.9670","-72.2000 ","0","0 ","0","0","0","0","0","0","0","0","0"," ","Publique","0","","BOUCAN CARRe","CAL","0"
"11869","Centre de Santé Sans Lits Saint Esprit"," ","0","0","0","CENTRE  ","1","1","0","1","1","62302","0","0","18.9523","-72.1522 ","0","1 ","0","0","0","0","0","0","1","0","0"," ","Mixte","0","","BOUCAN CARRe","CSL","1"
"11871","CSL de source matelas (SADA)"," ","0","0","0","OUEST  ","0","0","0","1","1","14201","0","0","18.7225","-72.37399999 ","1","0 ","0","0","0","0","0","0","1","0","0"," ","Privée","0","","CABARET","CSL","1"
"11872","CSL de Cabaret"," ","0","0","0","OUEST  ","1","1","0","1","1","14202","0","0","18.737300000","-72.41899999 ","1","0 ","0","0","0","0","0","0","1","0","0"," ","Publique","0","","CABARET","CSL","1"
"11873","CSL de Bélanger (SADA)"," ","0","0","0","OUEST  ","1","1","0","1","1","14204","0","1","18.732097","-72.441713 ","1","0 ","0","0","0","0","0","0","1","0","0"," ","Privée","0","","CABARET","CSL","1"
"11874","Centre de santé St Antoine de Titanyen"," ","0","0","0","OUEST  ","1","1","0","1","1","14205","0","1","18.713100000","-72.34499999 ","1","0 ","0","0","0","0","0","0","1","0","0"," ","Privée","0","","CABARET","CSL","1"
"11875","Action Globale"," ","0","0","0","OUEST  ","0","0","0","0","0","14206","0","0","18.7742","-72.3975 ","0","0 ","0","0","0","0","0","0","0","0","0"," ","Privée","0","","CABARET","CSL","0"
"11876","C/S St Gerard"," ","0","0","0","OUEST  ","1","0","0","1","0","14207","0","1",""," ","1","0 ","0","0","0","0","0","0","1","0","0"," ","Privée","0","","CABARET","CAL","0"
"11877","Centre de Santé Communautaire"," ","0","0","0","OUEST  ","0","0","0","0","0","14208","0","0","18.524258","-72.343973 ","0","0 ","0","0","0","0","0","0","0","0","0"," ","Privée","0","","CABARET","CSL","0"
"11878","Centre de Santé Mission de l'espoir"," ","0","0","1","OUEST  ","1","1","0","1","1","14209","0","1","18.48086","-72.25457 ","1","0 ","0","0","0","0","0","0","1","0","0"," ","Privée","0","","CABARET","CSL","0"
"11879","CS Camp-Perrin"," ","0","0","0","SUD  ","0","0","0","0","0","71401","0","0","18.313800000","-73.86560000 ","0","0 ","0","0","0","0","0","0","0","0","0"," ","Publique","0","","CAMP-PERRIN","CAL","0"
"11880","Mazenod"," ","0","0","1","SUD  ","1","0","0","1","1","71402","0","1","18.330300000","-73.85320000 ","1","0 ","0","0","0","0","0","0","1","0","0"," ","Mixte","0","","CAMP-PERRIN","CSL","1"
"11881","Guichard"," ","0","0","0","SUD  ","1","1","0","1","1","71403","0","1","18.296800000","-73.82880000 ","1","0 ","0","0","0","0","0","0","1","0","0"," ","Mixte","0","","CAMP-PERRIN","CAL","0"
"11882","Mersan"," ","0","0","0","SUD  ","0","0","0","1","1","71404","0","0","18.2822","-73.84390000 ","0","0 ","0","0","0","0","0","0","0","0","0"," ","Publique","0","","CAMP-PERRIN","CAL","1"
"11883","Rhé (F)"," ","0","0","0","SUD  ","0","0","0","0","0","71405","0","0","18.338100000","-73.884 ","0","0 ","0","0","0","0","0","0","0","0","0"," ","Publique","0","","CAMP-PERRIN","CAL","0"
"11884","Disp de Dominique"," ","0","0","0","SUD  ","0","1","0","1","1","71406","0","0","18.3007","-73.7614 ","0","0 ","0","0","0","0","0","0","1","0","0"," ","Privée","0","","CAMP-PERRIN","CAL","0"
"11886","CDS La Fossette"," ","0","1","0","NORD  ","1","0","0","1","1","31101","0","1","19.7538","-72.2060 ","1","0 ","0","0","0","0","1","0","1","1","0"," ","Mixte","0","","CAP-HAITIEN","CSL","1"
"11888","Disp Notre Dame de Lourdes de Carénage"," ","0","0","0","NORD  ","0","1","0","1","1","31103","0","1","19.766100000","-72.19740000 ","1","0 ","0","0","0","0","0","0","1","0","0"," ","Mixte","0","","CAP-HAITIEN","CAL","1"
"11889","Disp de Labadie"," ","0","0","0","NORD  ","1","1","0","1","1","31104","0","1","19.7493","-72.2188 ","1","0 ","0","0","0","0","0","0","1","0","0"," ","Mixte","0","","CAP-HAITIEN","CSL","1"
"11890","Disp Sacre Coeur, Rue 2K"," ","0","0","0","NORD  ","1","1","0","1","1","31105","0","1","19.756","-72.20510000 ","1","0 ","0","0","0","0","0","0","1","0","0"," ","Mixte","0","","CAP-HAITIEN","CAL","1"
"11891","Disp Solano SA, Labadie"," ","0","0","0","NORD  ","1","1","0","1","1","31106","0","0","19.7493","-72.2188 ","1","0 ","0","0","0","0","0","0","0","0","0"," ","Privée","0","","CAP-HAITIEN","CSL","1"
"11892","Disp Notre Dame Ste Philomène"," ","0","0","0","NORD  ","1","1","0","1","1","31107","0","1","19.746200000","-72.21049999 ","1","0 ","0","0","0","0","0","0","1","0","0"," ","Privée","0","","CAP-HAITIEN","CAL","1"
"11893","CSL Madeline"," ","0","0","0","NORD  ","0","1","0","1","0","31108","0","0","19.726299999","-72.18179999 ","0","0 ","0","0","0","0","0","0","1","0","0"," ","Mixte","0","","CAP-HAITIEN","CSL","0"
"11894","CEMAD Petite Anse"," ","0","0","0","NORD  ","0","1","0","1","1","31109","0","1","19.733899999","-72.18340000 ","1","0 ","0","0","0","0","0","0","1","0","0"," ","Privée","0","","CAP-HAITIEN","CAL","0"
"11895","FOSREF, rue 16"," ","0","0","0","NORD  ","0","0","0","0","0","31110","0","0","19.7622","-72.20279999 ","0","0 ","0","0","0","0","0","0","0","0","0"," ","Publique","0","","CAP-HAITIEN","CSL","0"
"11896","Clinique Medico-Dentaire Saint Joseph"," ","0","0","0","NORD  ","0","0","0","0","0","31111","0","0",""," ","0","0 ","0","0","0","0","0","0","0","0","0"," ","Privée","0","","CAP-HAITIEN","CSL","0"
"11897","Disp de Capotille"," ","0","0","0","NORD EST  ","0","1","0","1","1","42201","0","0","19.448799999","-71.69320000 ","0","0 ","0","0","0","0","0","0","1","0","0"," ","Mixte","0","","CARACOL","CAL","1"
"11898","Disp de Jacquezyl"," ","0","0","0","NORD EST  ","1","1","0","1","1","43401","0","1","19.686","-71.99209999 ","1","0 ","0","0","0","0","0","0","1","0","0"," ","Mixte","0","","CARACOL","CAL","1"
"11899","Disp de Caracol"," ","0","0","0","NORD EST  ","0","1","0","1","1","43402","0","0","19.6935","-72.01789999 ","1","0 ","0","0","0","0","0","0","1","0","0"," ","Publique","0","","CARACOL","CAL","1"
"11900","Disp de Carice"," ","0","0","0","NORD EST  ","0","1","0","1","1","44201","0","0","19.379000000","-71.83069999 ","0","0 ","0","0","0","0","0","0","1","0","0"," ","Publique","0","","CARICE","CAL","1"
"11901","Disp Sainte Hélène de Carice"," ","0","0","0","NORD EST  ","1","1","0","1","1","44202","0","1","19.378900000","-71.83570000 ","1","0 ","0","0","0","0","0","0","1","0","0"," ","Privée","0","","CARICE","CAL","0"
"11902","C/S Fondeph Bizoton 61"," ","0","0","0","OUEST  ","1","0","0","1","1","11301","0","1","18.5277","-72.3819 ","1","8 ","0","0","0","0","0","0","1","0","0"," ","Privée","0","","CARREFOUR","CAL","1"
"11904","Centre médico social de rivière froide"," ","0","0","0","OUEST  ","1","1","0","1","1","11304","0","0","18.519500000","-72.41259999 ","1","0 ","0","0","0","0","0","0","0","0","0"," ","Mixte","0","","CARREFOUR","CSL","1"
"11905","C/S Béthel Mahotière 81"," ","0","0","0","OUEST  ","1","0","0","1","1","11305","0","1","18.4660","-72.4111 ","1","0 ","0","0","0","0","0","0","1","0","0"," ","Privée","0","","CARREFOUR","CAL","1"
"11908","Disp la Main Tendue de Bertin"," ","0","0","0","OUEST  ","0","1","0","1","1","11308","0","1","18.4660","-72.4111 ","1","0 ","0","0","0","0","0","0","1","0","0"," ","Privée","0","","CARREFOUR","CSL","1"
"11909","CSL OBCG"," ","0","1","0","OUEST  ","0","0","0","1","1","11309","0","1","18.538900000","-72.40940000 ","1","0 ","0","0","0","0","0","0","1","0","0"," ","Privée","0","","CARREFOUR","CSL","1"
"11910","SHEKINAH"," ","0","0","0","OUEST  ","1","1","0","1","1","11310","0","1","18.4660","-72.4111 ","1","0 ","0","0","0","0","0","0","1","0","0"," ","Privée","0","","CARREFOUR","CAL","1"
"11911","Disp de Taillefer"," ","0","0","0","OUEST  ","0","0","0","0","0","11311","0","0","18.484400000","-72.40860000 ","0","0 ","0","0","0","0","0","0","0","0","0"," ","Publique","0","","CARREFOUR","CAL","0"
"11912","Centre de Santé Béthel (Christophe Channel)"," ","0","0","0","OUEST  ","0","0","0","1","1","11313","0","0","18.4660","-72.4111 ","1","0 ","0","0","0","0","0","0","0","0","0"," ","Privée","0","","CARREFOUR","CSL","1"
"11913","Centre de Santé Multi fonctionnel  sous-rail"," ","0","0","0","OUEST  ","1","1","0","1","1","11314","0","1","18.4660","-72.4111 ","1","0 ","0","0","0","0","0","0","1","0","0"," ","Mixte","0","","CARREFOUR","CSL","1"
"11914","Disp ASCOSADEC"," ","0","0","0","OUEST  ","1","1","0","1","1","11315","0","1","18.4660","-72.4111 ","1","0 ","0","0","0","0","0","0","1","0","0"," ","Privée","0","","CARREFOUR","CSL","0"
"11915","Centre Hospitalier d'Arcachon 32"," ","0","0","0","OUEST  ","0","0","0","1","0","11316","0","1","18.5426","-72.39780000 ","0","0 ","0","0","0","0","0","0","0","0","0"," ","Publique","0","","CARREFOUR","CSL","1"
"11916","C/S OMES"," ","0","0","1","OUEST  ","1","1","0","1","1","11317","0","1","18.4660","-72.4111 ","1","0 ","0","0","0","0","0","0","1","0","0"," ","Privée","0","","CARREFOUR","CSL","1"
"11917","C/S Mère Térésa"," ","0","0","0","OUEST  ","0","0","0","1","1","11318","0","1","18.4660","-72.4111 ","0","0 ","0","0","0","0","0","0","1","0","0"," ","Privée","0","","CARREFOUR","CSL","1"
"11918","Centre de Santé Hands of Love"," ","0","0","1","OUEST  ","1","0","0","1","1","11319","0","1","18.532699999","-72.37529999 ","1","0 ","0","0","0","0","0","0","1","0","0"," ","Privée","0","","CARREFOUR","CSL","1"
"11919","Centre de la communauté des Frères Unis"," ","0","0","0","OUEST  ","0","0","0","0","0","11320","0","0","18.4660","-72.4111 ","0","0 ","0","0","0","0","0","0","0","0","0"," ","Privée","0","","CARREFOUR","CSL","0"
"11920","Disp Marie Louise de Jésus"," ","0","0","0","OUEST  ","1","1","0","1","1","11321","0","1","18.5411","-72.42040000 ","1","0 ","0","0","0","0","0","0","1","0","0"," ","Privée","0","","CARREFOUR","CAL","1"
"11921","Centre Medical de  Bertin"," ","0","0","1","OUEST  ","0","0","0","1","1","11326","0","1","18.466024","-72.411097 ","1","0 ","0","0","0","0","0","0","1","0","0"," ","Privée","0","","CARREFOUR","CSL","1"
"11922","Clinique mennonite"," ","0","1","0","OUEST  ","0","0","0","0","0","11327","0","0","18.466024","-72.411097 ","0","0 ","0","0","0","0","0","0","0","0","0"," ","Privée","0","","CARREFOUR","CAL","0"
"11923","C/S Main de Dieu"," ","0","0","0","OUEST  ","0","0","0","0","0","11328","0","0","18.5413","-72.40130000 ","0","0 ","0","0","0","0","0","0","0","0","0"," ","Privée","0","","CARREFOUR","CSL","0"
"11924","Disp MOCMOCHAM"," ","0","0","0","OUEST  ","0","0","0","0","0","11329","0","0","18.466024","-72.411097 ","0","0 ","0","0","0","0","0","0","0","0","0"," ","Privée","0","","CARREFOUR","CAL","0"
"11925","Bérekia"," ","0","0","0","OUEST  ","0","1","0","1","1","11330","0","1","18.4660","-72.4111 ","1","0 ","0","0","0","0","0","0","1","0","0"," ","Privée","0","","CARREFOUR","CSL","1"
"11926","ASAD"," ","0","0","0","OUEST  ","1","1","0","1","1","11331","0","1","18.4660","-72.4111 ","1","3 ","0","0","0","0","0","0","1","0","0"," ","Privée","0","","CARREFOUR","CSL","1"
"11927","Grace Medical Center"," ","0","0","0","OUEST  ","1","0","0","1","1","11332","0","1","18.5400","-72.4204 ","1","0 ","0","0","0","0","0","0","1","0","0"," ","Privée","0","","CARREFOUR","CSL","0"
"11928","AMI"," ","0","0","0","OUEST  ","0","0","0","0","0","11333","0","0","18.5704","-72.2915 ","0","0 ","0","0","0","0","0","0","0","0","0"," ","Privée","0","","CARREFOUR","CSL","0"
"11929","C/S Haiti  Saint Rock Foundation"," ","0","0","1","OUEST  ","1","0","0","1","1","11334","0","1","18.4660","-72.4111 ","1","0 ","0","0","0","0","0","0","1","0","0"," ","Privée","0","","CARREFOUR","CSL","1"
"11931","CS Cavaillon"," ","0","0","0","SUD  ","0","0","0","0","0","73302","0","0","18.299299999","-73.65309999 ","0","0 ","0","0","0","0","0","0","0","0","0"," ","Publique","0","","CAVAILLON","CSL","0"
"11932","Cavaillon NDPS"," ","0","0","0","SUD  ","0","0","0","0","0","73303","0","0","18.3426","-73.6325 ","0","0 ","0","0","0","0","0","0","0","0","0"," ","Mixte","0","","CAVAILLON","CAL","0"
"11933","Flamands"," ","0","0","0","SUD  ","0","0","0","0","0","73304","0","0","18.2531","-73.65170000 ","0","0 ","0","0","0","0","0","0","0","0","0"," ","Mixte","0","","CAVAILLON","CAL","0"
"11934","Com. Bonne Fin"," ","0","0","0","SUD  ","0","0","0","0","1","73305","0","0","18.3947","-73.61390000 ","0","0 ","0","0","0","0","0","0","1","0","0"," ","Privée","0","","CAVAILLON","CSL","1"
"11935","Sudre (F)"," ","0","0","0","SUD  ","0","0","0","0","0","73306","0","0","18.415600000","-73.63580000 ","0","0 ","0","0","0","0","0","0","0","0","0"," ","Mixte","0","","CAVAILLON","CAL","0"
"11941","Klinik Lafanmy"," ","0","1","0","SUD  ","1","0","0","0","1","71105","0","1","18.195699999","-73.74930000 ","1","0 ","0","0","0","0","0","0","1","0","0"," ","Mixte","0","","CAYES","CSL","0"
"11942","Quatre Chemins"," ","0","1","1","SUD  ","1","0","0","1","1","71106","0","1","18.3007","-73.7614 ","1","0 ","0","0","0","0","0","0","1","0","0"," ","Publique","0","","CAYES","CSL","1"
"11943","Charpentier"," ","0","1","0","SUD  ","0","0","0","0","0","71107","0","0","18.1173","-73.9056 ","0","0 ","0","0","0","0","1","0","0","0","0"," ","Mixte","0","","CAYES","CAL","0"
"11944","LKTMBD"," ","0","1","0","SUD  ","0","0","0","0","0","71108","0","0","18.195499999","-73.74349999 ","0","0 ","0","0","0","0","0","0","0","0","0"," ","Mixte","0","","CAYES","CAL","0"
"11945","Laborde"," ","0","1","0","SUD  ","1","1","0","1","1","71109","0","1","18.2834","-73.80320000 ","1","0 ","0","0","0","0","0","0","1","0","0"," ","Mixte","0","","CAYES","CAL","1"
"11946","Colette"," ","0","0","0","SUD  ","0","0","0","1","1","71110","0","0","18.194099999","-73.77760000 ","0","0 ","0","0","0","0","0","0","1","0","0"," ","Publique","0","","CAYES","CSL","1"
"11947","Laurent"," ","0","0","0","SUD  ","0","0","0","1","1","71111","0","0","18.2621","-73.7353 ","0","0 ","0","0","0","0","0","0","1","0","0"," ","Publique","0","","CAYES","CAL","1"
"11948","Fonfred"," ","0","0","0","SUD  ","0","0","0","0","0","71112","0","0","18.263200000","-73.73529999 ","0","0 ","0","0","0","0","0","0","0","0","0"," ","Publique","0","","CAYES","CAL","0"
"11949","World Vision"," ","0","0","0","SUD  ","1","1","0","1","1","71113","0","1","18.229099999","-73.79940000 ","1","0 ","0","0","0","0","0","0","1","0","0"," ","Privée","0","","CAYES","CSL","1"
"11950","Terre des Hommes"," ","0","0","0","SUD  ","0","0","0","0","0","71114","0","0","18.2699","-73.77599999 ","0","0 ","0","0","0","0","0","0","0","0","0"," ","Privée","0","","CAYES","CAL","0"
"11951","FORSREF"," ","0","1","0","SUD  ","0","0","0","0","0","71115","0","1","18.3007","-73.7614 ","0","0 ","0","0","0","0","0","0","0","0","0"," ","Privée","0","","CAYES","CSL","0"
"11952","Centre de Santé Cayes Jacmel "," ","0","0","0","SUD EST  ","1","1","1","0","1","21301","0","1","18.232099999","-72.39790000 ","0","2 ","0","0","0","0","0","0","1","0","0"," ","Publique","0","","CAYES-JACMEL","CSL","1"
"11953","Centre de sante Emmanuel Baptiste (F)"," ","0","0","1","SUD EST  ","1","1","0","0","1","21302","0","1","18.2614","-72.4026 ","1","0 ","0","0","0","0","0","0","1","0","0"," ","Privée","0","","CAYES-JACMEL","CAL","1"
"11954","Disp Cap Rouge"," ","0","0","0","SUD EST  ","1","1","0","0","1","21303","0","1","18.271000000","-72.4251 ","0","0 ","0","0","0","0","0","0","0","0","0"," ","Publique","0","","CAYES-JACMEL","CAL","0"
"11955","Centre de Santé de Cerca Cavajal"," ","0","0","0","CENTRE  ","0","1","0","1","1","61401","0","0","19.270600000","-71.93720000 ","0","0 ","0","0","0","0","0","0","1","0","0"," ","Publique","0","","CERCA CARVAJAL","CSL","1"
"11956","Disp Bon Samaritain (NF)"," ","0","0","0","CENTRE  ","0","0","0","0","0","61405","0","0","19.2603","-71.9396 ","0","0 ","0","0","0","0","0","0","0","0","0"," ","Privée","0","","CERCA CARVAJAL","CAL","0"
"11957","Disp d’Angoman (NF)"," ","0","0","0","CENTRE  ","0","0","0","0","0","61406","0","0","19.2603","-71.9396 ","0","0 ","0","0","0","0","0","0","0","0","0"," ","Privée","0","","CERCA CARVAJAL","CAL","0"
"11958","Centre de Santé Farnèse Louis Jeune(NF)"," ","0","0","0","CENTRE  ","0","0","0","0","0","61407","0","0","19.2603","-71.9396 ","0","0 ","0","0","0","0","0","0","0","0","0"," ","Privée","0","","CERCA CARVAJAL","CAL","0"
"11960","Disp de Saltadère (NF)"," ","0","0","0","CENTRE  ","0","0","0","0","0","64102","0","0","19.1873","-71.7485 ","0","0 ","0","0","0","0","0","0","0","0","0"," ","Privée","0","","CERCA LA SOURCE","CAL","0"
"11961","Disp de Baltazar (NF)"," ","0","0","0","CENTRE  ","0","0","0","0","0","64103","0","0","19.1873","-71.7485 ","0","0 ","0","0","0","0","0","0","0","0","0"," ","Privée","0","","CERCA LA SOURCE","CAL","0"
"11962","Disp de Pacasse (NF)"," ","0","0","0","CENTRE  ","0","0","0","0","0","64104","0","0","19.1873","-71.7485 ","0","0 ","0","0","0","0","0","0","0","0","0"," ","Privée","0","","CERCA LA SOURCE","CAL","0"
"11963","Centre de Santé de Tilory"," ","0","0","0","CENTRE  ","1","1","1","1","1","64105","0","1","19.187309","-71.748498 ","1","0 ","0","0","0","0","0","0","1","0","0"," ","Privée","0","","CERCA LA SOURCE","CSL","1"
"11964","Centre de Santé de Chambellan"," ","0","0","0","GRANDE ANSE  ","1","1","0","1","1","81501","0","1","18.551600000","-74.31319999 ","1","0 ","0","0","0","0","0","0","1","0","0"," ","Publique","0","","CHAMBELLAN","CSL","1"
"11965","SSPE de Bourdon"," ","0","0","0","GRANDE ANSE  ","0","1","0","1","1","81502","0","0","18.491099999","-74.3506 ","0","0 ","0","0","0","0","0","0","1","0","0"," ","Publique","0","","CHAMBELLAN","CSL","1"
"11966","Chansolme"," ","0","1","0","NORD OUEST  ","1","1","0","1","1","91401","0","1","19.876300000","-72.83450000 ","1","0 ","0","0","0","0","0","0","1","0","0"," ","Publique","0","","CHANSOLME","CSL","1"
"11967","Chantal"," ","0","1","1","SUD  ","1","1","0","1","1","71301","0","1","18.2041","-73.88899999 ","1","0 ","0","0","0","0","1","0","1","1","0"," ","Mixte","0","","CHANTAL","CAL","1"
"11968","Lepretre"," ","0","0","0","SUD  ","0","0","0","0","0","71302","0","0","18.2684","-73.94740000 ","0","0 ","0","0","0","0","0","0","0","0","0"," ","Mixte","0","","CHANTAL","CAL","0"
"11969","Ste Anne"," ","0","0","0","SUD  ","1","0","0","1","1","75101","0","1","18.274699999","-74.1661 ","1","0 ","0","0","0","0","0","0","1","0","0"," ","Mixte","0","","CHARDONNIERES","CAL","1"
"11970","Rendel"," ","0","0","0","SUD  ","0","1","0","1","0","75102","0","0","18.318899999","-74.09329999 ","0","0 ","0","0","0","0","0","0","1","0","0"," ","Mixte","0","","CHARDONNIERES","CAL","1"
"11972","CHAPI"," ","0","1","0","OUEST  ","0","0","0","0","0","11230","0","0","18.5704","-72.2915 ","0","0 ","0","0","0","0","0","0","0","0","0"," ","Privée","0","","CITE SOLEIL","CSL","0"
"11974","Disp de conillon"," ","0","0","0","OUEST  ","1","1","0","1","1","13401","0","1","18.676600000","-71.95159999 ","1","0 ","0","0","0","0","0","0","1","0","0"," ","Publique","0","","CORNILLON","CAL","1"
"11975","CAL St Pierre de Corail"," ","0","0","0","GRANDE ANSE  ","0","0","0","0","0","83101","0","0","18.5687","-73.89260000 ","0","0 ","0","0","0","0","0","0","0","0","0"," ","Publique","0","","CORAIL","CSL","0"
"11976","SSPE de Moulines"," ","0","0","0","GRANDE ANSE  ","0","1","0","1","1","83102","0","0","18.5052","-73.9514 ","0","0 ","0","0","0","0","0","0","1","0","0"," ","Publique","0","","CORAIL","CSL","1"
"11977","Disp de Chardonnette"," ","0","0","0","GRANDE ANSE  ","0","0","0","0","0","83103","0","0","18.505214","-73.951431 ","0","0 ","0","0","0","0","0","0","0","0","0"," ","Mixte","0","","CORAIL","CSL","0"
"11978","C/S de Saint Pierre"," ","0","0","0","OUEST  ","0","0","0","0","0","13402","0","0","18.675899999","-71.9529 ","0","0 ","0","0","0","0","0","0","0","0","0"," ","Publique","0","","CORNILLON","CSL","0"
"11979","Centre de santé St Vincent de Paul"," ","0","0","1","OUEST  ","1","1","0","1","1","13403","0","1","18.543554","-72.305607 ","1","4 ","0","0","0","0","0","0","1","0","0"," ","Privée","0","","CORNILLON","CAL","0"
"11980","Centre a lits de Gris Gris"," ","0","0","1","SUD EST  ","1","1","0","0","1","22201","0","1","18.2331","-72.94100000 ","1","1 ","0","0","0","0","0","0","1","0","0"," ","Mixte","0","","COTE-DE-FER","CSL","1"
"11981","Disp Saint Joseph"," ","0","0","0","SUD EST  ","0","0","0","0","0","22202","0","0","18.2315","-72.9488 ","0","0 ","0","0","0","0","0","0","0","0","0"," ","Publique","0","","COTE-DE-FER","CSL","0"
"11982","Disp Boucan Bélier"," ","0","0","0","SUD EST  ","0","0","0","0","0","22203","0","0","18.264500000","-72.95459999 ","0","0 ","0","0","0","0","0","0","0","0","0"," ","Mixte","0","","COTE-DE-FER","CAL","0"
"11983","Disp Ricot (F)"," ","0","0","0","SUD EST  ","1","1","0","0","1","22204","0","1","18.261299999","-72.99070000 ","1","0 ","0","0","0","0","0","0","0","0","0"," ","Mixte","0","","COTE-DE-FER","CAL","1"
"11984","Foie et Vie"," ","0","0","1","SUD EST  ","1","1","0","0","0","22205","0","1",""," ","1","0 ","0","0","0","0","0","0","0","0","0"," ","Mixte","0","","COTE-DE-FER","CSL","1"
"11985","Coteaux"," ","0","0","0","SUD  ","1","1","0","1","1","74101","0","1","18.2072","-74.04040000 ","1","1 ","0","0","0","0","0","0","1","0","0"," ","Publique","0","","COTEAUX","CSL","1"
"11986","Damassin"," ","0","0","0","SUD  ","1","1","0","1","1","74102","0","0","18.230399999","-74.06369999 ","1","2 ","0","0","0","0","0","0","1","0","0"," ","Publique","0","","COTEAUX","CSL","1"
"11987","Disp de Bas Boën"," ","0","0","0","OUEST  ","0","1","0","0","0","13101","0","0","18.582599999","-72.24559999 ","0","0 ","0","0","0","0","0","0","1","0","0"," ","Publique","0","","CROIX DES BOUQUETS","CAL","0"
"11989","Centre  de Santé de la Croix-des-Bouquets"," ","0","1","0","OUEST  ","0","0","0","0","0","13103","0","0","18.576799999","-72.22709999 ","0","0 ","0","0","0","0","1","0","0","1","0"," ","Publique","0","","CROIX DES BOUQUETS","CAL","0"
"11990","Centre de Santé de Double Harvest"," ","0","0","0","OUEST  ","0","1","0","0","0","13104","1","0","18.543700000","-72.19259999 ","0","0 ","0","1","0","1","0","1","0","0","1"," ","Privée","0","","CROIX DES BOUQUETS","CSL","0"
"11991","Centre de Santé HELP de Vaudreuil"," ","0","0","0","OUEST  ","0","0","0","0","0","13105","0","0","18.589200000","-72.17669999 ","0","0 ","0","0","0","0","0","0","0","0","0"," ","Privée","0","","CROIX DES BOUQUETS","CSL","0"
"11992","Centre de Santé Lucelia Bontemps"," ","0","1","0","OUEST  ","1","1","0","1","1","13106","0","1","18.613700000","-72.31010000 ","1","0 ","0","0","0","0","0","0","1","1","0"," ","Privée","0","","CROIX DES BOUQUETS","CSL","1"
"11993","Centre de Santé de Turbé"," ","0","0","0","OUEST  ","1","1","0","1","1","13107","0","1","18.537099999","-72.16670000 ","1","8 ","0","0","0","0","0","0","1","0","0"," ","Privée","0","","CROIX DES BOUQUETS","CSL","1"
"11994","Centre de Santé Sainte thérèse de Santo"," ","0","0","0","OUEST  ","0","0","0","0","0","13108","0","0","18.539474","-72.183933 ","0","0 ","0","0","0","0","0","0","0","0","0"," ","Privée","0","","CROIX DES BOUQUETS","CSL","0"
"11995","Centre de Santé Foyer Ste Camille"," ","0","0","1","OUEST  ","1","1","0","1","1","13109","1","1","18.4809","-72.2546 ","1","8 ","1","1","0","0","0","1","1","0","0"," ","Privée","1","","CROIX DES BOUQUETS","CAL","0"
"11996","C/S Kampech Dumay"," ","0","0","0","OUEST  ","1","0","0","1","1","13110","0","1","18.516768","-72.202607 ","1","0 ","0","0","0","0","0","0","1","0","0"," ","Privée","0","","CROIX DES BOUQUETS","CSL","1"
"11997","Centre de Santé Life Line"," ","0","0","0","OUEST  ","0","1","0","1","1","13111","0","1","18.583500000","-72.22199999 ","1","6 ","0","0","0","0","0","0","1","0","0"," ","Privée","0","","CROIX DES BOUQUETS","CAL","0"
"11998","Bon Samaritain "," ","0","0","0","OUEST  ","0","0","0","0","0","13112","0","0","18.5395","-72.1839 ","0","0 ","0","0","0","0","0","0","0","0","0"," ","Privée","0","","CROIX DES BOUQUETS","CSL","0"
"11999","C/S Christ-Roi"," ","0","0","0","OUEST  ","0","0","0","0","0","13113","0","0","18.616399999","-72.24679999 ","0","0 ","0","0","0","0","0","0","0","0","0"," ","Privée","0","","CROIX DES BOUQUETS","CSL","0"
"111000","C/S Lespwa"," ","0","0","0","OUEST  ","0","0","0","0","0","13114","0","0","18.5395","-72.1839 ","0","0 ","0","0","0","0","0","0","0","0","0"," ","Privée","0","","CROIX DES BOUQUETS","CSL","0"
"111001","FBSA/CMS (Fondation Bon samaritain en Action)"," ","0","0","0","OUEST  ","1","1","0","1","1","13115","0","1","18.525922","-72.335068 ","1","0 ","0","0","0","0","0","0","1","0","0"," ","Privée","0","","CROIX DES BOUQUETS","CSL","1"
"111002","SIF"," ","0","0","1","OUEST  ","1","0","0","1","1","13116","0","1","18.5395","-72.1839 ","1","0 ","0","0","0","0","0","0","1","0","0"," ","Privée","0","","CROIX DES BOUQUETS","CSL","1"
"111003","Clinique mennonite"," ","0","0","0","OUEST  ","0","0","0","1","1","13117","0","1","18.466024","-72.411097 ","0","0 ","0","0","0","0","0","0","1","0","0"," ","Privée","0","","CROIX DES BOUQUETS","CSL","0"
"111004","Clinique St Esprit"," ","0","0","1","OUEST  ","1","1","0","1","1","13118","0","1","18.539474","-72.183933 ","1","0 ","0","0","0","0","0","0","1","0","0"," ","Privée","0","","CROIX DES BOUQUETS","CSL","1"
"111005","Fwaye Ti zanmi Jezi"," ","0","0","0","OUEST  ","1","0","0","1","1","13119","0","1",""," ","1","2 ","0","0","0","0","0","0","1","0","0"," ","Privée","0","","CROIX DES BOUQUETS","CSL","1"
"111006","Disp Marie Louise de Jésus"," ","0","0","1","OUEST  ","1","1","0","1","1","13120","0","1",""," ","1","0 ","0","0","0","0","0","0","1","0","0"," ","Privée","0","","CROIX DES BOUQUETS","CAL","0"
"111007","C/S B?n Nouvèl"," ","0","0","0","OUEST  ","0","0","0","0","0","13121","0","0",""," ","0","0 ","0","0","0","0","0","0","0","0","0"," ","Privée","0","","CROIX DES BOUQUETS","CSL","0"
"111009","Notre Dame des Malades"," ","0","0","0","GRANDE ANSE  ","0","1","0","1","1","82202","0","0","18.561599999","-74.42300000 ","1","0 ","0","0","0","0","0","0","1","0","0"," ","Publique","0","","DAME-MARIE","CSL","1"
"111010","Sainte Anne de Bariadelle"," ","0","0","0","GRANDE ANSE  ","1","1","0","1","1","82203","0","0","18.518000000","-74.44129999 ","1","0 ","0","0","0","0","0","0","1","0","0"," ","Publique","0","","DAME-MARIE","CSL","1"
"111011","SKS Petite Rivière de Dame Marie"," ","0","0","0","GRANDE ANSE  ","0","0","0","0","0","82204","0","0","18.5577","-74.3958 ","0","0 ","0","0","0","0","0","0","0","0","0"," ","Publique","0","","DAME-MARIE","CSL","0"
"111012","Saint Michel de Désormeaux"," ","0","0","0","GRANDE ANSE  ","0","0","0","1","1","82205","0","0","18.546500000","-74.36539999 ","1","0 ","0","0","0","0","0","0","1","0","0"," ","Publique","0","","DAME-MARIE","CSL","1"
"111013","Centre de santé  Armée du Salut"," ","0","0","0","OUEST  ","1","1","0","1","1","11201","0","1","18.5704","-72.2915 ","1","0 ","0","0","0","0","0","0","1","0","0"," ","Privée","0","","DELMAS","CSL","1"
"111014","C/S Bas Fd Philomène Delmas 32"," ","0","0","0","OUEST  ","0","0","0","0","0","11202","0","0","18.54145","-72.307524 ","0","0 ","0","0","0","0","0","0","0","0","0"," ","Privée","0","","DELMAS","CSL","0"
"111015","C/S Delmas 30"," ","0","0","0","OUEST  ","0","0","0","0","0","11203","0","0","18.5704","-72.2915 ","0","0 ","0","0","0","0","0","0","0","0","0"," ","Privée","0","","DELMAS","CSL","0"
"111016","C/S La Saline"," ","0","0","0","OUEST  ","0","1","0","1","1","11204","0","1","18.5704","-72.2915 ","0","0 ","0","0","0","0","0","0","1","0","0"," ","Privée","0","","DELMAS","CSL","1"
"111019","C/S communauté chrétienne Fleuriot de Tabarre "," ","0","0","0","OUEST  ","0","0","0","0","0","11207","0","0","18.5704","-72.2915 ","0","0 ","0","0","0","0","0","0","0","0","0"," ","Privée","0","","DELMAS","CSL","0"
"111022","Centre de santé solidarité"," ","0","0","0","OUEST  ","0","0","0","0","0","11210","0","0","18.570417","-72.291467 ","0","0 ","0","0","0","0","0","0","0","0","0"," ","Privée","0","","DELMAS","CSL","0"
"111025","Centre de santé lumière"," ","0","0","1","OUEST  ","0","1","0","1","0","11213","0","1","18.5704","-72.2915 ","0","5 ","0","0","0","0","0","0","1","0","0"," ","Privée","0","","DELMAS","CAL","1"
"111026","CPFO"," ","0","0","0","OUEST  ","1","0","0","1","1","11214","0","1","18.570417","-72.291467 ","1","0 ","0","0","0","0","0","0","1","0","0"," ","Privée","0","","DELMAS","CSL","1"
"111027","Fondeph"," ","0","0","0","OUEST  ","0","1","0","1","1","11216","0","1","18.4809","-72.2546 ","1","14 ","0","0","0","0","0","0","1","0","0"," ","Privée","0","","DELMAS","CAL","1"
"111029","Haiti Med"," ","0","0","0","OUEST  ","0","0","0","0","0","11218","0","0","18.5704","-72.2915 ","0","0 ","0","0","0","0","0","0","0","0","0"," ","Privée","0","","DELMAS","CSL","0"
"111030","Hopital la paix Delmas 33"," ","1","1","0","OUEST  ","1","1","0","1","1","11221","0","1","18.5533","-72.3220 ","1","78 ","13","1","1","1","1","1","1","1","1"," ","Privée","1","","DELMAS","CSL","1"
"111031","Centre de Santé  Saint-Jean"," ","0","0","0","OUEST  ","0","0","0","0","0","11222","0","0","18.5704","-72.2915 ","0","0 ","0","0","0","0","0","0","0","0","0"," ","Publique","0","","DELMAS","CSL","0"
"111032","Hôpital de l'OFATMA"," ","0","0","1","OUEST  ","1","1","0","1","1","11223","0","1","18.566944","-72.325277 ","1","0 ","0","1","1","1","0","1","1","0","0"," ","Privée","1","","DELMAS","CSL","1"
"111033","Centre de Santé de Petite Place Cazeau"," ","0","1","0","OUEST  ","0","1","0","1","1","11224","0","1","18.5656","-72.28249999 ","1","0 ","0","0","0","0","1","0","1","1","0"," ","Publique","0","","DELMAS","CSL","1"
"111034","Centre de Santé Saint-Martin I"," ","0","0","1","OUEST  ","0","1","0","1","1","11225","0","1","18.5704","-72.2915 ","0","0 ","0","0","0","0","0","0","1","0","0"," ","Privée","0","","DELMAS","CSL","1"
"111035","Centre de Santé Saint-Martin II"," ","0","1","1","OUEST  ","1","1","0","1","1","11226","0","1","18.5704","-72.2915 ","1","2 ","0","0","0","0","0","0","1","0","0"," ","Publique","0","","DELMAS","CSL","1"
"111036","Centre de santé St Paul   "," ","1","1","0","OUEST  ","0","0","0","0","0","11227","0","0","18.544799999","-72.32160000 ","0","0 ","0","0","0","0","1","0","0","1","0"," ","Privée","0","","DELMAS","CSL","0"
"111037","Bernard Mews"," ","1","1","0","OUEST  ","1","1","0","1","1","11228","1","1","18.5704","-72.2915 ","1","27 ","6","1","1","1","1","1","1","1","1"," ","Publique","1","","DELMAS","CSL","1"
"111038","C/S Fontaine"," ","0","0","0","OUEST  ","1","1","0","1","1","11231","0","1","18.5704","-72.2915 ","1","0 ","0","0","0","0","0","0","1","0","0"," ","Privée","0","","DELMAS","CAL","1"
"111039","C/S Pèlerin"," ","0","0","0","OUEST  ","0","1","0","1","1","11233","0","1","18.5704","-72.2915 ","1","0 ","0","0","0","0","0","0","1","0","0"," ","Privée","0","","DELMAS","CSL","1"
"111041","C/S Dieu qui donne"," ","0","0","0","OUEST  ","0","0","0","0","0","11235","0","0","18.570417","-72.291467 ","0","0 ","0","0","0","0","0","0","0","0","0"," ","Privée","0","","DELMAS","CSL","0"
"111042","AMI"," ","0","0","0","OUEST  ","0","0","0","0","0","11236","0","0","18.570417","-72.291467 ","0","0 ","0","0","0","0","0","0","0","0","0"," ","Privée","0","","DELMAS","CSL","0"
"111044","Peace 's Hospital"," ","0","0","0","OUEST  ","1","1","0","1","1","11244","0","1",""," ","1","2 ","0","0","0","0","0","0","1","0","0"," ","Privée","0","","DELMAS","CSL","1"
"111045","Cntre Medico Social de Delmas"," ","0","0","1","OUEST  ","0","1","0","1","0","11245","0","1",""," ","1","0 ","0","0","0","0","0","0","1","0","0"," ","Privée","0","","DELMAS","CSL","1"
"111046","Food for the poor"," ","0","0","1","OUEST  ","0","0","0","1","1","11246","0","0","18.5415","-72.3978 ","1","1 ","0","0","0","0","0","0","1","0","0"," ","Privée","0","","DELMAS","CSL","1"
"111047","FOSREF"," ","0","0","0","OUEST  ","0","0","0","0","0","11247","0","0","18.5448","-72.3350 ","0","0 ","0","0","0","0","0","0","0","0","0"," ","Privée","0","","DELMAS","CSL","0"
"111048","CSL St Pierre"," ","0","0","0","ARTIBONITE  ","1","1","1","1","1","54401","0","1","19.3109","-72.6894 ","1","3 ","0","0","0","0","0","0","1","0","0"," ","Publique","0","","DESDUNES","CAL","1"
"111049","Disp. Descahos"," ","0","0","0","ARTIBONITE  ","0","0","0","1","1","54402","0","0","19.302099999","-72.65040000 ","0","0 ","0","0","0","0","0","0","0","0","0"," ","Publique","0","","DESDUNES","CSL","1"
"111050","Disp. Aux Sources"," ","0","0","0","ARTIBONITE  ","0","0","0","1","1","54403","0","0","19.331199999","-72.67579999 ","0","0 ","0","0","0","0","0","0","0","0","0"," ","Publique","0","","DESDUNES","CAL","1"
"111052","Pelissier/ Laraque (NF)"," ","0","0","0","ARTIBONITE  ","0","0","0","0","0","54102","0","0","19.231300000","-72.55070000 ","0","0 ","0","0","0","0","0","0","0","0","0"," ","Privée","0","","DESSALINES","CAL","0"
"111053","La Croix Missionaire"," ","0","0","0","ARTIBONITE  ","1","0","0","1","1","54103","0","0","19.1934","-72.3232 ","0","0 ","0","0","0","0","0","0","1","0","0"," ","Privée","0","","DESSALINES","CAL","1"
"111054","Celio "," ","0","0","0","ARTIBONITE  ","1","0","0","1","1","54104","0","0","19.2184","-72.4599 ","0","0 ","0","0","0","0","0","0","1","0","0"," ","Privée","0","","DESSALINES","CAL","1"
"111055","Niel "," ","0","0","0","ARTIBONITE  ","1","0","0","1","1","54105","0","0","19.2331","-72.53220000 ","0","0 ","0","0","0","0","0","0","1","0","0"," ","Privée","0","","DESSALINES","CAL","1"
"111056","Poste Pierrot "," ","0","0","0","ARTIBONITE  ","1","0","0","1","1","54106","0","0","19.2134","-72.45520000 ","0","0 ","0","0","0","0","0","0","1","0","0"," ","Privée","0","","DESSALINES","CAL","1"
"111057","Coupe à l’Inde "," ","0","0","0","ARTIBONITE  ","1","0","0","1","1","54107","0","0","19.2821","-72.47830000 ","0","0 ","0","0","0","0","0","0","1","0","0"," ","Privée","0","","DESSALINES","CAL","1"
"111058","Sanoix "," ","0","0","0","ARTIBONITE  ","1","0","0","1","1","54108","0","0","19.227900000","-72.58119999 ","0","0 ","0","0","0","0","0","0","1","0","0"," ","Privée","0","","DESSALINES","CAL","1"
"111059","Deseaux "," ","0","0","0","ARTIBONITE  ","1","0","0","1","1","54109","0","0","19.261900000","-72.57980000 ","0","0 ","0","0","0","0","0","0","1","0","0"," ","Mixte","0","","DESSALINES","CAL","1"
"111060","Grande Hatte"," ","0","0","0","ARTIBONITE  ","1","0","0","1","1","54110","0","0","19.145499999","-72.43019999 ","0","0 ","0","0","0","0","0","0","1","0","0"," ","Privée","0","","DESSALINES","CAL","0"
"111061","Sanie Claire d’Assise"," ","0","1","0","ARTIBONITE  ","1","0","0","1","1","54111","0","1","19.265899999","-72.51770000 ","1","0 ","0","0","0","0","1","0","1","0","0"," ","Privée","0","","DESSALINES","CAL","0"
"111062","Chenot"," ","0","0","0","ARTIBONITE  ","1","0","0","1","1","54112","0","0","19.155100000","-72.33360000 ","0","0 ","0","0","0","0","0","0","1","0","0"," ","Privée","0","","DESSALINES","CAL","0"
"111063","Ogé"," ","0","0","0","ARTIBONITE  ","1","0","0","1","1","54113","0","0","19.204899999","-72.49840000 ","0","0 ","0","0","0","0","0","0","1","0","0"," ","Privée","0","","DESSALINES","CAL","1"
"111064","Hatte Chevreau"," ","0","0","0","ARTIBONITE  ","1","0","0","1","1","54114","0","0","19.2184","-72.4599 ","0","0 ","0","0","0","0","0","0","1","0","0"," ","Privée","0","","DESSALINES","CAL","1"
"111065","Glenn Ebenezer"," ","0","0","0","ARTIBONITE  ","0","0","0","1","0","54115","0","0","19.22","-72.46 ","0","0 ","0","0","0","0","0","0","1","0","0"," ","Privée","0","","DESSALINES","CAL","0"
"111066","Centre Medical Philomène Prinston"," ","0","0","0","ARTIBONITE  ","1","0","0","1","1","54116","0","0","19.13812","-72.32771 ","0","0 ","0","0","0","0","0","0","1","0","0"," ","Privée","0","","DESSALINES","CAL","0"
"111067","CSL de Dondon"," ","0","1","0","NORD  ","1","1","0","1","1","34201","0","1","19.527799999","-72.24469999 ","1","0 ","0","0","0","0","0","0","1","0","0"," ","Mixte","0","","DONDON","CSL","1"
"111068","St Joseph"," ","0","0","0","NORD  ","1","0","0","1","1","34202","0","1","19.5274","-72.24179999 ","0","0 ","0","0","0","0","0","0","1","0","0"," ","Privée","0","","DONDON","CAL","0"
"111070","Passe Reine"," ","0","0","0","ARTIBONITE  ","1","0","0","1","1","51202","0","0","19.4905","-72.4835 ","1","0 ","0","0","0","0","0","0","1","0","0"," ","Publique","0","","ENNERY","CAL","1"
"111071","Savanne Carrée"," ","0","0","0","ARTIBONITE  ","1","0","0","1","1","51203","0","0","19.442799999","-72.43850000 ","1","0 ","0","0","0","0","0","0","1","0","0"," ","Publique","0","","ENNERY","CAL","1"
"111072","St François d’Assise"," ","0","1","0","ARTIBONITE  ","1","0","0","1","1","51204","0","1","19.4878","-72.4833 ","1","0 ","0","0","0","0","1","0","1","0","0"," ","Privée","0","","ENNERY","CSL","0"
"111073","Disp chemin neuf"," ","0","0","0","ARTIBONITE  ","1","0","0","1","1","51205","0","0","19.4833","-72.4833 ","1","0 ","0","0","0","0","0","0","1","0","0"," ","Privée","0","","ENNERY","CAL","1"
"111074","Disp Rouf"," ","0","0","0","ARTIBONITE  ","1","0","0","1","1","51206","0","0","19.49","-72.48 ","1","0 ","0","0","0","0","0","0","1","0","0"," ","Privée","0","","ENNERY","CAL","1"
"111075","Disp de Ferrier"," ","0","0","0","NORD EST  ","0","1","0","1","0","41201","0","0","19.6174","-71.78000000 ","0","0 ","0","0","0","0","0","0","1","0","0"," ","Mixte","0","","FERRIER","CAL","1"
"111076","SSPE St Joseph de Pemerle"," ","0","0","1","NIPPES  ","1","1","0","1","1","101301","0","1","18.3747","-73.1164 ","1","0 ","0","0","0","0","0","0","1","0","0"," ","Mixte","0","","FONDS-DES-NEGRES","CSL","1"
"111078","SSPE Ste Catherine de Bouzy"," ","0","0","0","NIPPES  ","1","1","0","1","1","101303","0","0","18.371529","-73.29278 ","0","0 ","0","0","0","0","0","0","1","0","0"," ","Mixte","0","","FONDS-DES-NEGRES","CSL","1"
"111079","C/S de Fonds Verrettes"," ","0","0","0","OUEST  ","0","1","0","1","0","13501","0","0","18.395099999","-71.85420000 ","0","0 ","0","0","0","0","0","0","1","0","0"," ","Publique","0","","FONDS-VERRETTES","CAL","1"
"111080","Disp  de Foret des Pins"," ","0","0","0","OUEST  ","1","1","0","1","1","13502","0","0","18.323699999","-71.77530000 ","0","2 ","0","0","0","0","0","0","1","0","0"," ","Publique","0","","FONDS-VERRETTES","CAL","0"
"111081","Disp d’Orianie"," ","0","0","0","OUEST  ","0","0","0","0","0","13503","0","0","18.307200000","-71.83240000 ","0","0 ","0","0","0","0","0","0","0","0","0"," ","Privée","0","","FONDS-VERRETTES","CSL","0"
"111083","Derac"," ","0","0","0","NORD EST  ","0","1","0","1","0","41101","0","0","19.662500000","-71.81329999 ","0","0 ","0","0","0","0","0","0","1","0","0"," ","Mixte","0","","FORT-LIBERTe","CAL","1"
"111084","Acul Samedi"," ","0","0","0","NORD EST  ","0","1","0","1","1","41102","0","0","19.521799999","-71.88190000 ","0","0 ","0","0","0","0","0","0","1","0","0"," ","Mixte","0","","FORT-LIBERTe","CAL","1"
"111085","Disp de Fonds Parisien"," ","0","0","0","OUEST  ","0","0","0","0","0","13301","0","0","18.491795","-71.952369 ","0","0 ","0","0","0","0","0","0","0","0","0"," ","Mixte","0","","GANTHIER","CAL","0"
"111086","Centre de Santé de Ganthier"," ","0","0","0","OUEST  ","0","1","0","1","1","13302","0","1","18.533300000","-72.06220000 ","1","0 ","0","0","0","0","0","0","1","0","0"," ","Privée","0","","GANTHIER","CSL","1"
"111087","Disp de Savane cabri"," ","0","0","0","OUEST  ","0","0","0","0","0","13303","0","0","18.587299999","-72.07819999 ","0","0 ","0","0","0","0","0","0","0","0","0"," ","Privée","0","","GANTHIER","CAL","0"
"111088","Disp de FOPECG"," ","0","0","0","OUEST  ","0","0","0","0","0","13304","0","0","18.540600000","-72.13779999 ","0","0 ","0","0","0","0","0","0","0","0","0"," ","Privée","0","","GANTHIER","CAL","0"
"111089","Love  a child"," ","0","0","0","OUEST  ","1","0","0","1","1","13305","0","1",""," ","1","0 ","0","0","0","0","0","0","1","0","0"," ","Privée","0","","GANTHIER","CSL","1"
"111090","Hopital Christ pour tous"," ","0","0","0","OUEST  ","1","1","0","1","1","13306","0","1",""," ","1","5 ","0","0","0","0","0","0","1","0","0"," ","Privée","0","","GANTHIER","CAL","1"
"111091","Centre de santé de Thoman 1"," ","0","0","0","OUEST  ","0","1","0","1","0","13307","0","0",""," ","0","0 ","0","0","0","0","0","0","1","0","0"," ","Privée","0","","GANTHIER","CSL","0"
"111092","centre de santé  de Thoman 2"," ","0","0","0","OUEST  ","0","0","0","0","0","13308","0","0",""," ","0","0 ","0","0","0","0","0","0","0","0","0"," ","Privée","0","","GANTHIER","CSL","0"
"111095","Bayonnais"," ","0","0","0","ARTIBONITE  ","0","0","0","0","0","51103","0","0","19.5989","-72.7807 ","0","0 ","0","0","0","0","0","0","0","0","0"," ","Publique","0","","GONAIVES","CAL","0"
"111096","Labranle"," ","0","0","0","ARTIBONITE  ","0","0","0","1","1","51104","0","1","19.6112","-72.61589999 ","0","0 ","0","0","0","0","0","0","1","0","0"," ","Privée","0","","GONAIVES","CAL","1"
"111097","Ka-Soleil "," ","0","1","0","ARTIBONITE  ","1","1","0","1","1","51105","0","1","19.456600000","-72.68940000 ","1","0 ","0","0","0","0","1","0","1","0","0"," ","Publique","0","","GONAIVES","CSL","1"
"111098","Eben-Ezer/Belle Anse"," ","0","0","0","ARTIBONITE  ","1","1","0","1","1","51106","0","1","19.54693","-72.69704 ","1","0 ","0","0","0","0","0","0","1","0","0"," ","Privée","0","","GONAIVES","CSL","1"
"111099","Bon Berger/Bassin"," ","0","0","1","ARTIBONITE  ","1","0","0","1","1","51107","0","1","19.548100000","-72.69710000 ","1","0 ","0","0","0","0","0","0","1","0","0"," ","Privée","0","","GONAIVES","CSL","1"
"111100","Raboteau "," ","0","1","0","ARTIBONITE  ","0","0","1","0","0","51108","0","0","19.435199999","-72.69769999 ","0","0 ","0","0","0","0","1","0","0","1","0"," ","Publique","0","","GONAIVES","CAL","0"
"111102","Poteau"," ","0","0","0","ARTIBONITE  ","0","0","0","1","1","51110","0","0","19.517199999","-72.62160000 ","0","0 ","0","0","0","0","0","0","1","0","0"," ","Publique","0","","GONAIVES","CAL","1"
"111103","La Pierre "," ","0","0","0","ARTIBONITE  ","0","0","0","1","1","51111","0","0","19.453499999","-72.73539999 ","0","0 ","0","0","0","0","0","0","0","0","0"," ","Mixte","0","","GONAIVES","CAL","1"
"111104","Disp Brunette"," ","0","0","0","ARTIBONITE  ","0","0","0","1","1","51112","0","0","19.4934","-72.6256 ","0","0 ","0","0","0","0","0","0","1","0","0"," ","Privée","0","","GONAIVES","CAL","1"
"111105","Disp Terre Blanche"," ","0","0","0","ARTIBONITE  ","1","1","0","1","1","51113","0","1","19.0713","-72.6797 ","1","0 ","0","0","0","0","0","0","1","0","0"," ","Privée","0","","GONAIVES","CAL","1"
"111106","SSPE de Grand Boucan"," ","0","0","0","NIPPES  ","0","1","0","1","1","103201","0","0",""," ","0","3 ","0","0","0","0","0","0","1","0","0"," ","Mixte","0","","GRAND BOUCAN","CSL","1"
"111107","Centre de Santé Georges Gauvin"," ","0","0","0","OUEST  ","1","1","0","1","1","12301","1","1","18.429600000","-72.76940000 ","1","19 ","4","1","1","0","0","1","1","0","0"," ","Privée","1","","GRAND-GOAVE","CSL","1"
"111108","Centre de Santé de Meyer"," ","0","0","0","OUEST  ","1","1","0","1","1","12302","0","0","18.349900000","-72.71680000 ","1","0 ","0","0","0","0","0","0","1","0","0"," ","Privée","0","","GRAND-GOAVE","CAL","1"
"111109","Disp de Dufour"," ","0","0","0","OUEST  ","0","1","0","1","1","12303","0","0","18.3185","-72.8001 ","1","0 ","0","0","0","0","0","0","1","0","0"," ","Privée","0","","GRAND-GOAVE","CSL","1"
"111110","Danneau"," ","0","0","0","OUEST  ","0","1","0","1","1","12304","0","0","18.393699999","-72.74769999 ","1","1 ","0","0","0","0","0","0","1","0","0"," ","Publique","0","","GRAND-GOAVE","CAL","1"
"111111","Disp Baudin"," ","0","0","0","OUEST  ","0","1","0","1","1","12305","0","0",""," ","1","0 ","0","0","0","0","0","0","1","0","0"," ","Mixte","0","","GRAND-GOAVE","CAL","1"
"111112","Centre de Santé de Grand Gosier"," ","0","0","0","SUD EST  ","1","1","0","0","0","23201","0","0","18.1865","-71.9182 ","0","0 ","0","0","0","0","0","0","0","0","0"," ","Publique","0","","GRAND GOSIER","CSL","1"
"111113","Disp de Bodarie  "," ","0","0","0","SUD EST  ","1","1","0","0","1","23202","0","1","18.260200000","-71.8947 ","0","0 ","0","0","0","0","0","0","0","0","0"," ","Publique","0","","GRAND GOSIER","CAL","1"
"111114","CAL Grande Rivière du Nord"," ","0","1","0","NORD  ","0","0","1","0","0","33101","0","0","19.5806","-72.17040000 ","0","0 ","0","0","0","0","1","0","0","1","0"," ","Mixte","0","","GRANDE-RIVIERE DU NORD","CAL","0"
"111115","Disp Méth. De la Tannerie"," ","0","0","0","NORD  ","1","1","0","1","1","33102","0","1","19.6126","-72.17279999 ","1","0 ","0","0","0","0","0","0","1","0","0"," ","Privée","0","","GRANDE-RIVIERE DU NORD","CAL","0"
"111116","Drouin"," ","0","0","0","ARTIBONITE  ","1","1","0","1","1","54301","0","1","19.2575","-72.68970000 ","1","4 ","0","0","0","0","0","0","1","0","0"," ","Publique","0","","GRANDE SALINE","CAL","1"
"111117","Grande Saline (NF)"," ","0","0","0","ARTIBONITE  ","0","0","0","0","0","54302","0","0","19.2582","-72.7009 ","0","0 ","0","0","0","0","0","0","0","0","0"," ","Publique","0","","GRANDE SALINE","CAL","0"
"111118","Poteneau"," ","0","0","0","ARTIBONITE  ","0","0","0","1","1","54303","0","0","19.2582","-72.7009 ","0","0 ","0","0","0","0","0","0","1","0","0"," ","Mixte","0","","GRANDE SALINE","CAL","0"
"111119","Disp Bon Berger"," ","0","0","1","OUEST  ","1","0","0","1","1","11601","0","1","18.5085","-72.5095 ","1","0 ","0","0","0","0","0","0","1","0","0"," ","Publique","0","","GRESSIER","CAL","1"
"111120","Centre de Santé de Christianville"," ","0","0","0","OUEST  ","0","0","0","0","0","11602","0","0","18.525099999","-72.55360000 ","0","0 ","0","0","0","0","0","0","0","0","0"," ","Publique","0","","GRESSIER","CSL","0"
"111121","Centre de Santé FOSADEC"," ","0","0","0","OUEST  ","0","0","0","1","0","11603","0","0","18.542000000","-72.49689999 ","0","1 ","0","0","0","0","0","0","1","0","0"," ","Publique","0","","GRESSIER","CSL","0"
"111122","Disp Zev Atizan Lape"," ","0","0","0","OUEST  ","0","0","0","0","0","11605","0","0","18.5085","-72.5095 ","0","0 ","0","0","0","0","0","0","0","0","0"," ","Privée","0","","GRESSIER","CSL","0"
"111123","Disp morne a bateau"," ","0","0","0","OUEST  ","0","0","0","0","0","11606","0","0","18.547899999","-72.5124 ","0","0 ","0","0","0","0","0","0","0","0","0"," ","Privée","0","","GRESSIER","CAL","0"
"111124","Centre de santé de Gressier"," ","0","0","0","OUEST  ","0","0","0","0","0","11607","0","0","18.5085","-72.5095 ","0","0 ","0","0","0","0","0","0","0","0","0"," ","Publique","0","","GRESSIER","CSL","0"
"111125","Hope Alive clinic"," ","0","0","1","OUEST  ","1","1","0","1","1","11608","0","1","18.4660","-72.4111 ","1","0 ","0","0","0","0","0","0","1","0","0"," ","Privée","0","","GRESSIER","CSL","1"
"111126","ASDEV"," ","0","0","0","OUEST  ","1","0","0","1","1","11609","0","0",""," ","1","0 ","0","0","0","0","0","0","1","0","0"," ","Privée","0","","GRESSIER","CSL","1"
"111127","Centre de santé Haute Sanite"," ","0","0","0","OUEST  ","0","0","0","0","0","11610","0","0",""," ","0","0 ","0","0","0","0","0","0","0","0","0"," ","Privée","0","","GRESSIER","CSL","0"
"111128","Centre de santé Bon Secours"," ","0","0","0","OUEST  ","1","0","0","1","1","11611","0","0","18.525922","-72.335068 ","1","0 ","0","0","0","0","0","0","1","0","0"," ","Privée","0","","GRESSIER","CAL","1"
"111129","Dsipensaire CS L'Union"," ","0","0","0","OUEST  ","0","0","0","0","0","11612","0","0",""," ","0","0 ","0","0","0","0","0","0","0","0","0"," ","Privée","0","","GRESSIER","CSL","0"
"111132","David 6e section"," ","0","0","0","ARTIBONITE  ","0","1","0","1","1","52102","0","0","19.732600000","-72.72750000 ","1","0 ","0","0","0","0","0","0","0","0","0"," ","Publique","0","","GROS-MORNE","CAL","1"
"111133","Pendu  5e section"," ","0","0","0","ARTIBONITE  ","0","1","0","1","1","52103","0","0","19.787299999","-72.73350000 ","1","0 ","0","0","0","0","0","0","0","0","0"," ","Privée","0","","GROS-MORNE","CAL","1"
"111134","Riv Mancelle  2e section"," ","0","0","0","ARTIBONITE  ","0","0","0","1","1","52104","0","0","19.665500000","-72.69780000 ","1","0 ","0","0","0","0","0","0","1","0","0"," ","Privée","0","","GROS-MORNE","CAL","1"
"111135","SOS France  4e section"," ","0","0","0","ARTIBONITE  ","0","1","0","1","1","52105","0","1","19.670999999","-72.68399999 ","1","0 ","0","0","0","0","0","0","1","0","0"," ","Privée","0","","GROS-MORNE","CSL","1"
"111136","Treuil"," ","0","0","0","ARTIBONITE  ","0","1","0","1","1","52106","0","0","19.763400000","-72.65800000 ","1","0 ","0","0","0","0","0","0","1","0","0"," ","Privée","0","","GROS-MORNE","CAL","1"
"111137","Moulin"," ","0","0","0","ARTIBONITE  ","0","1","0","1","1","52107","0","0","19.647099999","-72.71980000 ","1","0 ","0","0","0","0","0","0","1","0","0"," ","Publique","0","","GROS-MORNE","CAL","1"
"111138","Pérou"," ","0","0","0","ARTIBONITE  ","0","1","0","1","0","52108","0","0",""," ","0","0 ","0","0","0","0","0","0","1","0","0"," ","Publique","0","","GROS-MORNE","CAL","1"
"111139","Verneille"," ","0","0","0","ARTIBONITE  ","0","1","0","1","1","52109","0","0","19.7727","-72.67270000 ","1","0 ","0","0","0","0","0","0","0","0","0"," ","Privée","0","","GROS-MORNE","CAL","1"
"111140","Disp Charbe"," ","0","0","0","ARTIBONITE  ","0","1","0","1","1","52110","0","0","19.7015","-72.7055 ","1","0 ","0","0","0","0","0","0","0","0","0"," ","Privée","0","","GROS-MORNE","CAL","1"
"111141","Disps Corail"," ","0","0","0","ARTIBONITE  ","0","1","0","1","0","52111","0","0","19.7015","-72.7055 ","0","0 ","0","0","0","0","0","0","1","0","0"," ","Privée","0","","GROS-MORNE","CAL","1"
"111142","Clinique Jolivert"," ","0","0","0","ARTIBONITE  ","1","1","0","1","1","52112","0","1","19.672","-72.6778 ","1","0 ","0","0","0","0","0","0","1","0","0"," ","Privée","0","","GROS-MORNE","CAL","1"
"111143","Disp Décaussière"," ","0","0","0","ARTIBONITE  ","0","1","0","1","1","52113","0","0","19.7","-72.71 ","1","0 ","0","0","0","0","0","0","0","0","0"," ","Privée","0","","GROS-MORNE","CAL","1"
"111145","Centre de Santé de Marmont"," ","0","0","0","CENTRE  ","1","0","0","1","1","61101","0","0","19.067399999","-71.98350000 ","1","0 ","0","0","0","0","0","0","1","0","0"," ","Mixte","0","","HINCHE","CSL","1"
"111146","Disp la Belle Onde"," ","0","0","0","CENTRE  ","0","1","0","1","1","61102","0","0","19.1678","-72.04999999 ","0","1 ","0","0","0","0","0","0","1","0","0"," ","Publique","0","","HINCHE","CAL","1"
"111147","Disp de Montegrande"," ","0","0","0","CENTRE  ","0","0","0","1","1","61103","0","0","19.2603","-71.9396 ","0","0 ","0","0","0","0","0","0","1","0","0"," ","Publique","0","","HINCHE","CAL","1"
"111148","Disp des Abricots"," ","0","0","0","CENTRE  ","0","0","0","0","0","61104","0","0","19.067799999","-72.11669999 ","0","0 ","0","0","0","0","0","0","0","0","0"," ","Privée","0","","HINCHE","CAL","0"
"111149","Disp de Los Palis "," ","0","0","0","CENTRE  ","1","0","0","1","1","61105","0","0","19.2603","-71.9396 ","1","0 ","0","0","0","0","0","0","1","0","0"," ","Privée","0","","HINCHE","CAL","1"
"111150","Clinique de l’incarnation de Pandiasou"," ","0","0","0","CENTRE  ","1","1","0","1","1","61106","0","1","19.1443","-72.0190 ","1","2 ","0","0","0","0","0","0","1","0","0"," ","Privée","0","","HINCHE","CSL","1"
"111151","Disp Withney Clinic"," ","0","0","1","CENTRE  ","1","1","0","1","1","61107","0","1",""," ","0","0 ","0","0","0","0","0","0","1","0","0"," ","Privée","0","","HINCHE","CAL","1"
"111152","Disp de Basin Zim"," ","0","0","0","CENTRE  ","0","0","0","1","1","61108","0","0","19.2603","-71.9396 ","0","0 ","0","0","0","0","0","0","0","0","0"," ","Publique","0","","HINCHE","CAL","1"
"111153","Dispesaire de Los Palma (NF)"," ","0","0","0","CENTRE  ","0","0","0","0","0","61109","0","0","19.1443","-72.0190 ","0","0 ","0","0","0","0","0","0","0","0","0"," ","Privée","0","","HINCHE","CAL","0"
"111154","Disp de Dos Palais (NF)"," ","0","0","0","CENTRE  ","0","0","0","0","0","61110","0","0","19.143837","-71.939903 ","0","0 ","0","0","0","0","0","0","0","0","0"," ","Mixte","0","","HINCHE","CAL","0"
"111155","Ile à Vache"," ","0","1","0","SUD  ","0","1","0","1","1","71601","0","1","18.084399999","-73.66670000 ","1","0 ","0","0","0","0","0","0","1","0","0"," ","Publique","0","","ILE-A-VACHE","CSL","1"
"111158","CSLdes Orangers"," ","0","0","0","SUD EST  ","1","1","0","0","1","21101","0","1","18.261199999","-72.50849999 ","0","1 ","0","0","0","0","0","0","0","0","0"," ","Publique","0","","JACMEL","CSL","1"
"111159","CSL PROFAMIL (F)"," ","0","0","0","SUD EST  ","0","0","0","0","0","21102","0","0","18.2376","-72.53140000 ","0","0 ","0","0","0","0","0","0","0","0","0"," ","Privée","0","","JACMEL","CSL","0"
"111160","Disp Cyvadier"," ","0","0","0","SUD EST  ","1","1","0","0","1","21103","0","1","18.2285","-72.46639999 ","0","1 ","0","0","0","0","0","0","0","0","0"," ","Publique","0","","JACMEL","CAL","1"
"111161","Disp La Montagne"," ","0","0","0","SUD EST  ","1","1","0","0","1","21104","0","1","18.2964","-72.5241 ","0","0 ","0","0","0","0","0","0","0","0","0"," ","Publique","0","","JACMEL","CAL","1"
"111162","Disp Marbial"," ","0","0","0","SUD EST  ","0","0","0","0","0","21105","0","0","18.334499999","-72.47190000 ","0","0 ","0","0","0","0","0","0","0","0","0"," ","Publique","0","","JACMEL","CAL","0"
"111163","Disp La Montagne la Voûte "," ","0","0","0","SUD EST  ","1","1","0","0","1","21106","0","1","18.327299","-72.498465 ","0","0 ","0","0","0","0","0","0","0","0","0"," ","Publique","0","","JACMEL","CAL","1"
"111164","Disp La Vanneau"," ","0","0","0","SUD EST  ","1","1","0","0","1","21107","0","1","18.259499999","-72.60790000 ","0","0 ","0","0","0","0","0","0","0","0","0"," ","Publique","0","","JACMEL","CAL","1"
"111165","Disp Notre Dame de Lourdes "," ","0","0","0","SUD EST  ","0","0","0","0","0","21108","0","0","18.328399999","-72.50929999 ","0","0 ","0","0","0","0","0","0","0","0","0"," ","Privée","0","","JACMEL","CAL","0"
"111166","Disp Bellevue la Montagne"," ","0","0","0","SUD EST  ","1","1","0","0","0","21109","0","1","18.2964","-72.5241 ","0","0 ","0","0","0","0","0","0","0","0","0"," ","Mixte","0","","JACMEL","CAL","1"
"111167","Disp Lafond"," ","0","0","0","SUD EST  ","1","1","0","0","1","21110","0","1","18.2821","-72.51789999 ","0","0 ","0","0","0","0","0","0","0","0","0"," ","Publique","0","","JACMEL","CAL","1"
"111168","Centre de Fosref (F)"," ","0","0","0","SUD EST  ","0","0","0","0","0","21111","0","0","18.236799999","-72.5334 ","0","0 ","0","0","0","0","0","0","0","0","0"," ","Privée","0","","JACMEL","CSL","0"
"111169","Centre a lits Christian Martinez (F)"," ","0","0","0","SUD EST  ","0","0","0","0","0","21112","0","0","18.2964","-72.5241 ","0","0 ","0","0","0","0","0","0","0","0","0"," ","Privée","0","","JACMEL","CAL","0"
"111170","Disp Caritas "," ","0","0","0","SUD EST  ","0","0","0","0","0","21113","0","0","18.5698","-72.3232 ","0","0 ","0","0","0","0","0","0","0","0","0"," ","Privée","0","","JACMEL","CAL","0"
"111173","Bord de Mer"," ","0","0","0","NORD OUEST  ","1","1","0","1","1","93402","0","0","19.9069","-73.19580000 ","0","0 ","0","0","0","0","0","0","1","0","0"," ","Publique","0","","JEAN-RABEL","CSL","1"
"111174","La Montagne"," ","0","0","1","NORD OUEST  ","0","1","0","1","1","93403","0","0","19.8300","-73.1278 ","1","0 ","0","0","0","0","0","0","0","0","0"," ","Publique","0","","JEAN-RABEL","CSL","0"
"111175","La Coma"," ","0","0","0","NORD OUEST  ","1","1","0","1","0","93404","0","0","19.8813","-73.07609999 ","1","0 ","0","0","0","0","0","0","1","0","0"," ","Privée","0","","JEAN-RABEL","CSL","1"
"111176","Guinaudée"," ","0","0","0","NORD OUEST  ","0","0","0","0","0","93405","0","0","19.831700000","-73.13349999 ","0","0 ","0","0","0","0","0","0","0","0","0"," ","Mixte","0","","JEAN-RABEL","CSL","0"
"111177","La Réserve"," ","0","0","0","NORD OUEST  ","0","1","0","1","1","93406","0","0","19.8300","-73.1278 ","0","0 ","0","0","0","0","0","0","1","0","0"," ","Mixte","0","","JEAN-RABEL","CSL","1"
"111178","Gombo"," ","0","0","0","NORD OUEST  ","0","1","0","1","1","93407","0","0","19.802099999","-73.07810000 ","0","0 ","0","0","0","0","0","0","1","0","0"," ","Mixte","0","","JEAN-RABEL","CSL","1"
"111179","Raymond"," ","0","0","0","NORD OUEST  ","0","1","0","1","1","93408","0","0","19.8300","-73.1278 ","0","0 ","0","0","0","0","0","0","1","0","0"," ","Mixte","0","","JEAN-RABEL","CSL","1"
"111180","Dubois"," ","0","0","0","NORD OUEST  ","0","1","0","1","0","93409","0","1","19.8300","-73.1278 ","0","0 ","0","0","0","0","0","0","1","0","0"," ","Mixte","0","","JEAN-RABEL","CSL","0"
"111181","Cabaret"," ","0","0","0","NORD OUEST  ","0","1","0","1","1","93410","0","0","19.876300000","-73.01399999 ","0","0 ","0","0","0","0","0","0","1","0","0"," ","Publique","0","","JEAN-RABEL","CSL","1"
"111182","K-Philippe"," ","0","0","0","NORD OUEST  ","0","1","0","1","1","93411","0","0","19.804600000","-73.1083 ","0","0 ","0","0","0","0","0","0","1","0","0"," ","Privée","0","","JEAN-RABEL","CSL","0"
"111183","Boucan Patriot"," ","0","0","0","NORD OUEST  ","0","1","0","1","1","93412","0","0","19.8752","-72.6177 ","0","0 ","0","0","0","0","0","0","1","0","0"," ","Privée","0","","JEAN-RABEL","CSL","1"
"111184","Port à l’Ecu"," ","0","0","0","NORD OUEST  ","0","1","0","1","1","93413","0","0","19.8300","-73.1278 ","0","0 ","0","0","0","0","0","0","1","0","0"," ","Privée","0","","JEAN-RABEL","CSL","1"
"111185","Café Paul"," ","0","0","0","NORD OUEST  ","1","1","0","1","0","93414","0","0","19.8612","-73.09789999 ","1","0 ","0","0","0","0","0","0","1","0","0"," ","Privée","0","","JEAN-RABEL","CSL","1"
"111186","La Bellée"," ","0","0","0","NORD OUEST  ","0","0","0","1","1","93415","0","0","19.7559","-73.14929999 ","0","0 ","0","0","0","0","0","0","0","0","0"," ","Privée","0","","JEAN-RABEL","CSL","0"
"111187","Grann Lison"," ","0","0","0","NORD OUEST  ","0","1","0","1","1","93416","0","0","19.838899999","-73.20539999 ","1","0 ","0","0","0","0","0","0","1","0","0"," ","Privée","0","","JEAN-RABEL","CSL","1"
"111188","Croix Sauval"," ","0","0","0","NORD OUEST  ","0","0","0","0","0","93417","0","0","19.8657","-73.13819999 ","0","0 ","0","0","0","0","0","0","0","0","0"," ","Privée","0","","JEAN-RABEL","CSL","0"
"111190","Haitian Health Foundation"," ","0","1","1","GRANDE ANSE  ","1","1","0","1","1","81101","0","1","18.6419","-74.12260000 ","1","0 ","0","0","0","0","1","0","1","1","0"," ","Privée","0","","JEREMIE","CSL","1"
"111191","Centre médico social de Gebeau"," ","0","1","1","GRANDE ANSE  ","1","1","0","1","1","81102","0","1","18.623200000","-74.11159999 ","1","0 ","0","0","0","0","1","0","1","0","0"," ","Privée","0","","JEREMIE","CSL","1"
"111192","Sainte Thérèse de l’Enfant Jésus"," ","0","0","0","GRANDE ANSE  ","1","1","0","1","1","81103","0","0","18.636800000","-74.18619999 ","0","0 ","0","0","0","0","0","0","1","0","0"," ","Publique","0","","JEREMIE","CSL","1"
"111193","Notre Dame du Perpétuel Secours de Latibolière"," ","0","0","0","GRANDE ANSE  ","0","1","0","1","0","81104","0","0","18.596399999","-74.13790000 ","0","0 ","0","0","0","0","0","0","1","0","0"," ","Publique","0","","JEREMIE","CSL","1"
"111194","Siloé de Léon"," ","0","0","0","GRANDE ANSE  ","0","0","0","0","0","81105","0","0","18.546700000","-74.11140000 ","0","0 ","0","0","0","0","0","0","0","0","0"," ","Publique","0","","JEREMIE","CSL","0"
"111195","SSPE de Mackandal"," ","0","0","0","GRANDE ANSE  ","1","0","0","1","1","81106","0","0","18.648399999","-74.11549999 ","0","0 ","0","0","0","0","0","0","1","0","0"," ","Publique","0","","JEREMIE","CSL","1"
"111196","SSPE de Marfranc"," ","0","0","0","GRANDE ANSE  ","0","0","0","1","1","81107","0","0","18.5884","-74.2089 ","0","0 ","0","0","0","0","0","0","1","0","0"," ","Publique","0","","JEREMIE","CSL","1"
"111197","Notre Dame de l’Assomption de Numéro deux"," ","0","0","0","GRANDE ANSE  ","0","0","0","0","0","81108","0","0","18.6624","-74.1575 ","0","0 ","0","0","0","0","0","0","0","0","0"," ","Publique","0","","JEREMIE","CSL","0"
"111198","Bon Pasteur  de Prévilé"," ","0","0","0","GRANDE ANSE  ","1","1","0","1","1","81109","0","0","18.537500000","-74.15749999 ","1","0 ","0","0","0","0","0","0","1","0","0"," ","Publique","0","","JEREMIE","CSL","1"
"111199","Centre Immaculé Conception de Ste Hélène"," ","0","1","0","GRANDE ANSE  ","1","1","0","1","1","81110","0","1","18.6387","-74.11220000 ","1","0 ","0","0","0","0","1","0","1","1","0"," ","Privée","0","","JEREMIE","CSL","1"
"111200","Centre de Santé de Kenscoff "," ","0","0","0","OUEST  ","1","1","0","1","1","11501","0","1","18.4043","-72.2897 ","1","0 ","0","0","0","0","0","0","1","0","0"," ","Publique","0","","KENSCOFF","CSL","1"
"111201","Disp de Bolosse (mission baptiste)"," ","0","0","0","OUEST  ","0","0","0","0","0","11502","0","0","18.4043","-72.2897 ","0","0 ","0","0","0","0","0","0","0","0","0"," ","Privée","0","","KENSCOFF","CAL","0"
"111202","Hôpital de Fermathe (mission baptiste)"," ","1","1","1","OUEST  ","1","1","0","1","1","11503","1","1","18.4670","-72.2939 ","1","80 ","5","0","1","1","1","1","1","1","0"," ","Privée","1","","KENSCOFF","CAL","1"
"111203","Disp de  Greffin (mission baptiste)"," ","0","0","0","OUEST  ","0","0","0","0","0","11504","0","0","18.4043","-72.2897 ","0","0 ","0","0","0","0","0","0","0","0","0"," ","Publique","0","","KENSCOFF","CSL","0"
"111204","Disp de Robin  (mission baptiste)"," ","0","0","0","OUEST  ","1","1","0","1","1","11505","0","0","19.6438","-72.3334 ","1","1 ","0","0","0","0","0","0","1","0","0"," ","Privée","0","","KENSCOFF","CAL","1"
"111206","Disp. Notre Dame Perpétuel Secours (Furcy)"," ","0","0","0","OUEST  ","0","0","0","0","0","11507","0","0","18.4043","-72.2897 ","0","0 ","0","0","0","0","0","0","0","0","0"," ","Privée","0","","KENSCOFF","CAL","0"
"111207","Disp d’Athis"," ","0","0","0","OUEST  ","0","0","0","0","0","11508","0","0","18.4043","-72.2897 ","0","0 ","0","0","0","0","0","0","0","0","0"," ","Privée","0","","KENSCOFF","CAL","0"
"111208","Disp Godey (Afè nèg kombit)"," ","0","0","0","OUEST  ","0","0","0","0","0","11509","0","0","19.6438","-72.3334 ","0","0 ","0","0","0","0","0","0","0","0","0"," ","Privée","0","","KENSCOFF","CAL","0"
"111209","Disp Dumisseau (Afè nèg kombit)"," ","0","0","0","OUEST  ","0","0","0","0","0","11510","0","0","18.425799999","-72.23869999 ","0","0 ","0","0","0","0","0","0","0","0","0"," ","Privée","0","","KENSCOFF","CAL","0"
"111210","Disp aux  cadets  (Afè nèg kombit)"," ","0","0","0","OUEST  ","0","0","0","0","0","11511","0","0","18.4043","-72.2897 ","0","0 ","0","0","0","0","0","0","0","0","0"," ","Privée","0","","KENSCOFF","CAL","0"
"111211","SSPE de Morisseaux"," ","0","0","0","NIPPES  ","0","1","0","1","1","102302","0","0","18.3769","-73.4359 ","1","0 ","0","0","0","0","0","0","1","0","0"," ","Mixte","0","","L'ASILE","CSL","1"
"111212","SSPE de Béthesda de Fleurant (F)"," ","0","0","0","NIPPES  ","0","0","0","0","0","102303","0","0","18.372841","-73.496559 ","0","0 ","0","0","0","0","0","0","0","0","0"," ","Privée","0","","L'ASILE","CSL","0"
"111213","SSPE de Changieux"," ","0","0","0","NIPPES  ","0","1","0","1","1","102304","0","0","18.372654","-73.528113 ","0","0 ","0","0","0","0","0","0","1","0","0"," ","Publique","0","","L'ASILE","CSL","1"
"111215","Disp Lagon"," ","0","0","0","ARTIBONITE  ","1","0","0","1","0","51302","0","0","19.36","-72.62 ","0","0 ","0","0","0","0","0","0","1","0","0"," ","Privée","0","","L'ESTERE","CAL","1"
"111216","New Testament la Croix Perisse"," ","0","0","1","ARTIBONITE  ","1","0","0","1","1","51303","0","1","19.347000000","-72.57210000 ","1","2 ","0","0","0","0","0","0","1","0","0"," ","Privée","0","","L'ESTERE","CSL","1"
"111217","La Chapelle"," ","0","0","0","ARTIBONITE  ","0","0","0","0","0","53301","0","0","18.915199999","-72.31640000 ","0","0 ","0","0","0","0","0","0","0","0","0"," ","Mixte","0","","LA CHAPELLE","CSL","0"
"111219","Haut Plaine"," ","0","0","0","NORD OUEST  ","0","1","0","1","0","91202","0","1","20.011700000","-72.66360000 ","0","0 ","0","0","0","0","0","0","1","0","0"," ","Mixte","0","","LA TORTUE","CSL","1"
"111220","La Vallée"," ","0","0","0","NORD OUEST  ","0","1","0","1","1","91203","0","0","20.039400000","-72.86419999 ","0","0 ","0","0","0","0","0","0","1","0","0"," ","Mixte","0","","LA TORTUE","CSL","1"
"111221","Mare Rouge"," ","0","0","0","NORD OUEST  ","0","0","0","0","0","91204","0","0","20.037700000","-72.79120000 ","0","0 ","0","0","0","0","0","0","0","0","0"," ","Mixte","0","","LA TORTUE","CSL","0"
"111222","Montry"," ","0","0","0","NORD OUEST  ","0","1","0","1","1","91205","0","0","20.034700000","-72.80830000 ","0","0 ","0","0","0","0","0","0","1","0","0"," ","Mixte","0","","LA TORTUE","CSL","1"
"111223","Marie Curie"," ","0","0","0","NORD OUEST  ","1","1","0","1","1","91206","0","1","20.0447","-72.7886 ","1","1 ","0","0","0","0","0","0","1","0","0"," ","Privée","0","","LA TORTUE","CSL","1"
"111224","Centre a lits Joseph"," ","0","1","1","SUD EST  ","1","1","0","0","0","21401","0","1","18.268999999","-72.66620000 ","1","1 ","0","0","0","0","1","0","1","1","0"," ","Mixte","0","","LA VALLeE DE JACMEL","CAL","1"
"111225","Disp Morne a Brûler"," ","0","0","0","SUD EST  ","0","0","0","0","0","21402","0","0","18.2627","-72.7110 ","0","0 ","0","0","0","0","0","0","0","0","0"," ","Mixte","0","","LA VALLeE DE JACMEL","CAL","0"
"111226","CSL La Victoire"," ","0","0","0","NORD  ","0","1","0","1","0","34501","0","1","19.339300000","-72.02389999 ","1","0 ","0","0","0","0","0","0","1","0","0"," ","Mixte","0","","LA VICTOIRE","CSL","1"
"111227","Disp Saint Joseph"," ","0","0","0","NORD  ","0","0","0","0","0","34502","0","0","19.436387","-72.200492 ","0","0 ","0","0","0","0","0","0","0","0","0"," ","Privée","0","","LA VICTOIRE","CAL","0"
"111229","Disp Pareidon (NF)"," ","0","0","0","CENTRE  ","0","0","0","0","0","63103","0","0","18.866679","-71.950696 ","0","0 ","0","0","0","0","0","0","0","0","0"," ","Privée","0","","LASCAHOBAS","CAL","0"
"111230","Disp Caste (NF)"," ","0","0","0","CENTRE  ","0","0","0","0","0","63104","0","0","18.8667","-71.9507 ","0","0 ","0","0","0","0","0","0","0","0","0"," ","Privée","0","","LASCAHOBAS","CAL","0"
"111232","Disp de Beauséjour"," ","0","0","0","OUEST  ","0","1","0","0","0","12101","0","0","18.4394","-72.5884 ","0","0 ","0","0","0","0","0","0","1","0","0"," ","Privée","0","","LEOGANE","CAL","0"
"111233","Centre de santé Darbonne"," ","0","0","0","OUEST  ","1","1","0","1","1","12102","0","1","18.4939","-72.59010000 ","1","0 ","0","0","0","0","0","0","1","0","0"," ","Privée","0","","LEOGANE","CSL","1"
"111234","C/S Farnèse Louis Charles de Palmiste a vin"," ","0","0","1","OUEST  ","1","1","0","1","1","12103","0","1","18.427154","-72.642773 ","1","0 ","0","0","0","0","0","0","1","0","0"," ","Privée","0","","LEOGANE","CAL","1"
"111236","Centre materno-infantile"," ","0","0","0","OUEST  ","1","0","0","1","1","12105","0","0","18.507400000","-72.62919999 ","1","0 ","0","0","0","0","0","0","1","0","0"," ","Mixte","0","","LEOGANE","CSL","1"
"111240","Biré (new mission)"," ","0","0","0","OUEST  ","0","1","0","1","1","12109","0","0","18.563400000","-72.58620000 ","0","0 ","0","0","0","0","0","0","0","0","0"," ","Privée","0","","LEOGANE","CSL","0"
"111241","Disp de Fonds d'oie"," ","0","0","0","OUEST  ","0","1","0","1","0","12110","0","0","18.390899999","-72.57970000 ","0","0 ","0","0","0","0","0","0","1","0","0"," ","Privée","0","","LEOGANE","CAL","0"
"111242","Disp de Trouin"," ","0","0","0","OUEST  ","1","0","0","1","1","12111","0","0","18.366199999","-72.65340000 ","1","0 ","0","0","0","0","0","0","1","0","0"," ","Privée","0","","LEOGANE","CAL","1"
"111243","Centre petit Harpon"," ","0","0","0","OUEST  ","0","1","0","1","1","12112","0","0","18.374500000","-72.62099999 ","1","0 ","0","0","0","0","0","0","0","0","0"," ","Privée","0","","LEOGANE","CSL","0"
"111244","Centre de santé Marie Jean"," ","0","0","0","OUEST  ","0","1","0","1","1","12113","0","0","18.439416","-72.588364 ","0","0 ","0","0","0","0","0","0","1","0","0"," ","Privée","0","","LEOGANE","CSL","1"
"111245","Centre de santé Petite Rivière"," ","0","0","0","OUEST  ","0","0","0","0","0","12114","0","0","18.439416","-72.588364 ","0","0 ","0","0","0","0","0","0","0","0","0"," ","Privée","0","","LEOGANE","CSL","0"
"111246","Help Hospital"," ","0","0","1","OUEST  ","1","1","0","1","1","12115","0","1",""," ","1","1 ","0","0","0","0","0","0","1","0","0"," ","Privée","0","","LEOGANE","CSL","1"
"111247","Centre de santé Anacaona"," ","0","0","0","OUEST  ","0","0","0","0","0","12116","0","0",""," ","0","0 ","0","0","0","0","0","0","0","0","0"," ","Privée","0","","LEOGANE","CSL","0"
"111248","Les Anglais"," ","0","1","0","SUD  ","1","1","0","1","1","75201","0","1","18.308700000","-74.21909999 ","1","1 ","0","0","0","0","0","0","1","0","0"," ","Publique","0","","LES ANGLAIS","CAL","1"
"111251","Disp de Camp Coq"," ","0","0","0","NORD  ","0","1","0","1","1","36103","0","0","19.634699999","-72.42589999 ","0","0 ","0","0","0","0","0","0","1","0","0"," ","Publique","0","","LIMBE","CAL","1"
"111252","Disp Haut Limbe"," ","0","0","1","NORD  ","1","0","0","1","1","36104","0","1","19.6579","-72.4093 ","1","4 ","0","0","0","0","0","0","1","0","0"," ","Mixte","0","","LIMBE","CAL","1"
"111253","Disp de Limonade"," ","0","1","0","NORD  ","1","1","0","1","1","31301","0","1","19.6707","-72.12609999 ","1","1 ","0","0","0","0","1","0","1","0","0"," ","Mixte","0","","LIMONADE","CSL","1"
"111254","Disp Bord de mer Limonade"," ","0","0","0","NORD  ","0","0","0","0","0","31302","0","0","19.7287","-72.11920000 ","0","0 ","0","0","0","0","0","0","0","0","0"," ","Privée","0","","LIMONADE","CAL","0"
"111255","Centre Catholique de Limonade"," ","0","0","0","NORD  ","0","0","0","0","0","31303","0","0","19.669489","-72.126098 ","0","0 ","0","0","0","0","0","0","0","0","0"," ","Publique","0","","LIMONADE","CAL","0"
"111256","CSL Porte Ouverte de Bois de Lance"," ","0","0","0","NORD  ","0","1","0","1","1","31304","0","1",""," ","1","0 ","0","0","0","0","0","0","0","0","0"," ","Privée","0","","LIMONADE","CSL","0"
"111257","Centre de Santé sans Lit de Maïssade"," ","0","1","0","CENTRE  ","1","1","1","1","1","61201","0","1","19.177499999","-72.13890000 ","1","1 ","0","0","0","0","1","0","1","1","0"," ","Mixte","0","","MAISSADE","CSL","1"
"111258","Disp de Bois Rouge"," ","0","0","0","CENTRE  ","0","1","0","1","1","61202","0","0","19.113900000","-72.21179999 ","0","0 ","0","0","0","0","0","0","1","0","0"," ","Publique","0","","MAISSADE","CAL","1"
"111259","Disp Ossenande"," ","0","0","0","CENTRE  ","0","0","0","0","0","61203","0","0","19.2022","-72.1337 ","0","0 ","0","0","0","0","0","0","0","0","0"," ","Publique","0","","MAISSADE","CAL","0"
"111260","Disp de Selpètre"," ","0","0","0","CENTRE  ","0","1","0","1","1","61204","0","0","19.142399999","-72.19140000 ","1","0 ","0","0","0","0","0","0","1","0","0"," ","Publique","0","","MAISSADE","CAL","1"
"111261","Disp Cinquième"," ","0","0","0","CENTRE  ","0","1","0","1","1","61205","0","0","19.1678","-72.15000000 ","0","0 ","0","0","0","0","0","0","1","0","0"," ","Publique","0","","MAISSADE","CAL","1"
"111262","Disp Madame Joie"," ","0","0","0","CENTRE  ","0","1","0","1","1","61206","0","0","19.165368","-72.231564 ","0","0 ","0","0","0","0","0","0","1","0","0"," ","Publique","0","","MAISSADE","CAL","1"
"111263","Disp Bassin Cave (NF)"," ","0","0","0","CENTRE  ","0","1","0","1","1","61207","0","0","19.1884","-72.1790 ","0","0 ","0","0","0","0","0","0","1","0","0"," ","Privée","0","","MAISSADE","CAL","1"
"111264","Disp Hatty (NF)"," ","0","0","0","CENTRE  ","0","0","0","0","0","61208","0","0","19.1884","-72.1790 ","0","0 ","0","0","0","0","0","0","0","0","0"," ","Privée","0","","MAISSADE","CAL","0"
"111265","Maniche"," ","0","0","0","SUD  ","1","1","0","1","1","71501","0","1","18.3462","-73.77779999 ","1","0 ","0","0","0","0","0","0","1","0","0"," ","Mixte","0","","MANICHE","CSL","1"
"111266","Dory"," ","0","0","0","SUD  ","0","1","0","1","0","71502","0","0","18.358000000","-73.72310000 ","0","0 ","0","0","0","0","0","0","1","0","0"," ","Mixte","0","","MANICHE","CAL","1"
"111267","Melon"," ","0","0","0","SUD  ","1","0","0","1","1","71503","0","0","18.354199999","-73.77330000 ","1","0 ","0","0","0","0","0","0","1","0","0"," ","Mixte","0","","MANICHE","CAL","1"
"111268","Centre de Santé de Marigot"," ","0","1","1","SUD EST  ","1","1","1","0","1","21201","0","1","18.232700000","-72.32640000 ","1","0 ","0","0","0","0","1","0","0","1","0"," ","Publique","0","","MARIGOT","CSL","1"
"111269","Disp Peredo"," ","0","0","0","SUD EST  ","1","1","0","0","1","21202","0","1","18.248899999","-72.30440000 ","0","1 ","0","0","0","0","0","0","0","0","0"," ","Publique","0","","MARIGOT","CAL","1"
"111270","Disp Seguin"," ","0","0","0","SUD EST  ","1","1","0","0","1","21203","0","1","18.2872","-72.2966 ","0","0 ","0","0","0","0","0","0","0","0","0"," ","Publique","0","","MARIGOT","CAL","1"
"111271","Disp Grande Rivière (F)"," ","0","0","0","SUD EST  ","0","0","0","0","0","21204","0","0","18.2872","-72.2966 ","0","0 ","0","0","0","0","0","0","0","0","0"," ","Privée","0","","MARIGOT","CAL","0"
"111272","CSL Marmelade"," ","0","0","0","ARTIBONITE  ","1","1","1","1","1","55201","0","1","19.519400000","-72.36140000 ","1","2 ","0","0","0","0","0","0","1","0","0"," ","Publique","0","","MARMELADE","CSL","1"
"111274","Disp Carrefour des Pères"," ","0","0","0","NORD  ","0","1","0","1","1","32302","0","0","19.6858","-72.20560000 ","0","1 ","0","0","0","0","0","0","1","0","0"," ","Publique","0","","MILOT","CAL","1"
"111275","Disp de Thibault"," ","0","0","0","NORD  ","0","1","0","1","1","32303","0","1","19.6342","-72.2273 ","1","3 ","0","0","0","0","0","0","1","0","0"," ","Mixte","0","","MILOT","CAL","1"
"111276","Disp St Yves de Thibault"," ","0","0","0","NORD  ","0","0","0","0","0","32304","0","0","19.6330","-72.2273 ","0","0 ","0","0","0","0","0","0","0","0","0"," ","Privée","0","","MILOT","CAL","0"
"111277","La Providence de Lory"," ","0","0","0","NORD  ","1","1","0","1","1","32305","0","1","19.718","-72.22700000 ","1","0 ","0","0","0","0","0","0","1","0","0"," ","Mixte","0","","MILOT","CSL","1"
"111279","SSPE de Beraca"," ","0","0","0","NIPPES  ","1","1","0","1","1","101101","0","0","18.4343","-73.0712 ","0","0 ","0","0","0","0","0","0","1","0","0"," ","Privée","0","","MIRAGOANE","CSL","1"
"111280","SSPE de Chalon"," ","0","0","0","NIPPES  ","0","1","0","1","1","101102","0","0","18.4109","-73.0929 ","0","0 ","0","0","0","0","0","0","1","0","0"," ","Mixte","0","","MIRAGOANE","CSL","1"
"111281","SSPE de D'homond"," ","0","0","0","NIPPES  ","0","0","0","1","1","101103","0","0","18.4560","-73.2000 ","0","0 ","0","0","0","0","0","0","1","0","0"," ","Mixte","0","","MIRAGOANE","CSL","1"
"111282","SSPE de Belle Rivière"," ","0","0","0","NIPPES  ","0","1","0","1","1","101104","0","0","18.3239","-73.0632 ","0","0 ","0","0","0","0","0","0","0","0","0"," ","Mixte","0","","MIRAGOANE","CSL","1"
"111283","SSPE de Labrousse"," ","0","0","0","NIPPES  ","1","1","0","1","1","101105","0","0",""," ","0","0 ","0","0","0","0","0","0","1","0","0"," ","Mixte","0","","MIRAGOANE","CSL","1"
"111284","SSPE de St Michel du Sud"," ","0","0","0","NIPPES  ","0","1","0","1","1","101106","0","0","18.3747","-73.1148 ","0","0 ","0","0","0","0","0","0","1","0","0"," ","Publique","0","","MIRAGOANE","CSL","1"
"111285","Disp de Sarazin"," ","0","0","0","CENTRE  ","0","1","0","1","1","62101","0","0","18.801600000","-72.0047 ","1","0 ","0","0","0","0","0","0","0","0","0"," ","Publique","0","","MIREBALAIS","CAL","1"
"111287","Clinique Mennonite(NF)"," ","0","0","0","CENTRE  ","0","0","0","0","0","62103","0","0","18.7851","-72.0819 ","0","0 ","0","0","0","0","0","0","0","0","0"," ","Mixte","0","","MIREBALAIS","CSL","0"
"111288","Disp Marché Canard (NF)"," ","0","0","0","CENTRE  ","0","0","0","0","0","62104","0","0","18.7867","-72.03050000 ","0","0 ","0","0","0","0","0","0","0","0","0"," ","Privée","0","","MIREBALAIS","CAL","0"
"111289","Disp Grand Boucan (NF)"," ","0","0","0","CENTRE  ","0","0","0","0","0","62105","0","0","18.7851","-72.0819 ","0","0 ","0","0","0","0","0","0","0","0","0"," ","Privée","0","","MIREBALAIS","CAL","0"
"111290","Disp Fonds Michel (NF)"," ","0","0","0","CENTRE  ","0","0","0","1","1","62106","0","0","18.711400000","-72.15779999 ","1","0 ","0","0","0","0","0","0","1","0","0"," ","Privée","0","","MIREBALAIS","CAL","1"
"111291","Môle Saint Nicolas"," ","0","0","0","NORD OUEST  ","1","1","0","1","1","93101","0","1","19.8047","-73.37510000 ","1","0 ","0","0","0","0","0","0","1","0","0"," ","Publique","0","","MOLE SAINT-NICOLAS","CSL","1"
"111292","Mare Rouge"," ","0","0","1","NORD OUEST  ","1","1","0","1","1","93102","0","1","19.7784","-73.3460 ","1","0 ","0","0","0","0","0","0","1","0","0"," ","Mixte","0","","MOLE SAINT-NICOLAS","CSL","1"
"111293","Sentrain"," ","0","0","0","NORD OUEST  ","1","1","0","1","1","93103","0","1","19.814900000","-73.26789999 ","0","0 ","0","0","0","0","0","0","1","0","0"," ","Privée","0","","MOLE SAINT-NICOLAS","CSL","1"
"111294","Côtes de Fer"," ","0","0","0","NORD OUEST  ","0","0","0","1","0","93104","0","0","19.7784","-73.3460 ","0","0 ","0","0","0","0","0","0","1","0","0"," ","Privée","0","","MOLE SAINT-NICOLAS","CSL","1"
"111295","Temps Perdu"," ","0","0","0","NORD OUEST  ","0","0","0","0","0","93105","0","0","19.7784","-73.3460 ","0","0 ","0","0","0","0","0","0","0","0","0"," ","Privée","0","","MOLE SAINT-NICOLAS","CSL","0"
"111296","Disp de Bois de Laurence"," ","0","0","0","NORD EST  ","0","1","0","1","1","44301","0","1","19.329899999","-71.863 ","1","1 ","0","0","0","0","0","0","1","0","0"," ","Publique","0","","MOMBIN CROCHU","CSL","1"
"111297","CAL de Mombin Crochu"," ","0","1","0","NORD EST  ","1","1","0","1","1","44302","0","1","19.370699999","-71.98229999 ","1","0 ","0","0","0","0","0","0","1","0","0"," ","Mixte","0","","MOMBIN CROCHU","CAL","1"
"111298","CAL de Mont Organise"," ","0","1","0","NORD EST  ","1","1","1","1","1","42301","0","1","19.410399999","-71.78100000 ","1","5 ","0","0","0","0","1","0","1","1","0"," ","Mixte","0","","MONT-ORGANISe","CAL","1"
"111299","Centre de Santé de Moron"," ","0","0","0","GRANDE ANSE  ","1","1","0","1","1","81401","0","1","18.5609","-74.25910000 ","1","0 ","0","0","0","0","0","0","1","0","0"," ","Publique","0","","MORON","CSL","1"
"111300","HHF de Moron"," ","0","0","0","GRANDE ANSE  ","0","0","0","0","0","81402","0","0","18.4771","-74.2653 ","0","0 ","0","0","0","0","0","0","0","0","0"," ","Privée","0","","MORON","CSL","0"
"111301","Notre Dame de Lourdes de Moron"," ","0","0","0","GRANDE ANSE  ","0","0","0","0","0","81403","0","0","18.5608","-74.25629999 ","0","0 ","0","0","0","0","0","0","0","0","0"," ","Publique","0","","MORON","CSL","0"
"111302","CAL de Ouanaminthe"," ","1","1","1","NORD EST  ","1","1","1","1","1","42101","0","1","19.549002","-71.719786 ","1","7 ","0","0","0","0","1","0","1","1","0"," ","Mixte","0","","OUANAMINTHE","CAL","1"
"111303","Disp d’Acul des Pins"," ","0","0","0","NORD EST  ","0","1","0","1","1","42102","0","1","19.498699999","-71.81069999 ","0","0 ","0","0","0","0","0","0","1","0","0"," ","Publique","0","","OUANAMINTHE","CAL","1"
"111304","Disp de Gens de Nantes"," ","0","0","0","NORD EST  ","1","1","0","1","1","42103","0","0","19.445699999","-71.76919999 ","0","4 ","0","0","0","0","0","0","1","0","0"," ","Privée","0","","OUANAMINTHE","CSL","0"
"111305","CAL de Paillant"," ","0","0","0","NIPPES  ","1","1","0","1","1","101401","0","1","18.4202","-73.1448 ","1","3 ","0","0","0","0","0","0","1","0","0"," ","Publique","0","","PAILLANT","CSL","1"
"111306","SSPE de Mussotte"," ","0","0","0","NIPPES  ","0","1","0","1","1","101402","0","0","18.4232","-73.1976 ","0","0 ","0","0","0","0","0","0","1","0","0"," ","Mixte","0","","PAILLANT","CSL","1"
"111307","SSPE de Jeannette"," ","0","0","0","NIPPES  ","0","1","0","1","1","101403","0","1","18.3997","-73.148 ","0","2 ","0","0","0","0","0","0","1","0","0"," ","Mixte","0","","PAILLANT","CSL","1"
"111308","SSPE de Etang Rey (F)"," ","0","0","0","NIPPES  ","0","0","0","0","0","101404","0","0","18.3986","-73.1480 ","0","0 ","0","0","0","0","0","0","0","0","0"," ","Mixte","0","","PAILLANT","CSL","0"
"111309","Disp de Perches"," ","0","0","0","NORD EST  ","0","1","0","1","0","41301","0","0","19.522400000","-71.92180000 ","0","0 ","0","0","0","0","0","0","0","0","0"," ","Publique","0","","PERCHES","CAL","1"
"111310","Centre de Santé de Pestel"," ","0","1","0","GRANDE ANSE  ","1","1","0","1","1","83401","0","1","18.542400000","-73.79930000 ","1","1 ","0","0","0","0","1","0","1","1","0"," ","Publique","0","","PESTEL","CSL","1"
"111311","SSPE des Basses"," ","0","0","0","GRANDE ANSE  ","1","1","0","1","1","83402","0","0","18.4935","-73.8247 ","1","0 ","0","0","0","0","0","0","1","0","0"," ","Publique","0","","PESTEL","CSL","1"
"111312","SSPE de Duchity"," ","0","0","0","GRANDE ANSE  ","0","0","0","0","0","83403","0","0","18.436199999","-73.9011 ","0","0 ","0","0","0","0","0","0","0","0","0"," ","Publique","0","","PESTEL","CSL","0"
"111313","SSPE Espwa de Pointe Sable"," ","0","0","0","GRANDE ANSE  ","1","1","0","1","1","83404","0","1","18.4935","-73.8247 ","1","0 ","0","0","0","0","0","0","1","0","0"," ","Mixte","0","","PESTEL","CSL","1"
"111314","Anse à Macon"," ","0","0","0","GRANDE ANSE  ","1","1","0","1","1","83405","0","0","18.4935","-73.8247 ","1","0 ","0","0","0","0","0","0","1","0","0"," ","Publique","0","","PESTEL","CSL","0"
"111315","Centre de Santé calebasse"," ","0","0","0","OUEST  ","1","1","0","1","1","11401","0","0","18.4809","-72.2546 ","1","0 ","0","0","0","0","0","0","1","0","0"," ","Privée","0","","PETION VILLE","CSL","1"
"111316","Citymed de Pétion ville"," ","0","0","0","OUEST  ","1","1","0","1","1","11402","0","1","18.4809","-72.2546 ","1","8 ","0","0","1","0","0","1","0","0","0"," ","Publique","0","","PETION VILLE","CAL","1"
"111317","Centre de santé Monsanto Petit"," ","0","0","0","OUEST  ","0","0","0","0","0","11403","0","0","18.499400000","-72.31919999 ","0","0 ","0","0","0","0","0","0","0","0","0"," ","Privée","0","","PETION VILLE","CSL","0"
"111318","Hôpital de la communauté haïtienne"," ","1","1","1","OUEST  ","0","1","0","1","0","11404","1","1","18.525200000","-72.27259999 ","0","29 ","6","1","1","1","1","1","1","1","1"," ","Privée","1","","PETION VILLE","CSL","1"
"111320","C/S Francisca Cabrini"," ","0","0","0","OUEST  ","0","0","0","0","0","11406","0","0","18.4809","-72.2546 ","0","0 ","0","0","0","0","0","0","0","0","0"," ","Privée","0","","PETION VILLE","CSL","0"
"111322","CSL family center"," ","0","0","1","OUEST  ","1","0","0","1","1","11408","0","1","18.4809","-72.2546 ","1","7 ","0","0","0","0","0","0","1","0","0"," ","Publique","0","","PETION VILLE","CAL","1"
"111323","Fondeph"," ","0","0","0","OUEST  ","1","0","0","1","1","11409","0","1","18.5183","-72.28539999 ","1","3 ","0","0","0","0","0","0","1","0","0"," ","Privée","0","","PETION VILLE","CSL","1"
"111324","Disp Sainte Claire"," ","0","0","1","OUEST  ","1","0","0","1","1","11410","0","1","18.522300000","-72.25409999 ","1","0 ","0","0","0","0","0","0","1","0","0"," ","Privée","0","","PETION VILLE","CSL","1"
"111325","C/S kay lavi"," ","0","0","0","OUEST  ","0","0","0","0","0","11411","0","0","18.4809","-72.2546 ","0","0 ","0","0","0","0","0","0","0","0","0"," ","Privée","0","","PETION VILLE","CSL","0"
"111327","Centre de Santé Nazaréen"," ","0","0","0","OUEST  ","1","0","0","1","1","11413","0","1","18.5335","-72.26779999 ","1","0 ","0","0","0","0","0","0","1","0","0"," ","Privée","0","","PETION VILLE","CSL","1"
"111328","C/S Notre Dame du Cap"," ","0","0","0","OUEST  ","0","0","0","1","0","11414","0","0","18.4809","-72.2546 ","0","0 ","0","0","0","0","0","0","0","0","0"," ","Privée","0","","PETION VILLE","CSL","0"
"111329","C/S de Pernier"," ","0","0","1","OUEST  ","1","1","0","1","1","11415","1","1","18.524699999","-72.22650000 ","1","5 ","0","1","0","0","0","1","1","0","0"," ","Publique","0","","PETION VILLE","CSL","1"
"111330","C/S  retraite sainte Anne"," ","0","0","0","OUEST  ","1","0","0","1","1","11416","0","1","18.4809","-72.2546 ","1","0 ","0","0","0","0","0","0","1","0","0"," ","Privée","0","","PETION VILLE","CSL","1"
"111331","Centre de Santé de Thomassin 25"," ","0","0","1","OUEST  ","1","0","0","1","1","11417","0","1","18.486999999","-72.31279999 ","1","0 ","0","0","0","0","0","0","1","0","0"," ","Privée","0","","PETION VILLE","CSL","1"
"111332","Centre de santé Zafè Fanm"," ","0","0","0","OUEST  ","0","0","0","0","0","11418","0","0","18.516885","-72.298452 ","0","0 ","0","0","0","0","0","0","0","0","0"," ","Privée","0","","PETION VILLE","CSL","0"
"111333","C/S Concardia"," ","0","0","0","OUEST  ","0","0","0","0","0","11419","0","0","18.4809","-72.2546 ","0","0 ","0","0","0","0","0","0","0","0","0"," ","Privée","0","","PETION VILLE","CSL","0"
"111334","C/S Canapévert"," ","0","0","0","OUEST  ","0","0","0","0","0","11420","0","0","18.4809","-72.2546 ","0","0 ","0","0","0","0","0","0","0","0","0"," ","Privée","0","","PETION VILLE","CSL","0"
"111335","C/S Morne Hercule"," ","0","0","0","OUEST  ","0","0","0","1","0","11421","0","0","18.4809","-72.2546 ","0","0 ","0","0","0","0","0","0","1","0","0"," ","Privée","0","","PETION VILLE","CSL","1"
"111336","Centre de Santé philantropique de dupont"," ","0","0","0","OUEST  ","0","0","0","1","1","11422","0","1","18.4809","-72.2546 ","1","0 ","0","0","0","0","0","0","1","0","0"," ","Privée","0","","PETION VILLE","CAL","1"
"111337","Disp de Diegue"," ","0","0","0","OUEST  ","1","1","0","1","1","11423","0","0","18.4809","-72.2546 ","1","0 ","0","0","0","0","0","0","1","0","0"," ","Privée","0","","PETION VILLE","CAL","1"
"111338","C/S l’espoir"," ","0","0","0","OUEST  ","0","0","0","0","0","11424","0","0","18.4809","-72.2546 ","0","0 ","0","0","0","0","0","0","0","0","0"," ","Privée","0","","PETION VILLE","CSL","0"
"111340","Disp de Vialet"," ","0","0","0","OUEST  ","0","1","0","1","0","12202","0","1","18.4178","-72.94389999 ","1","0 ","0","0","0","0","0","0","1","0","0"," ","Publique","0","","PETIT-GOAVE","CSL","1"
"111341","Disp de Madeleine"," ","0","0","0","OUEST  ","0","1","0","1","1","12203","0","0","18.413","-73.00809999 ","1","0 ","0","0","0","0","0","0","1","0","0"," ","Publique","0","","PETIT-GOAVE","CAL","1"
"111342","Disp de Arnoux"," ","0","0","0","OUEST  ","0","1","0","1","0","12204","0","0","18.394600000","-73.01590000 ","0","0 ","0","0","0","0","0","0","1","0","0"," ","Publique","0","","PETIT-GOAVE","CAL","1"
"111343","Centre de Santé Les Palmes (Besace)"," ","0","0","1","OUEST  ","1","1","0","1","1","12205","0","1","18.3048","-72.86369999 ","1","0 ","0","0","0","0","0","0","1","0","0"," ","Privée","0","","PETIT-GOAVE","CSL","1"
"111344","Centre de Santé de Delattre"," ","0","0","0","OUEST  ","1","1","0","1","1","12206","0","1","18.306999999","-72.95810000 ","1","0 ","0","0","0","0","0","0","1","0","0"," ","Privée","0","","PETIT-GOAVE","CSL","1"
"111345","Clinique mobile Olivier"," ","0","0","0","OUEST  ","1","0","0","1","1","12207","0","1","18.426500000","-73.04070000 ","1","0 ","0","0","0","0","0","0","1","0","0"," ","Privée","0","","PETIT-GOAVE","CSL","1"
"111346","Centre de Santé Henry Gérard Desgranges"," ","0","0","0","OUEST  ","1","0","0","1","1","12208","0","1","18.4208","-72.87479999 ","1","0 ","0","0","0","0","0","0","1","0","0"," ","Privée","0","","PETIT-GOAVE","CAL","1"
"111347","Disp APV de Vallue"," ","0","0","0","OUEST  ","0","0","0","0","0","12209","0","0","18.378799999","-72.82399999 ","0","0 ","0","0","0","0","0","0","0","0","0"," ","Privée","0","","PETIT-GOAVE","CAL","0"
"111348","C/S Trouchouchou"," ","0","0","0","OUEST  ","0","0","0","0","0","12210","0","0","18.4518","-72.9681 ","0","0 ","0","0","0","0","0","0","0","0","0"," ","Privée","0","","PETIT-GOAVE","CSL","0"
"111349","Clinique Siloé"," ","0","0","1","OUEST  ","1","1","0","1","1","12212","0","1",""," ","1","4 ","0","0","0","0","0","0","1","0","0"," ","Privée","0","","PETIT-GOAVE","CSL","0"
"111350","CAL de Petit Trou"," ","0","0","0","ARTIBONITE  ","0","1","0","1","1","102201","0","1","18.527401","-73.509668 ","0","3 ","0","0","0","0","0","0","1","0","0"," ","Publique","0","","PETITE-RIVIERE DE L'ARTIBONITE","CSL","1"
"111351","Charles Colimon"," ","1","1","1","ARTIBONITE  ","1","1","1","1","1","54201","0","1","19.122299999","-72.47719999 ","1","3 ","0","0","0","0","1","0","1","1","0"," ","Publique","0","","PETITE-RIVIERE DE L'ARTIBONITE","CAL","1"
"111352","Deslandes"," ","0","0","0","ARTIBONITE  ","0","0","0","0","0","54202","0","0","18.950800000","-72.30840000 ","0","0 ","0","0","0","0","0","0","0","0","0"," ","Privée","0","","PETITE-RIVIERE DE L'ARTIBONITE","CAL","0"
"111353","Mauger (NF)"," ","0","0","0","ARTIBONITE  ","0","0","0","0","0","54203","0","0","19.162600000","-72.55790000 ","0","0 ","0","0","0","0","0","0","0","0","0"," ","Publique","0","","PETITE-RIVIERE DE L'ARTIBONITE","CAL","0"
"111354","Deslandes"," ","0","0","0","ARTIBONITE  ","1","0","0","1","1","54204","0","1","19.0704","-72.3571 ","1","0 ","0","0","0","0","0","0","1","0","0"," ","Privée","0","","PETITE-RIVIERE DE L'ARTIBONITE","CAL","1"
"111355","Perodin (NF)"," ","0","0","0","ARTIBONITE  ","0","1","0","1","1","54205","0","0","19.108899999","-72.30400000 ","0","1 ","0","0","0","0","0","0","1","0","0"," ","Privée","0","","PETITE-RIVIERE DE L'ARTIBONITE","CAL","1"
"111356","Plassac"," ","0","0","0","ARTIBONITE  ","1","1","0","1","1","54206","0","1","19.073","-72.40269999 ","1","0 ","0","0","0","0","0","0","1","0","0"," ","Privée","0","","PETITE-RIVIERE DE L'ARTIBONITE","CAL","1"
"111357","Savanne à Roche"," ","0","0","0","ARTIBONITE  ","1","0","0","1","1","54207","0","0","19.4934","-72.6256 ","0","0 ","0","0","0","0","0","0","1","0","0"," ","Mixte","0","","PETITE-RIVIERE DE L'ARTIBONITE","CAL","0"
"111358","Segur"," ","0","0","0","ARTIBONITE  ","1","1","0","1","1","54208","0","0","19.150400000","-72.50419999 ","1","0 ","0","0","0","0","0","0","1","0","0"," ","Publique","0","","PETITE-RIVIERE DE L'ARTIBONITE","CAL","1"
"111359","Jean Denis"," ","0","0","0","ARTIBONITE  ","1","1","0","1","1","54209","0","0","19.185600000","-72.54290000 ","1","0 ","0","0","0","0","0","0","1","0","0"," ","Publique","0","","PETITE-RIVIERE DE L'ARTIBONITE","CAL","1"
"111361","CAL de Madian"," ","0","0","0","NIPPES  ","0","1","0","1","1","101201","0","1","18.4841","-73.2068 ","0","1 ","0","0","0","0","0","0","1","0","0"," ","Mixte","0","","PETITE RIVIERE DE NIPPES","CSL","1"
"111362","Clinic de la Visitation"," ","0","0","0","NIPPES  ","1","1","0","1","1","101202","0","1",""," ","1","0 ","0","0","0","0","0","0","1","0","0"," ","Mixte","0","","PETITE RIVIERE DE NIPPES","CSL","1"
"111363","SSPE de Petite Rivière"," ","0","0","0","NIPPES  ","0","1","0","1","1","101203","0","0","18.4774","-73.2425 ","0","0 ","0","0","0","0","0","0","1","0","0"," ","Publique","0","","PETITE RIVIERE DE NIPPES","CSL","1"
"111365","St Joseph"," ","0","0","0","NORD  ","1","1","0","1","1","34402","0","1","19.337399999","-72.11419999 ","1","0 ","0","0","0","0","0","0","1","0","0"," ","Privée","0","","PIGNON","CAL","0"
"111366","CAL de Pilate"," ","0","0","0","NORD  ","0","0","0","0","0","37201","0","0","19.6928","-72.5529 ","0","0 ","0","0","0","0","0","0","0","0","0"," ","Mixte","0","","PILATE","CAL","0"
"111367","Disp de Paine du Nord"," ","0","0","0","NORD  ","0","0","0","0","0","32201","0","0","19.6805","-72.2689 ","0","0 ","0","0","0","0","0","0","0","0","0"," ","Privée","0","","PLAINE DU NORD","CAL","0"
"111368","Disp de Balan"," ","0","0","0","NORD  ","0","0","0","1","1","32202","0","1","19.727900000","-72.29800000 ","1","0 ","0","0","0","0","0","0","1","0","0"," ","Publique","0","","PLAINE DU NORD","CSL","1"
"111369","Disp de Morne Rouge"," ","0","0","0","NORD  ","0","0","0","1","1","32203","0","0","19.7117","-72.26609999 ","1","0 ","0","0","0","0","0","0","0","0","0"," ","Publique","0","","PLAINE DU NORD","CAL","1"
"111370","Disp De Robillard"," ","0","0","0","NORD  ","0","0","0","1","0","32204","0","0","19.6174","-72.25860000 ","0","0 ","0","0","0","0","0","0","0","0","0"," ","Publique","0","","PLAINE DU NORD","CAL","1"
"111371","CSL Béthesda de Vaudreuil"," ","1","1","1","NORD  ","1","0","0","1","1","32205","0","1","19.7211","-72.25190000 ","0","0 ","0","0","0","0","1","0","1","1","0"," ","Privée","0","","PLAINE DU NORD","CSL","1"
"111372","St Fr.de Sales"," ","0","0","0","NORD  ","1","0","0","1","1","32206","0","1","19.7196","-72.25260000 ","1","5 ","0","0","0","0","0","0","1","0","0"," ","Privée","0","","PLAINE DU NORD","CAL","0"
"111373","Clin. François DUGUE"," ","0","0","0","NORD  ","0","0","0","1","1","32207","0","1","19.708400000","-72.27819999 ","1","0 ","0","0","0","0","0","0","1","0","0"," ","Privée","0","","PLAINE DU NORD","CSL","0"
"111374","CSL Jehova Jireh"," ","0","0","0","NORD  ","1","0","0","1","1","32208","0","1","19.678799999","-72.27089999 ","1","0 ","0","0","0","0","0","0","1","0","0"," ","Privée","0","","PLAINE DU NORD","CSL","1"
"111376","Disp de Gobert"," ","0","0","0","NORD  ","1","1","0","1","1","37102","0","1","19.630800000","-72.50629999 ","1","0 ","0","0","0","0","0","0","1","0","0"," ","Publique","0","","PLAISANCE","CAL","0"
"111377","Disp La Trouble"," ","0","0","0","NORD  ","0","1","0","1","1","37103","0","0","19.568200000","-72.44180000 ","0","0 ","0","0","0","0","0","0","1","0","0"," ","Privée","0","","PLAISANCE","CSL","1"
"111378","Disp St Henry de Puilboreau"," ","0","0","1","NORD  ","1","1","0","0","1","37104","0","0","19.540199999","-72.47289999 ","1","0 ","0","0","0","0","0","0","0","0","0"," ","Mixte","0","","PLAISANCE","CAL","1"
"111379","CAL de Plaisance"," ","0","0","0","NORD  ","1","1","0","1","1","102501","0","1","19.59756","-72.46929 ","1","0 ","0","0","0","0","0","0","1","0","0"," ","Mixte","0","","PLAISANCE","CSL","1"
"111380","SSPE de Gauthier Civil (F)"," ","0","0","0","NORD  ","0","0","0","0","0","102502","0","0","18.453494","-73.521876 ","0","0 ","0","0","0","0","0","0","0","0","0"," ","Publique","0","","PLAISANCE","CSL","0"
"111381","Port à Piment"," ","0","0","0","SUD  ","0","0","0","0","0","74201","0","0","18.2501","-74.0976 ","0","0 ","0","0","0","0","0","0","0","0","0"," ","Publique","0","","PORT-A-PIMENT","CAL","0"
"111383","Trois Rivières"," ","0","0","0","NORD OUEST  ","1","0","0","1","1","91101","0","0","19.9374","-72.84229999 ","1","0 ","0","0","0","0","0","0","1","0","0"," ","Publique","0","","PORT-DE-PAIX","CSL","1"
"111384","Profamil"," ","0","0","0","NORD OUEST  ","0","0","0","1","0","91102","0","1","19.940000000","-72.82980000 ","0","0 ","0","0","0","0","0","0","0","0","0"," ","Mixte","0","","PORT-DE-PAIX","CSL","0"
"111385","Poste Métier"," ","0","0","0","NORD OUEST  ","1","0","0","1","0","91103","0","0","19.887","-72.92199999 ","1","0 ","0","0","0","0","0","0","1","0","0"," ","Publique","0","","PORT-DE-PAIX","CSL","1"
"111386","Baie des Moustiques"," ","0","0","0","NORD OUEST  ","0","0","0","1","0","91104","0","0","19.904499999","-72.96210000 ","1","0 ","0","0","0","0","0","0","0","0","0"," ","Publique","0","","PORT-DE-PAIX","CSL","0"
"111387","Passe Catabois"," ","0","0","0","NORD OUEST  ","0","0","0","0","0","91105","0","0","19.830500000","-72.94010000 ","0","0 ","0","0","0","0","0","0","0","0","0"," ","Publique","0","","PORT-DE-PAIX","CSL","0"
"111388","Beauchamp"," ","0","0","1","NORD OUEST  ","0","0","0","1","0","91106","0","1","19.808800000","-72.98239999 ","0","0 ","0","0","0","0","0","0","1","0","0"," ","Mixte","0","","PORT-DE-PAIX","CSL","1"
"111389","Foison"," ","0","0","0","NORD OUEST  ","0","1","0","1","1","91107","0","0","19.8519","-72.9117 ","0","0 ","0","0","0","0","0","0","1","0","0"," ","Privée","0","","PORT-DE-PAIX","CSL","1"
"111390","Caluc"," ","0","0","0","NORD OUEST  ","1","0","0","1","1","91108","0","0","19.750399999","-72.9328 ","0","0 ","0","0","0","0","0","0","1","0","0"," ","Privée","0","","PORT-DE-PAIX","CSL","1"
"111391","Soleil"," ","0","0","0","NORD OUEST  ","1","1","0","1","0","91109","0","1","19.947399999","-72.82359999 ","1","1 ","0","0","0","0","0","0","1","0","0"," ","Privée","0","","PORT-DE-PAIX","CSL","1"
"111392","Pilette"," ","0","0","0","NORD OUEST  ","0","1","0","1","1","91110","0","0",""," ","1","0 ","0","0","0","0","0","0","1","0","0"," ","Privée","0","","PORT-DE-PAIX","CSL","1"
"111393","Fatima la Coupe"," ","0","0","0","NORD OUEST  ","0","0","0","0","0","91111","0","0","19.930399999","-72.82340000 ","0","0 ","0","0","0","0","0","0","0","0","0"," ","Privée","0","","PORT-DE-PAIX","CSL","0"
"111394","Fatima Chalet"," ","0","0","0","NORD OUEST  ","0","0","0","0","0","91112","0","0","19.9466","-72.82099999 ","0","0 ","0","0","0","0","0","0","0","0","0"," ","Privée","0","","PORT-DE-PAIX","CSL","0"
"111395","La Croix St Joseph"," ","0","0","0","NORD OUEST  ","0","1","0","1","1","91113","0","1","19.9069","-72.79149999 ","1","0 ","0","0","0","0","0","0","1","0","0"," ","Privée","0","","PORT-DE-PAIX","CSL","1"
"111397","Disp Monfort"," ","0","0","0","NORD OUEST  ","1","0","0","1","1","91115","0","0","19.851856","-72.911695 ","1","0 ","0","0","0","0","0","0","1","0","0"," ","Privée","0","","PORT-DE-PAIX","CSL","1"
"111398","Antène Santé"," ","0","0","0","NORD OUEST  ","1","1","0","1","1","91116","0","1",""," ","1","0 ","0","0","0","0","0","0","1","0","0"," ","Privée","0","","PORT-DE-PAIX","CSL","1"
"111399","Dolciné"," ","0","0","0","NORD OUEST  ","0","1","0","1","0","91117","0","0",""," ","0","0 ","0","0","0","0","0","0","1","0","0"," ","Mixte","0","","PORT-DE-PAIX","CSL","0"
"111400","CSL de Port Margot"," ","0","1","0","NORD  ","0","0","0","1","1","35201","0","1","19.752400000","-72.42929999 ","1","2 ","0","0","0","0","1","0","1","0","0"," ","Mixte","0","","PORT-MARGOT","CSL","1"
"111401","Disp Petit Bourg de Port-Margot"," ","0","0","0","NORD  ","0","0","0","1","0","35202","0","0","19.7225","-72.45329999 ","0","0 ","0","0","0","0","0","0","1","0","0"," ","Mixte","0","","PORT-MARGOT","CAL","1"
"111402","Disp de Bayeux"," ","0","0","0","NORD  ","1","0","0","1","1","35203","0","0","19.8095","-72.43349999 ","1","1 ","0","0","0","0","0","0","1","0","0"," ","Mixte","0","","PORT-MARGOT","CAL","1"
"111403","Disp Malachy"," ","0","0","1","NORD  ","1","0","0","1","1","35204","0","1","19.751799999","-72.42839999 ","1","1 ","0","0","0","0","0","0","1","0","0"," ","Privée","0","","PORT-MARGOT","CSL","0"
"111404","Disp Wesleyen de Fauché"," ","0","0","0","NORD  ","1","1","0","1","1","35205","0","1","19.738199999","-72.43009999 ","1","7 ","0","0","0","0","0","0","1","0","0"," ","Privée","0","","PORT-MARGOT","CAL","1"
"111405","Disp Cath de Pt Bourg"," ","0","0","0","NORD  ","0","0","0","0","0","35206","0","0","19.7540","-72.4639 ","0","0 ","0","0","0","0","0","0","0","0","0"," ","Privée","0","","PORT-MARGOT","CAL","0"
"111407","Dumont"," ","0","0","0","SUD  ","0","0","0","1","1","72102","0","0","18.061299999","-73.88479999 ","0","0 ","0","0","0","0","0","0","1","0","0"," ","Publique","0","","PORT SALUT","CAL","1"
"111408","Carpentier"," ","0","0","0","SUD  ","0","0","0","0","0","72103","0","0","18.133199999","-73.94689999 ","0","0 ","0","0","0","0","0","0","0","0","0"," ","Publique","0","","PORT SALUT","CAL","0"
"111410","Disp de Baillergeau c/s campêche"," ","1","1","0","OUEST  ","0","0","0","0","0","11101","0","0","18.5259","-72.3351 ","0","0 ","0","0","0","0","1","0","0","1","0"," ","Privée","0","","PORT-AU-PRINCE","CAL","0"
"111411","Centre de Santé Aurore du Belair"," ","0","0","0","OUEST  ","1","1","0","1","1","11102","0","1","18.5259","-72.3351 ","1","0 ","0","0","0","0","0","0","1","0","0"," ","Publique","0","","PORT-AU-PRINCE","CSL","1"
"111413","Disp Carifont de Fontamara"," ","0","0","0","OUEST  ","1","1","0","1","1","11104","0","1","18.5259","-72.3351 ","1","0 ","0","0","0","0","0","0","1","0","0"," ","Privée","0","","PORT-AU-PRINCE","CSL","1"
"111414","Centre de Santé du Portail Léogane"," ","0","0","1","OUEST  ","1","1","0","1","1","11105","0","1","18.5348","-72.3473 ","1","0 ","0","0","0","0","0","0","1","0","0"," ","Publique","0","","PORT-AU-PRINCE","CSL","1"
"111415","Centre de santé de St. Antoine"," ","0","1","0","OUEST  ","0","0","0","0","0","11106","0","0","18.536999999","-72.34680000 ","0","0 ","0","0","0","0","0","0","0","0","0"," ","Privée","0","","PORT-AU-PRINCE","CSL","0"
"111416","Centre de Santé Snelak"," ","0","0","0","OUEST  ","0","1","0","1","0","11107","0","1","18.5259","-72.3351 ","0","0 ","0","0","0","0","0","0","1","0","0"," ","Mixte","0","","PORT-AU-PRINCE","CSL","1"
"111417","Centre de Santé de Solino"," ","0","0","0","OUEST  ","1","1","0","1","1","11108","0","1","18.5489","-72.3241 ","1","0 ","0","0","0","0","0","0","1","0","0"," ","Mixte","0","","PORT-AU-PRINCE","CSL","1"
"111418","Centre de Santé trou sable"," ","0","0","0","OUEST  ","0","0","0","0","0","11109","0","0","18.5259","-72.3351 ","0","0 ","0","0","0","0","0","0","0","0","0"," ","Privée","0","","PORT-AU-PRINCE","CSL","0"
"111419","SOFA"," ","0","0","0","OUEST  ","0","0","0","0","0","11110","0","0","18.5259","-72.3351 ","0","0 ","0","0","0","0","0","0","0","0","0"," ","Privée","0","","PORT-AU-PRINCE","CSL","0"
"111420","Centre de Santé Richard Allen"," ","0","0","0","OUEST  ","1","0","0","1","1","11111","0","1","18.5259","-72.3351 ","1","0 ","0","0","0","0","0","0","1","0","0"," ","Privée","0","","PORT-AU-PRINCE","CSL","1"
"111421","ASOLDO  (C/S Cité l'Eternel)"," ","0","0","0","OUEST  ","0","0","0","0","0","11112","0","0","18.5259","-72.3351 ","0","0 ","0","0","0","0","0","0","0","0","0"," ","Privée","0","","PORT-AU-PRINCE","CSL","0"
"111423","Klinik fanm kafou fey"," ","0","0","0","OUEST  ","0","0","0","0","0","11114","0","0","18.5383","-72.34499999 ","0","0 ","0","0","0","0","0","0","0","0","0"," ","Privée","0","","PORT-AU-PRINCE","CSL","0"
"111424","Ligue anti anemie falciforme (LAAF)"," ","0","0","0","OUEST  ","0","0","0","0","0","11115","0","0","18.5259","-72.3351 ","0","0 ","0","0","0","0","0","0","0","0","0"," ","Privée","0","","PORT-AU-PRINCE","CSL","0"
"111426","Centre St Antoine"," ","0","0","0","OUEST  ","1","1","0","1","1","11117","0","1","18.5259","-72.3351 ","1","0 ","0","0","0","0","0","0","1","0","0"," ","Privée","0","","PORT-AU-PRINCE","CSL","1"
"111428","CAL SODEC"," ","0","0","0","OUEST  ","0","0","0","1","1","11119","0","1","18.5259","-72.3351 ","1","6 ","0","0","0","0","0","0","1","0","0"," ","Privée","0","","PORT-AU-PRINCE","CSL","1"
"111429","PROFAMIL"," ","1","1","0","OUEST  ","0","0","0","1","0","11120","0","1","18.538900000","-72.34399999 ","0","0 ","0","0","0","0","1","0","1","1","0"," ","Privée","0","","PORT-AU-PRINCE","CSL","0"
"111431","Hôpital Saint-Joseph"," ","0","0","0","OUEST  ","0","1","0","1","1","11122","1","1","18.5366","-72.3275 ","0","4 ","0","1","1","0","0","1","1","0","1"," ","Privée","1","","PORT-AU-PRINCE","CSL","0"
"111432","Centre Pédodontique"," ","0","1","0","OUEST  ","0","0","0","0","0","11123","0","0","18.527899999","-72.34449999 ","0","0 ","0","0","0","0","0","0","0","0","0"," ","Privée","0","","PORT-AU-PRINCE","CSL","0"
"111433","World Relief"," ","0","0","0","OUEST  ","0","0","0","0","0","11124","0","0","18.5259","-72.3351 ","0","0 ","0","0","0","0","0","0","0","0","0"," ","Privée","0","","PORT-AU-PRINCE","CSL","0"
"111434","Ligue anti anemie falciforme (LAAF)"," ","0","0","0","OUEST  ","0","0","0","0","0","11125","0","0","18.525922","-72.335068 ","0","0 ","0","0","0","0","0","0","0","0","0"," ","Mixte","0","","PORT-AU-PRINCE","CSL","0"
"111435","Centre de santé croix des prés"," ","0","0","0","OUEST  ","0","0","0","0","0","11126","0","0","18.5259","-72.3351 ","0","0 ","0","0","0","0","0","0","0","0","0"," ","Privée","0","","PORT-AU-PRINCE","CSL","0"
"111436","Renaissance"," ","0","0","0","OUEST  ","0","0","0","0","0","11127","0","0","18.5485","-72.3395 ","0","0 ","0","0","0","0","0","0","0","0","0"," ","Publique","0","","PORT-AU-PRINCE","CSL","0"
"111437","APROSIFA"," ","0","0","0","OUEST  ","1","1","0","1","1","11128","0","1","18.5259","-72.3351 ","1","0 ","0","0","0","0","0","0","1","0","0"," ","Mixte","0","","PORT-AU-PRINCE","CSL","1"
"111438","Centre de santé Sainte elizabeth"," ","0","0","0","OUEST  ","1","0","0","1","1","11129","0","1","18.549600000","-72.33950000 ","0","0 ","0","0","0","0","0","0","1","0","0"," ","Privée","0","","PORT-AU-PRINCE","CSL","1"
"111439","Centre de santé kay ti moun"," ","0","0","0","OUEST  ","0","0","0","1","0","11130","0","1","18.529699999","-72.34709999 ","1","0 ","0","0","0","0","0","0","1","0","0"," ","Privée","0","","PORT-AU-PRINCE","CSL","1"
"111440","CMS/FHSM   (Centre médico-social/FHSM)"," ","0","0","0","OUEST  ","0","0","0","0","0","11131","0","0","18.5258","-72.34010000 ","0","0 ","0","0","0","0","0","0","0","0","0"," ","Privée","0","","PORT-AU-PRINCE","CSL","0"
"111441","Centre de santé Martissant"," ","0","0","0","OUEST  ","1","1","0","1","1","11132","0","1","18.5259","-72.3351 ","1","10 ","0","0","0","0","0","0","1","0","0"," ","Mixte","0","","PORT-AU-PRINCE","CAL","1"
"111442","Centre de santé Caravelle "," ","0","0","1","OUEST  ","0","1","0","1","0","11133","0","1","18.5259","-72.3351 ","0","0 ","0","0","0","0","0","0","1","0","0"," ","Privée","0","","PORT-AU-PRINCE","CSL","1"
"111443","Gheskio"," ","0","1","0","OUEST  ","0","0","0","0","0","11134","0","0","18.5372","-72.3497 ","0","0 ","0","0","0","0","1","0","0","1","0"," ","Privée","0","","PORT-AU-PRINCE","CSL","0"
"111444","Centre de Santé Bethanie"," ","0","0","1","OUEST  ","1","1","0","1","1","11135","0","1","18.5259","-72.3351 ","1","0 ","0","0","0","0","0","0","1","0","0"," ","Mixte","0","","PORT-AU-PRINCE","CSL","0"
"111445","Centre de Santé ACDEF mapou"," ","1","1","0","OUEST  ","0","0","0","1","0","11136","0","0","18.5383","-72.34969999 ","1","0 ","0","0","0","0","1","0","1","1","0"," ","Privée","0","","PORT-AU-PRINCE","CSL","1"
"111446","Centre de Santé Providence"," ","0","0","0","OUEST  ","0","0","0","0","0","11137","0","0","18.5259","-72.3351 ","0","0 ","0","0","0","0","0","0","0","0","0"," ","Mixte","0","","PORT-AU-PRINCE","CSL","0"
"111447","Centre de Santé Bethesda"," ","0","0","0","OUEST  ","1","1","0","1","1","11138","0","1","18.5259","-72.3351 ","1","16 ","0","0","0","0","0","0","1","0","0"," ","Mixte","0","","PORT-AU-PRINCE","CSL","1"
"111448","Centre de santé communautaire (rue Mgr. Guilloux)"," ","0","0","0","OUEST  ","0","1","0","1","1","11139","0","0","18.5243","-72.3440 ","0","0 ","0","0","0","0","0","0","1","0","0"," ","Privée","0","","PORT-AU-PRINCE","CSL","1"
"111449","Centre de Santé St Michel barreau"," ","0","0","0","OUEST  ","1","0","0","1","1","11140","0","1","18.5306","-72.3669 ","1","0 ","0","0","0","0","0","0","1","0","0"," ","Mixte","0","","PORT-AU-PRINCE","CSL","1"
"111454","FOSREF"," ","0","0","0","OUEST  ","0","1","0","1","1","11145","0","1","18.544783","-72.334955 ","0","0 ","0","0","0","0","0","0","0","0","0"," ","Privée","0","","PORT-AU-PRINCE","CSL","1"
"111456","Centre de Santé cite Canada (Haut Turgeau)"," ","0","0","0","OUEST  ","0","0","0","1","1","11147","0","1","18.5259","-72.3351 ","1","0 ","0","0","0","0","0","0","1","0","0"," ","Mixte","0","","PORT-AU-PRINCE","CSL","1"
"111457","Disp la source"," ","0","0","0","OUEST  ","0","1","0","1","0","15201","0","1","18.936599999","-73.20159999 ","0","1 ","0","0","0","0","0","0","1","0","0"," ","Privée","0","","POINTE-A-RAQUETTE","CSL","1"
"111458","Disp de  tamarin"," ","0","0","0","OUEST  ","1","1","0","1","1","15202","0","0","18.916499999","-73.21769999 ","1","0 ","0","0","0","0","0","0","1","0","0"," ","Privée","0","","POINTE-A-RAQUETTE","CAL","1"
"111459","Centre World Vision de gros mangle"," ","0","0","0","OUEST  ","0","1","0","1","1","15203","0","0","18.931000000","-73.11249999 ","0","0 ","0","0","0","0","0","0","1","0","0"," ","Privée","0","","POINTE-A-RAQUETTE","CAL","1"
"111460","Centre World Vision  ti palmiste"," ","0","0","0","OUEST  ","0","1","0","1","1","15204","0","1","18.827000000","-73.06130000 ","1","0 ","0","0","0","0","0","0","1","0","0"," ","Privée","0","","POINTE-A-RAQUETTE","CAL","1"
"111461","Disp Saint-Louis"," ","0","0","0","OUEST  ","0","0","0","0","0","15205","0","0","18.787500000","-73.06359999 ","0","0 ","0","0","0","0","0","0","0","0","0"," ","Privée","0","","POINTE-A-RAQUETTE","CAL","0"
"111462","Disp méthodiste de source a Philippe"," ","0","0","0","OUEST  ","0","0","0","0","0","15206","0","0","18.819800000","-73.12269999 ","0","0 ","0","0","0","0","0","0","0","0","0"," ","Privée","0","","POINTE-A-RAQUETTE","CAL","0"
"111463","Disp de Quartier Morin"," ","0","0","0","GRANDE ANSE  ","1","1","0","1","1","31201","0","1","19.698799999","-72.15770000 ","1","7 ","0","0","0","0","0","0","1","0","0"," ","Publique","0","","QUARTIER MORIN","CAL","1"
"111464","Disp de Cadush"," ","0","0","0","GRANDE ANSE  ","0","0","0","1","1","31202","0","0","19.643000000","-72.18110000 ","0","0 ","0","0","0","0","0","0","1","0","0"," ","Publique","0","","QUARTIER MORIN","CAL","1"
"111465","Disp de Morne Pelé (NF)"," ","0","0","0","GRANDE ANSE  ","0","0","0","0","0","31203","0","0",""," ","0","0 ","0","0","0","0","0","0","0","0","0"," ","Privée","0","","QUARTIER MORIN","CAL","0"
"111466","Disp St Louis"," ","0","0","0","GRANDE ANSE  ","1","1","0","1","1","31204","0","1","19.698899999","-72.15640000 ","1","0 ","0","0","0","0","0","0","1","0","0"," ","Mixte","0","","QUARTIER MORIN","CAL","1"
"111467","Ste Bernadette de Cadush"," ","0","0","0","GRANDE ANSE  ","0","0","0","0","0","31205","0","0","19.643938","-72.180766 ","0","0 ","0","0","0","0","0","0","0","0","0"," ","Privée","0","","QUARTIER MORIN","CAL","0"
"111468","Grand Pré"," ","0","0","0","GRANDE ANSE  ","0","1","0","1","1","31206","0","0","19.623699999","-72.18529999 ","0","0 ","0","0","0","0","0","0","0","0","0"," ","Privée","0","","QUARTIER MORIN","CAL","1"
"111469","CMB de Carrefour la Mort (Mission Baptiste)"," ","0","0","0","GRANDE ANSE  ","1","1","0","1","1","31207","0","1",""," ","1","1 ","0","0","0","0","0","0","1","0","0"," ","Privée","0","","QUARTIER MORIN","CAL","1"
"111470","CSL de Ranquitte"," ","0","0","0","NORD  ","0","1","0","1","1","34301","0","1","19.4116","-72.08289999 ","1","0 ","0","0","0","0","0","0","1","0","0"," ","Mixte","0","","RANQUITTE","CSL","1"
"111471","Disp Brenda West"," ","0","0","1","NORD  ","1","1","0","1","1","34302","0","1",""," ","1","0 ","0","0","0","0","0","0","1","0","0"," ","Privée","0","","RANQUITTE","CAL","0"
"111472","Disp St Joseph ( Catholique)"," ","0","0","0","NORD  ","0","0","0","0","0","34303","0","0","19.3507","-72.0219 ","0","0 ","0","0","0","0","0","0","0","0","0"," ","Privée","0","","RANQUITTE","CAL","0"
"111473","Roche à Bateau"," ","0","0","0","SUD  ","0","1","0","1","1","74301","0","0","18.181000000","-74.00339999 ","0","0 ","0","0","0","0","0","0","1","0","0"," ","Mixte","0","","ROCHE A BATEAU","CAL","1"
"111474","Bon Samaritain des Roseaux"," ","0","0","0","GRANDE ANSE  ","0","0","0","1","1","83201","0","0","18.5153","-74.0406 ","0","0 ","0","0","0","0","0","0","1","0","0"," ","Publique","0","","ROSEAUX","CSL","1"
"111475","SSPE de Carrefour Charles"," ","0","0","0","GRANDE ANSE  ","0","1","0","1","1","83202","0","0","18.537800000","-74.00010000 ","0","2 ","0","0","0","0","0","0","1","0","0"," ","Publique","0","","ROSEAUX","CSL","1"
"111476","Saint Antoine de Padoue de Lopino"," ","0","0","0","GRANDE ANSE  ","0","1","0","1","1","83203","0","0","18.5093","-74.0624 ","1","3 ","0","0","0","0","0","0","1","0","0"," ","Privée","0","","ROSEAUX","CSL","1"
"111477","HHF a Roseaux"," ","0","0","0","GRANDE ANSE  ","0","0","0","0","0","83204","0","0","18.510400000","-74.06239999 ","0","0 ","0","0","0","0","0","0","0","0","0"," ","Privée","0","","ROSEAUX","CSL","0"
"111478","St Jean"," ","0","0","0","SUD  ","1","1","0","1","1","72201","0","1","18.077300000","-73.8125 ","1","0 ","0","0","0","0","0","0","1","0","0"," ","Publique","0","","SAINT JEAN DU SUD","CSL","1"
"111479","Carrefour Joute"," ","0","0","0","SUD  ","0","0","0","1","1","72202","0","0","18.116299999","-73.85209999 ","0","0 ","0","0","0","0","0","0","1","0","0"," ","Publique","0","","SAINT JEAN DU SUD","CAL","1"
"111480","Saint Louis"," ","0","0","0","SUD  ","1","1","0","1","1","73201","0","1","18.264299999","-73.54649999 ","1","0 ","0","0","0","0","0","0","1","0","0"," ","Publique","0","","SAINT LOUIS DU SUD","CSL","1"
"111481","Saint Patrick"," ","0","0","0","SUD  ","0","0","0","1","0","73202","0","1","18.2652","-73.54259999 ","1","0 ","0","0","0","0","0","0","1","0","0"," ","Mixte","0","","SAINT LOUIS DU SUD","CAL","1"
"111482","Sucrerie Henry"," ","0","0","0","SUD  ","1","1","0","1","0","73203","0","1","18.292100000","-73.57040000 ","1","0 ","0","0","0","0","0","0","1","0","0"," ","Mixte","0","","SAINT LOUIS DU SUD","CAL","1"
"111483","World Vision BD (F)"," ","0","0","0","SUD  ","0","0","0","0","0","73204","0","0","18.2824","-73.5313 ","0","0 ","0","0","0","0","0","0","0","0","0"," ","Privée","0","","SAINT LOUIS DU SUD","CAL","0"
"111484","Cherette (F)"," ","0","0","0","SUD  ","0","0","0","0","0","73205","0","0","18.2824","-73.5313 ","0","0 ","0","0","0","0","0","0","0","0","0"," ","Privée","0","","SAINT LOUIS DU SUD","CAL","0"
"111486","Chardene"," ","0","0","0","ARTIBONITE  ","0","0","0","0","0","53102","0","0","19.0981","-72.6823 ","0","0 ","0","0","0","0","0","0","0","0","0"," ","Publique","0","","SAINT MARC","CAL","0"
"111487","Charrettes"," ","0","0","0","ARTIBONITE  ","0","0","0","1","1","53103","0","0","19.081299999","-72.67489999 ","0","0 ","0","0","0","0","0","0","1","0","0"," ","Publique","0","","SAINT MARC","CAL","1"
"111488","Goyavier (NF)"," ","0","0","0","ARTIBONITE  ","0","0","0","1","1","53104","0","0","19.045500000","-72.63259999 ","0","0 ","0","0","0","0","0","0","1","0","0"," ","Publique","0","","SAINT MARC","CAL","1"
"111489","Gresseau"," ","0","0","0","ARTIBONITE  ","0","0","0","1","1","53105","0","0","18.983799999","-72.64610000 ","0","0 ","0","0","0","0","0","0","1","0","0"," ","Publique","0","","SAINT MARC","CAL","0"
"111490","Jeanton"," ","0","0","0","ARTIBONITE  ","0","0","0","1","1","53106","0","0","19.076599999","-72.70879999 ","0","0 ","0","0","0","0","0","0","1","0","0"," ","Publique","0","","SAINT MARC","CAL","1"
"111491","Montrouis"," ","0","0","0","ARTIBONITE  ","0","0","0","0","0","53107","0","0","18.952500000","-72.70569999 ","0","0 ","0","0","0","0","0","0","0","0","0"," ","Publique","0","","SAINT MARC","CAL","0"
"111492","Pierre Payen"," ","1","1","0","ARTIBONITE  ","0","0","1","0","0","53108","0","0","18.998899999","-72.73789999 ","0","0 ","0","0","0","0","1","0","0","1","0"," ","Privée","0","","SAINT MARC","CAL","0"
"111493","Pont Sondé"," ","0","0","0","ARTIBONITE  ","0","0","0","1","1","53109","0","0","19.150099999","-72.61700000 ","0","0 ","0","0","0","0","0","0","1","0","0"," ","Publique","0","","SAINT MARC","CAL","1"
"111494","Bocozelle"," ","0","0","0","ARTIBONITE  ","1","1","0","1","1","53110","0","1","19.0981","-72.6823 ","1","10 ","0","0","0","0","0","0","1","0","0"," ","Mixte","0","","SAINT MARC","CAL","1"
"111495","Gervais"," ","0","0","0","ARTIBONITE  ","0","0","0","1","1","53111","0","0","19.0981","-72.6823 ","0","0 ","0","0","0","0","0","0","1","0","0"," ","Privée","0","","SAINT MARC","CAL","0"
"111496","RSCH/ Gilbert"," ","0","0","0","ARTIBONITE  ","1","1","0","1","1","53112","0","1","19.1035","-72.5869 ","1","2 ","0","0","0","0","0","0","1","0","0"," ","Privée","0","","SAINT MARC","CAL","1"
"111497","Terre Blanche"," ","0","0","0","ARTIBONITE  ","0","0","0","1","1","53113","0","0","19.072500000","-72.67969999 ","0","0 ","0","0","0","0","0","0","1","0","0"," ","Publique","0","","SAINT MARC","CAL","1"
"111498","St Laurent/Barbe"," ","0","0","0","ARTIBONITE  ","0","0","0","1","1","53114","0","0","19.097300000","-72.66419999 ","0","0 ","0","0","0","0","0","0","1","0","0"," ","Publique","0","","SAINT MARC","CAL","1"
"111499","SSPE"," ","1","1","0","ARTIBONITE  ","1","0","0","1","1","53115","0","1","19.107700000","-72.70260000 ","1","0 ","0","0","0","0","1","0","1","1","0"," ","Publique","0","","SAINT MARC","CAL","1"
"111500","RSCH/ Bertrant"," ","0","0","0","ARTIBONITE  ","0","0","0","1","1","53116","0","0","19.0981","-72.6823 ","0","0 ","0","0","0","0","0","0","1","0","0"," ","Publique","0","","SAINT MARC","CSL","1"
"111501","Fondation Siméus"," ","0","0","1","ARTIBONITE  ","1","0","0","1","1","53117","0","1","19.1","-72.68 ","1","0 ","0","0","0","0","0","0","1","0","0"," ","Privée","0","","SAINT MARC","CAL","1"
"111502","Disp l'Attalaye"," ","0","0","0","ARTIBONITE  ","0","1","0","1","1","55108","0","0","19.372","-72.3315 ","0","0 ","0","0","0","0","0","0","1","0","0"," ","Privée","0","","SAINT MICHEL","CAL","1"
"111504","Lalomas"," ","0","0","0","ARTIBONITE  ","0","1","0","1","1","55102","0","0","19.452500000","-72.28050000 ","0","0 ","0","0","0","0","0","0","1","0","0"," ","Publique","0","","SAINT MICHEL","CAL","1"
"111505","Marmont/Nan Paul"," ","0","0","0","ARTIBONITE  ","0","1","0","1","1","55103","0","0","19.3156","-72.43189999 ","0","0 ","0","0","0","0","0","0","1","0","0"," ","Publique","0","","SAINT MICHEL","CAL","1"
"111506","Gade Baptiste"," ","0","0","0","ARTIBONITE  ","0","1","0","1","1","55104","0","0","19.291","-72.35380000 ","0","0 ","0","0","0","0","0","0","1","0","0"," ","Publique","0","","SAINT MICHEL","CAL","1"
"111507","L’Ermite"," ","0","0","0","ARTIBONITE  ","0","1","0","1","1","55106","0","0","19.250499999","-72.28109999 ","0","0 ","0","0","0","0","0","0","1","0","0"," ","Publique","0","","SAINT MICHEL","CAL","1"
"111508","Camathe"," ","0","0","0","ARTIBONITE  ","1","1","0","1","1","55107","0","1","19.3419","-72.3388 ","0","1 ","0","0","0","0","0","0","1","0","0"," ","Privée","0","","SAINT MICHEL","CSL","1"
"111509","Bas de Sault"," ","0","0","0","ARTIBONITE  ","0","1","0","1","1","55105","0","0","19.453499999","-72.32080000 ","0","0 ","0","0","0","0","0","0","1","0","0"," ","Publique","0","","SAINT MICHEL","CAL","1"
"111510","Disp Bon Berger"," ","0","0","0","ARTIBONITE  ","0","1","0","1","1","55109","0","0","19.372","-72.3315 ","0","0 ","0","0","0","0","0","0","1","0","0"," ","Privée","0","","SAINT MICHEL","CAL","1"
"111511","CSL de St Raphaël"," ","0","0","0","NORD  ","0","1","0","1","1","34101","0","1","19.4421","-72.20050000 ","1","0 ","0","0","0","0","0","0","1","0","0"," ","Mixte","0","","SAINT RAPHAEL","CSL","1"
"111512","St Joseph"," ","0","0","0","NORD  ","1","0","0","1","1","34102","0","1","19.4375","-72.20050000 ","1","0 ","0","0","0","0","0","0","1","0","0"," ","Privée","0","","SAINT RAPHAEL","CAL","0"
"111513","Disp de Sainte Suzanne"," ","0","0","0","NORD EST  ","1","1","0","1","0","43201","0","1","19.584499999","-72.08899999 ","1","2 ","0","0","0","0","0","0","1","0","0"," ","Publique","0","","SAINTE SUZANNE","CSL","1"
"111514","Disp de Dupity"," ","0","0","1","NORD EST  ","0","1","0","1","1","43202","0","1","19.484500000","-72.04999999 ","1","0 ","0","0","0","0","0","0","1","0","0"," ","Mixte","0","","SAINTE SUZANNE","CSL","1"
"111515","Centre de Santé sans Lit de Saut d’Eau"," ","0","0","0","CENTRE  ","0","1","0","1","1","62201","0","0","18.819600000","-72.20189999 ","0","0 ","0","0","0","0","0","0","1","0","0"," ","Publique","0","","SAUT D'EAU","CSL","1"
"111516","Centre de Santé Coupe Madi gras"," ","0","0","0","CENTRE  ","0","0","0","0","0","62201a","0","0",""," ","0","0 ","0","0","0","0","0","0","0","0","0"," ","Publique","0","","SAUT D'EAU","CSL","0"
"111517","Disp Montagne Terrible (NF)"," ","0","0","0","CENTRE  ","0","0","0","0","0","62203","0","0","18.8308","-72.2370 ","0","0 ","0","0","0","0","0","0","0","0","0"," ","Privée","0","","SAUT D'EAU","CAL","0"
"111518","Disp Cap Anamur (NF)"," ","0","0","0","CENTRE  ","0","0","0","0","0","62204","0","0","18.8308","-72.2370 ","0","0 ","0","0","0","0","0","0","0","0","0"," ","Privée","0","","SAUT D'EAU","CAL","0"
"111519","Centre de Santé de Savanette"," ","0","0","0","CENTRE  ","0","1","0","1","1","63301","0","1","18.7461","-71.8414 ","1","0 ","0","0","0","0","0","0","1","0","0"," ","Publique","0","","SAVANETTE","CSL","1"
"111520","Disp de Colombier"," ","0","0","0","CENTRE  ","0","1","0","1","1","63302","0","0","18.747","-71.82269999 ","0","0 ","0","0","0","0","0","0","1","0","0"," ","Publique","0","","SAVANETTE","CAL","1"
"111521","Bonneau"," ","0","0","0","NORD OUEST  ","0","1","0","1","0","92101","0","1","19.9072","-72.6554 ","0","3 ","0","0","0","0","0","0","1","0","0"," ","Mixte","0","","SAINT LOUIS DU NORD","CSL","0"
"111522","St Louis du Nord"," ","0","1","0","NORD OUEST  ","0","0","0","1","0","92102","0","1","19.9328","-72.72050000 ","0","0 ","0","0","0","0","0","0","1","0","0"," ","Publique","0","","SAINT LOUIS DU NORD","CSL","0"
"111523","NWCM"," ","0","0","1","NORD OUEST  ","1","1","1","1","0","92103","0","1","19.8725","-72.6968 ","1","7 ","0","0","0","0","0","0","1","0","0"," ","Privée","0","","SAINT LOUIS DU NORD","CSL","1"
"111524","Desgranges"," ","0","0","0","NORD OUEST  ","1","0","0","1","1","92104","0","1","19.925699999","-72.70789999 ","1","0 ","0","0","0","0","0","0","1","0","0"," ","Publique","0","","SAINT LOUIS DU NORD","CSL","1"
"111525","Chamoise"," ","0","0","0","NORD OUEST  ","0","0","0","1","0","92105","0","0","19.8725","-72.6968 ","0","0 ","0","0","0","0","0","0","1","0","0"," ","Publique","0","","SAINT LOUIS DU NORD","CSL","0"
"111526","Glacis"," ","0","0","0","NORD OUEST  ","0","1","0","1","1","92106","0","0","19.8725","-72.6968 ","1","0 ","0","0","0","0","0","0","1","0","0"," ","Mixte","0","","SAINT LOUIS DU NORD","CSL","1"
"111527","La Perrière"," ","0","0","0","NORD OUEST  ","0","0","0","1","1","92107","0","0","19.8725","-72.6968 ","1","0 ","0","0","0","0","0","0","1","0","0"," ","Mixte","0","","SAINT LOUIS DU NORD","CSL","1"
"111528","Jean Clair"," ","0","0","0","NORD OUEST  ","0","0","0","1","0","92108","0","0","19.872484","-72.696816 ","0","0 ","0","0","0","0","0","0","1","0","0"," ","Mixte","0","","SAINT LOUIS DU NORD","CSL","0"
"111529","Gaspard"," ","0","0","0","NORD OUEST  ","0","0","0","1","0","92109","0","0","19.8725","-72.6968 ","0","0 ","0","0","0","0","0","0","1","0","0"," ","Privée","0","","SAINT LOUIS DU NORD","CSL","1"
"111530","Chaineau"," ","0","0","0","NORD OUEST  ","0","0","0","1","0","92110","0","0","19.8725","-72.6968 ","0","0 ","0","0","0","0","0","0","0","0","0"," ","Privée","0","","SAINT LOUIS DU NORD","CSL","0"
"111531","Villaceau"," ","0","0","0","NORD OUEST  ","0","0","0","0","0","92111","0","0","19.938199999","-72.73789999 ","0","0 ","0","0","0","0","0","0","0","0","0"," ","Privée","0","","SAINT LOUIS DU NORD","CSL","0"
"111532","Zabricot"," ","0","0","0","NORD OUEST  ","1","0","0","1","1","92112","0","1","19.914200000","-72.69700000 ","1","0 ","0","0","0","0","0","0","1","0","0"," ","Privée","0","","SAINT LOUIS DU NORD","CSL","1"
"111533","Guichard"," ","0","0","0","NORD OUEST  ","0","0","0","1","0","92113","0","0","19.8725","-72.6968 ","0","0 ","0","0","0","0","0","0","1","0","0"," ","Privée","0","","SAINT LOUIS DU NORD","CSL","1"
"111534","Centre de santé croix des missions"," ","0","1","1","OUEST  ","0","1","0","1","1","11219","0","1","18.5704","-72.2915 ","0","0 ","0","0","0","0","1","0","1","0","0"," ","Privée","0","","TABARRE","CSL","1"
"111535","Centre de santé Mais gaté"," ","0","0","0","OUEST  ","0","0","0","0","0","11220","0","0","18.574200000","-72.2971 ","0","0 ","0","0","0","0","0","0","0","0","0"," ","Privée","0","","TABARRE","CSL","0"
"111536","Centre de Santé de Terre-Neuve"," ","0","0","0","ARTIBONITE  ","0","1","0","1","1","52201","0","0","19.5989","-72.7807 ","0","0 ","0","0","0","0","0","0","1","0","0"," ","Publique","0","","TERRE NEUVE","CAL","1"
"111537","Disp Lagon"," ","0","0","0","ARTIBONITE  ","0","1","0","1","1","52202","0","0","19.5608","-72.727 ","0","0 ","0","0","0","0","0","0","1","0","0"," ","Publique","0","","TERRE NEUVE","CAL","0"
"111538","CSL de Terrier Rouge"," ","0","0","0","NORD EST  ","1","1","1","1","1","43301","0","1","19.637599999","-71.95359999 ","1","3 ","0","0","0","0","0","0","1","0","0"," ","Mixte","0","","TERRIER ROUGE","CSL","1"
"111539","CSL de Grand Bassin"," ","0","0","0","NORD EST  ","0","0","1","0","0","43302","0","0","19.573899999","-71.93689999 ","0","0 ","0","0","0","0","0","0","0","0","0"," ","Mixte","0","","TERRIER ROUGE","CSL","0"
"111540","Disp de Phaéton"," ","0","0","0","NORD EST  ","0","1","0","1","1","43303","0","0","19.677700000","-71.89539999 ","1","0 ","0","0","0","0","0","0","1","0","0"," ","Publique","0","","TERRIER ROUGE","CAL","1"
"111541","Disp de Danda"," ","0","0","0","NORD EST  ","1","1","0","1","1","43304","0","1","19.560400000","-71.88580000 ","1","0 ","0","0","0","0","0","0","1","0","0"," ","Privée","0","","TERRIER ROUGE","CAL","1"
"111542","Centre sans lit de Thiotte"," ","0","0","0","SUD EST  ","1","1","0","0","1","23301","0","1","18.2376","-71.86010000 ","0","1 ","0","0","0","0","0","0","0","0","0"," ","Publique","0","","THIOTTE","CSL","1"
"111543","Disp Bleck"," ","0","0","0","SUD EST  ","0","1","0","0","0","23302","0","1","18.2155","-71.8531 ","0","0 ","0","0","0","0","0","0","0","0","0"," ","Privée","0","","THIOTTE","CAL","0"
"111544","Disp Savane Zombi"," ","0","0","0","SUD EST  ","1","1","0","0","1","23303","0","1","18.2775","-71.8108 ","0","0 ","0","0","0","0","0","0","0","0","0"," ","Publique","0","","THIOTTE","CAL","1"
"111545","Disp Mare Blanche"," ","0","0","0","SUD EST  ","1","1","0","0","1","23304","0","1","18.2155","-71.8531 ","0","0 ","0","0","0","0","0","0","0","0","0"," ","Privée","0","","THIOTTE","CAL","1"
"111546","CSL Sacré- Coeur"," ","0","0","1","SUD EST  ","1","1","0","0","1","23305","0","1","18.2155","-71.8531 ","1","2 ","0","0","0","0","0","0","0","0","0"," ","Privée","0","","THIOTTE","CSL","1"
"111547","Disp de Boc Banic"," ","0","0","0","CENTRE  ","0","0","0","1","1","64201","0","0","19.051100000","-71.75 ","1","0 ","0","0","0","0","0","0","1","0","0"," ","Publique","0","","THOMASSIQUE","CAL","1"
"111548","Clinique St Joseph de Thomassique"," ","0","0","0","CENTRE  ","0","0","1","0","0","64202","0","0","19.0838","-71.83929999 ","0","0 ","0","0","0","0","0","0","0","0","0"," ","Privée","0","","THOMASSIQUE","CAL","0"
"111549","C/S de Thomazeau"," ","0","0","0","OUEST  ","0","0","0","0","0","13201","0","0","18.654399999","-72.09380000 ","0","0 ","0","0","0","0","0","0","0","0","0"," ","Publique","0","","THOMAZEAU","CAL","0"
"111550","Centre de Santé de Thomonde"," ","1","1","1","CENTRE  ","1","1","1","1","1","61301","0","1","19.018699999","-71.96479999 ","1","2 ","0","0","0","0","1","0","1","1","0"," ","Mixte","0","","THOMONDE","CAL","1"
"111551","Disp la Hoye "," ","0","0","0","CENTRE  ","1","1","0","1","1","61302","0","1","18.8667","-71.9507 ","1","0 ","0","0","0","0","0","0","1","0","0"," ","Publique","0","","THOMONDE","CAL","1"
"111552","Disp Roger Paradis"," ","0","0","0","SUD  ","1","0","0","1","1","75301","0","1","18.3423","-74.3329 ","1","0 ","0","0","0","0","0","0","1","0","0"," ","Privée","0","","TIBURON","CAL","1"
"111553","Maison de Naissance"," ","0","1","0","SUD  ","1","0","0","0","1","71201","0","1","18.1983","-73.82630000 ","0","4 ","0","0","0","0","1","0","1","1","0"," ","Privée","0","","TORBECK","CSL","1"
"111554","Saint joseph"," ","0","0","0","SUD  ","0","0","0","0","0","71202","0","0","18.1614","-73.80670000 ","0","0 ","0","0","0","0","0","0","0","0","0"," ","Publique","0","","TORBECK","CAL","0"
"111555","Ducis"," ","0","0","0","SUD  ","0","1","0","1","1","71203","0","0","18.235600000","-73.88750000 ","0","0 ","0","0","0","0","0","0","1","0","0"," ","Mixte","0","","TORBECK","CAL","1"
"111556","Maillard"," ","0","0","0","SUD  ","1","0","0","1","1","71204","0","1","18.1738","-73.8322 ","1","0 ","0","0","0","0","0","0","1","0","0"," ","Privée","0","","TORBECK","CAL","1"
"111557","Béraud"," ","0","0","0","SUD  ","0","1","0","1","1","71205","0","0","18.206499999","-73.85980000 ","0","0 ","0","0","0","0","0","0","1","0","0"," ","Publique","0","","TORBECK","CAL","1"
"111558","Ferme Leblanc"," ","0","0","0","SUD  ","0","1","0","1","1","71206","0","0","18.289100000","-73.88389999 ","0","0 ","0","0","0","0","0","0","1","0","0"," ","Publique","0","","TORBECK","CAL","1"
"111560","Disp de Roche Plate"," ","0","0","0","NORD EST  ","0","0","0","1","1","43102","0","0","19.557500000","-71.97570000 ","0","0 ","0","0","0","0","0","0","1","0","0"," ","Publique","0","","TROU DU NORD","CAL","1"
"111561","Disp de Vallières"," ","0","0","0","NORD EST  ","0","1","0","1","1","44101","0","0","19.436","-71.92069999 ","0","0 ","0","0","0","0","0","0","1","0","0"," ","Publique","0","","VALLIERRE","CAL","1"
"111562","Disp de Grosse Roche"," ","0","0","0","NORD EST  ","0","1","0","1","1","44102","0","0","19.479099999","-71.99580000 ","0","0 ","0","0","0","0","0","0","1","0","0"," ","Publique","0","","VALLIERRE","CAL","1"
"111564","Barbe (NF)"," ","0","0","0","ARTIBONITE  ","0","0","0","0","0","53202","0","0","19.0256","-72.4907 ","0","0 ","0","0","0","0","0","0","0","0","0"," ","Publique","0","","VERRETTES","CAL","0"
"111565","Bastien"," ","0","0","0","ARTIBONITE  ","1","1","0","1","1","53203","0","1","19.0472","-72.503 ","1","0 ","0","0","0","0","0","0","1","0","0"," ","Privée","0","","VERRETTES","CAL","1"
"111566","Desarmes"," ","0","0","0","ARTIBONITE  ","1","1","0","1","1","53204","0","1","18.992999999","-72.38960000 ","1","0 ","0","0","0","0","0","0","1","0","0"," ","Mixte","0","","VERRETTES","CSL","1"
"111567","Deschapelles"," ","0","0","0","ARTIBONITE  ","0","0","0","0","0","53205","0","0","19.082799999","-72.4953 ","0","0 ","0","0","0","0","0","0","0","0","0"," ","Privée","0","","VERRETTES","CAL","0"
"111569","Gabriel"," ","0","0","0","ARTIBONITE  ","0","0","0","0","0","53207","0","0","18.973299999","-72.46120000 ","0","0 ","0","0","0","0","0","0","0","0","0"," ","Privée","0","","VERRETTES","CAL","0"
"111570","Liancourt"," ","0","0","0","ARTIBONITE  ","1","1","0","1","1","53208","0","1","19.128299999","-72.53499999 ","1","0 ","0","0","0","0","0","0","1","0","0"," ","Privée","0","","VERRETTES","CAL","1"
"111571","Disp Marin"," ","0","0","0","ARTIBONITE  ","0","1","0","1","1","53209","0","0","19.029900000","-72.42029999 ","0","0 ","0","0","0","0","0","0","1","0","0"," ","Privée","0","","VERRETTES","CAL","0"
"111572","Disp Christant"," ","0","0","0","ARTIBONITE  ","1","0","0","1","1","53210","0","0","18.978899999","-72.40640000 ","0","0 ","0","0","0","0","0","0","1","0","0"," ","Privée","0","","VERRETTES","CAL","0"
"111579","Univers Centre Medical","121,Rue Vallieres Ouanaminthe ","0","0","1","NORD EST  ","0","1","0","1","0","42104","0","1",""," ","0","2 ","0","0","0","0","0","0","1","0","0","34814306 ","Privée","0","34814306","OUANAMINTHE","CAL","0"
"111580","Dispensaire Savane au Lait","savane au Lait ","0","0","0","NORD EST  ","0","1","0","1","1","42105","0","0",""," ","0","0 ","0","0","0","0","0","0","1","0","0","38361288 ","Publique","0","38361288","OUANAMINTHE","CAL","0"
"111581","Dispensaire Savanne longue","Aly ","0","0","0","NORD EST  ","0","0","0","1","1","42106","0","0",""," ","1","0 ","0","0","0","0","0","0","0","0","0"," ","Publique","0","","OUANAMINTHE","CAL","0"
"111582","Dispensaire Lamine","Paris ","0","0","0","NORD EST  ","0","1","0","1","1","42202","0","0",""," ","0","0 ","0","0","0","0","0","0","1","0","0","38616704 ","Publique","0","38616704","CAPOTILLE","CAL","0"
"111583","Dispensaire Notre dame de Lourde","Fouquette ","0","0","1","NORD EST  ","1","0","0","1","1","43203","0","0",""," ","1","0 ","0","0","0","0","0","0","1","0","0"," ","Privée","0","","SAINTE SUZANNE","CAL","0"
"111584","CSL Bethesda","Eglise baptiste de grand bassin bas quartier de gd bassin ","0","0","0","NORD EST  ","1","1","1","1","1","43302","0","1","19.5727","-71.9368 ","1","0 ","0","0","0","0","0","0","1","0","0","38722119 ","Mixte","0","38722119","TERRIER ROUGE","CSL","0"
"111585","Clinique Esperance et vie","Bas du bourg ","0","0","1","NORD EST  ","1","1","0","1","1","43305","0","1",""," ","1","0 ","0","0","0","0","0","0","1","0","0","37576662 ","Privée","0","37576662","TERRIER ROUGE","CSL","0"
"111586","Sante de sante sainte Elizabeth","  ","0","0","0","NORD EST  ","1","1","0","1","1","43403","0","1",""," ","1","2 ","0","0","0","0","0","0","1","0","0"," ","Privée","0","","CARACOL","CSL","0"
"111587","SSPE de Rose Bonite","Rose bonite ","0","0","0","NORD EST  ","0","0","0","0","0","","0","0",""," ","0","0 ","0","0","0","0","0","0","0","0","0"," ","Publique","0","","CARICE","CAL","0"
"111588","Dispensaire de Pilette","Pilette ","0","0","0","NORD EST  ","0","0","0","0","0","42103","0","0",""," ","0","0 ","0","0","0","0","0","0","0","0","0","36788304 ","Mixte","0","36788304","TROU DU NORD","CSL","0"
